feature_name,feature_tag,Name,Address,Latitude,Longitude,Location,Nearest(poi)
familymart,convenience_store,FAMILYMART @86,"FamilyMart Wisma Lim Foo Yong, Lot G-01, Ground Floor, Wisma Lim Foo Yong, 86, Jalan Raja Chulan, 50200 Kuala Lumpur",3.150867,101.709349,86,"['Wayback Burgers', 'Toyota Tsusho Malaysia', 'The Tole Acupuncture']"
familymart,convenience_store,FAMILYMART @Mid Valley City,"FamilyMart Mid Valley Megamall, F-027C, Level 1, North Court, Mid Valley Megamall, Mid Valley City, Lingkaran Syed Putra, 59200 Kuala Lumpur.",3.119014,101.677789,Mid Valley City,"['Mega Kidz', 'J&G Fried Chicken', 'AEON Member Counter']"
familymart,convenience_store,FAMILYMART @64000,"Gateway @ KLIA2 L3-12 & 13, Level 3, Gateway @ KLIA 2, KLIA 2, KL International Airport, Jalan KLIA 2/1, 64000, Sepang, Kuala Lumpur",2.7390116,101.6870723,64000,"['KLIA2 International Satellite', 'Gate Q3', 'Gate Q5']"
familymart,convenience_store,FAMILYMART @MRT Jajaran Sungai Buloh - Kajang (MRT SBK Line),"K010-1&2, Stesen MRT Taman Tun Dr Ismail, MRT Jajaran Sungai Buloh - Kajang (MRT SBK Line),<Br>Jalan Damansara, 60000 Kuala Lumpur",3.075362,101.590765,MRT Jajaran Sungai Buloh - Kajang (MRT SBK Line),"['IK Copy Centre', 'Mac Centre Bookshop', 'J&J Sales & Services']"
familymart,convenience_store,FAMILYMART @Jalan SS15/8,"No.20, Jalan SS15/8, 47500 Subang Jaya, Selangor Darul Ehsan",3.075362,101.590765,Jalan SS15/8,"['IK Copy Centre', 'Mac Centre Bookshop', 'J&J Sales & Services']"
familymart,convenience_store,FAMILYMART @No 6,"Lot No. B1 - 031, Basement 1, Mytown Shopping Centre, No 6, Jalan Cochrane Seksyen 90, 55100 Kuala Lumpur",3.134201,101.72281,No 6,"['Godiva @ MyTown', ""Victoria's Secret"", 'Absolute Thai']"
familymart,convenience_store,FAMILYMART @Ground Floor,"Lot 119, Ground Floor,<Br>Jalan Sultan, 50000 Kuala Lumpur",3.063439,101.616105,Ground Floor,"[""Taylor's Dance Studio"", 'Uni.Gym']"
familymart,convenience_store,FAMILYMART @Jalan Taylor&apos;s,"G-6, Ground Floor, The Broadwalk. No 2, Jalan Taylor&apos;s, Subang Jaya, 47500 Selangor",3.063439,101.616105,Jalan Taylor&apos;s,"[""Taylor's Dance Studio"", 'Uni.Gym']"
familymart,convenience_store,FAMILYMART @Subang Jaya,"42 Ground Floor, Jalan Sultan Ismail, 50250 Kuala Lumpur",3.147912,101.707222,Subang Jaya,"['Sports Bar & Grill', 'Envy Kl', 'Ciccio Bar Pizzeria KL']"
familymart,convenience_store,FAMILYMART @47500 Selangor,"G18-1 (Ground Floor), Jalan Changkat Bukit Bintang, 50200 Kuala Lumpur",3.147912,101.707222,47500 Selangor,"['Sports Bar & Grill', 'Envy Kl', 'Ciccio Bar Pizzeria KL']"
familymart,convenience_store,FAMILYMART @Nu Sentral,"GF 40 Ground Floor Level, Nu Sentral, No. 201 Jalan Tun Sambanthan, 50470 Kuala Lumpur",3.133045,101.686594,Nu Sentral,"['Nu Sentral Tower', 'AEROBUS Terminal', ""SAM's Groceria""]"
familymart,convenience_store,FAMILYMART @Lingkaran SV,"Lot No.1-22 Sunway Velocity Mall, Lingkaran SV, Sunway Velocity, 55100 Kuala Lumpur",3.128492,101.723052,Lingkaran SV,"['Kitschen', 'Akemi Uchi', 'Kaffee Haus']"
familymart,convenience_store,FAMILYMART @Bandar Sunway,"Lot C-G-R01, Sunway Medical Centre, Tower C, 5 Jalan Lagoon Selatan, Bandar Sunway, 47500 Petaling Jaya, Selangor",3.065865,101.60842,Bandar Sunway,"['Sunway Medical Centre (Room 2323-1)', 'Dr. Shaharin Shaharuddin', 'Family Mart']"
familymart,convenience_store,FAMILYMART @Level 1 Menara Citibank,"Suite 1.06, Level 1 Menara Citibank, 165 Jalan Ampang, 50450 Kuala Lumpur",3.160061,101.717414,Level 1 Menara Citibank,"['Talisman Energy', 'Citibank', 'Servcorp Smart Office']"
familymart,convenience_store,FAMILYMART @46050 Petaling Jaya,"G-02, Ground Floor,PJ Tower, 18 Persiaran Barat, 46050 Petaling Jaya, Selangor, Malaysia",3.104632,101.64665,46050 Petaling Jaya,"['Info Spec Training Centre', 'Guardian', 'Sodexo']"
familymart,convenience_store,FAMILYMART @Kampung Datuk Keramat,"Lot C-06, Concourse floor, Intermark Mall, 348, Jalan Tun Razak, Kampung Datuk Keramat, 50400 Kuala Lumpur, Wilayah Persekutuan Kuala Lumpur",3.161391,101.72016,Kampung Datuk Keramat,"['Jo Nails & Spa', 'MST GOLF SuperStore', 'SumitomoMitsuiBankingCorporation']"
familymart,convenience_store,FAMILYMART @Bandar Sunway,"17, Jalan PJS 11/9, Bandar Sunway, 46150 Petaling Jaya, Selangor",3.068286,101.603175,Bandar Sunway,"['Dialogue', 'Sweet Gather', 'Family Mart']"
familymart,convenience_store,FAMILYMART @1 Jalan SS12/1A,"Lot G1-03, Subang Jaya Medical Centre (North Tower Annex Block), 1 Jalan SS12/1A, 47500 Subang Jaya, Selangor",3.07841,101.593624,1 Jalan SS12/1A,"['Chemotherapy Day Care', 'Intensive Care UniT', 'Main Hall of SDMC South Tower']"
familymart,convenience_store,FAMILYMART @Jalan SS 2/67,"No 10, Jalan SS 2/67, 47300 Petaling Jaya, Selangor.",3.119041,101.623031,Jalan SS 2/67,"['黑鲸 The Black Whale', 'Starling Bistro & Pub', 'Thai Mansion']"
familymart,convenience_store,FAMILYMART @Damansara Utama,"No. 39G, Jalan SS 21/37, Damansara Utama, 47400 Petaling Jaya, Selangor",3.136647,101.623513,Damansara Utama,"['家味小食堂-Home Kitchen', ""Yin's Sourdough Bakery"", 'Yees Yogurt']"
familymart,convenience_store,FAMILYMART @Genting Highlands Resorts,"Lot No. 2-3, Level 2, Awana Skyway Station, Genting Highlands Resorts, 69000 Genting Highlands, Pahang",3.422194,101.792929,Genting Highlands Resorts,"['Genting Resort Hotel Room 15105', 'Resort Cafe', 'EAT@B5']"
familymart,convenience_store,FAMILYMART @Jalan KLIA 2/1,"L2-96 & L2-97, Level 2, Gateway@KLIA2, Terminal KLIA2, KL International Airport, Jalan KLIA 2/1, 64000 KLIA Sepang, Selangor",2.743645,101.685773,Jalan KLIA 2/1,"['Hong Leong Bank', 'Airasia Pax Handling Office', 'Malaysian Autogate']"
familymart,convenience_store,FAMILYMART @The Scott Garden,"Lot 1-18, The Scott Garden, 289 Jalan Kelang Lama, 58000 Kuala Lumpur",3.205578,101.733062,The Scott Garden,"['Suan SaloOn', 'FamilyMart', 'Tealive']"
familymart,convenience_store,FAMILYMART @Jalan 14/27B,"20, Jalan 14/27B, Taman Desa Setapak, 53300 Kuala Lumpur",3.205578,101.733062,Jalan 14/27B,"['Suan SaloOn', 'FamilyMart', 'Tealive']"
familymart,convenience_store,FAMILYMART @Bandar Bukit Tinggi,"8-00-1, Lorong Batu Nilam 4A, Bandar Bukit Tinggi,<Br>41200 Klang, Selangor",3.008132,101.439579,Bandar Bukit Tinggi,"['HSBC Amanah', 'Vixmatech Centre', 'HSBC Bank']"
familymart,convenience_store,FAMILYMART @<Br>Damansara Utama,"Uptown Tower 3 No. 16G, Jalan SS 21/39,<Br>Damansara Utama, 47400 Petaling Jaya, Selangor",3.136542,101.621432,<Br>Damansara Utama,"['Mcdonald Uptown', 'Yong Dental Surgery', '饥饿食坊 Hungry People - Fresh Food Mart']"
familymart,convenience_store,FAMILYMART @Usj 1,"Lot G (0), The Summit USJ, 38, Perisaran Kewajipan, Usj 1, 47600 Subang Jaya, Selangor",3.060459,101.593376,Usj 1,"['Vinnie Cafe', 'Penang Favorites', 'Koong Woh Tong 恭和堂']"
familymart,convenience_store,FAMILYMART @Kelana Jaya,"Lot CF-08, Concourse Floor, N0 1, Jalan SS7/26A, Kelana Jaya, 47301 Petaling Jaya, Selangor",3.105541,101.595692,Kelana Jaya,"['H&M', 'GNC', 'Food Arcade']"
familymart,convenience_store,FAMILYMART @Jalan P.Ramlee,"Lot G11, Ground Floor, Menara Hap Seng, Jalan P.Ramlee, 50250 Kuala Lumpur, Kuala Lumpur",3.152199,101.706845,Jalan P.Ramlee,"['The Well Shopping Mall', 'Hap Seng Consolidated Berhad', 'Caffe Pascucci']"
familymart,convenience_store,FAMILYMART @Taman Segar,"Lot No. L1-48-3, Cheras LeisureMall, Jalan Manis 6, Taman Segar, 56100 Kuala Lumpur, Malaysia",3.090955,101.742409,Taman Segar,"['Baskin-Robbins', 'Hush Puppies', 'SHINS']"
familymart,convenience_store,FAMILYMART @47800,"Lot LG 1.11, Lower Ground floor, IPC Shopping Centre, No. 2, Jalan PJU 7/2, Mutiara Damansara, 47800, Petaling Jaya, Selangor",3.155949,101.611455,47800,"['Tudung People Ipc', 'Balloon Buzz Party Centre', 'Health Lane Pharmacy']"
familymart,convenience_store,FAMILYMART @Jalan Malinja 2,"No.17, Jalan Malinja 2, Taman Bunga Raya, 53000 Kuala Lumpur",3.07114,101.694901,Jalan Malinja 2,"['Sushi Hiro', 'Tealive', 'Lim & Partners Dental Clinic']"
familymart,convenience_store,FAMILYMART @UCSI Heights (Taman Connaught),"Lobby, Level 1, Block A, UCSI University, No 1, Jalan Menara Gading, UCSI Heights (Taman Connaught), 56000 Cheras, Kuala Lumpur",3.07114,101.694901,UCSI Heights (Taman Connaught),"['Sushi Hiro', 'Tealive', 'Lim & Partners Dental Clinic']"
familymart,convenience_store,FAMILYMART @Bandar Sri Petaling,"No 75G, Jalan Radin Bagus, Bandar Sri Petaling, 57000, Kuala Lumpur",3.07114,101.694901,Bandar Sri Petaling,"['Sushi Hiro', 'Tealive', 'Lim & Partners Dental Clinic']"
familymart,convenience_store,FAMILYMART @No 8,"Unit UG-3, Level UG, The Sphere, No 1, Avenue 1, Bangsar South, No 8, Jalan Kerinchi, 59200 Kuala Lumpur",3.11075,101.667795,No 8,"['Nyonya Tingkat Signature', 'Good Meals', 'Family Mart']"
familymart,convenience_store,FAMILYMART @Jalan Danau Niaga,"No. 6 Plaza Usahawan Genting Klang (Plaza Crystalville), Jalan Danau Niaga, Taman Danau Kota, 53300 Kuala Lumpur",3.202604,101.717058,Jalan Danau Niaga,"[""7 Day's Hotel"", 'PV15 Bus Stop', 'Watsons Plaza Crystalville']"
familymart,convenience_store,FAMILYMART @Bandar Puteri,"No 18, Jalan Puteri 1/2, Bandar Puteri, 47100 Puchong, Selangor",3.026259,101.616041,Bandar Puteri,"['Big Bath', 'Got It Stationery', 'Family Mart Bandar Puteri']"
familymart,convenience_store,FAMILYMART @Damansara Jaya,"No. 51, Jalan SS22/19, Damansara Jaya, 47400 Petaling Jaya, Selangor",3.126929,101.615394,Damansara Jaya,"['Aster Spring', 'Inside Scoop', 'Familymart Damansara Jaya']"
familymart,convenience_store,FAMILYMART @Jalan USJ 10/1,"No.33, Jalan USJ 10/1, UEP Subang Jaya, 47620 Selangor",3.047813,101.584693,Jalan USJ 10/1,"['Restoran Hassan Ayam Kampung', '寵物美容專店 (Lee Pet Supply)', 'Taipan Florist']"
familymart,convenience_store,FAMILYMART @Jalan Tun Abdul Aziz,"No.26 (Ground floor), Jalan Tun Abdul Aziz, 43000 Kajang, Selangor",2.991566,101.791193,Jalan Tun Abdul Aziz,"[""McDonald's"", 'Dental Care Centre', 'Family Mart']"
familymart,convenience_store,FAMILYMART @Desa Sri Hartamas,"28(Ground Floor), Jalan 24/70A, Desa Sri Hartamas, 50480, Kuala Lumpur",3.162731,101.650723,Desa Sri Hartamas,"[""BURNIN' PIT"", 'Balai Bomba Dan Penyelamat', 'Shin Nihon 新日本焼肉党']"
familymart,convenience_store,FAMILYMART @Bandar Sg Long,"No 16, Jalan SL 1/2,  Bandar Sg Long, 43000 Kajang, Selangor",3.040203,101.793816,Bandar Sg Long,"['Kerry Trading', 'Face to Face Noodle House (面对面板面专卖点)', 'MZ Food Corner']"
familymart,convenience_store,FAMILYMART @43000 Kajang,"No. 13 Jalan 14/20, Petaling Jaya, 46100 Selangor Darul Ehsan",3.109568,101.636393,43000 Kajang,"['Joo Hua', 'Family Mart', 'Singwa Watch']"
familymart,convenience_store,FAMILYMART @Dataran C180,"31-G, Jalan C180/1, Dataran C180, 43200 Cheras, Selangor Darul Ehsan",3.035811,101.765777,Dataran C180,"['Family Mart', 'Empress Reflexology', 'Super Junior Family Karaoke']"
familymart,convenience_store,FAMILYMART @Jalan Rimbunan Raya 1,"No.143, (Ground Floor), Jalan Rimbunan Raya 1, Laman Rimbunan Kepong, 52100 Kuala Lumpur",3.211236,101.649664,Jalan Rimbunan Raya 1,"['Wolfgang Cafe 大野狼', '\ue01b1WorldTINTING\ue132', '香港仔车仔面']"
familymart,convenience_store,FAMILYMART @Sek U13,"22-1-1, Jalan Setia Prima B U13/B, Sek U13, Setia Alam, 40170 Shah Alam",3.096796,101.445755,Sek U13,"['FamilyMart', 'FnC 中国风', 'Uncle Samad Dobi']"
familymart,convenience_store,FAMILYMART @Seksyen 31,"No.29-G, Jalan Anggerik Vanilla X 31/X, Kota Kemuning, Seksyen 31, 40460 Shah Alam, Selangor",3.004821,101.534578,Seksyen 31,"['Health Lane Family Pharmacy', 'Family Mart', 'Klinik Pergigian Shiny']"
familymart,convenience_store,FAMILYMART @Taman Maluri,"No.267, Jalan Mahkota, Taman Maluri, Cheras, 55100 Kuala Lumpur",3.129597,101.731705,Taman Maluri,"['Family Mart', 'Klinik Ng And Lee', '心雨中日素食料理']"
familymart,convenience_store,FAMILYMART @Kota Damansara,"Lot G12, Sunway Giza Mall, No.2, Jalan PJU 5/14, PJU 5, Kota Damansara, 47810 Petaling Jaya, Selangor",3.150886,101.591636,Kota Damansara,"['Just Seafood', 'Wenawave', 'Camera Valley']"
familymart,convenience_store,FAMILYMART @Jalan PJU 1A/7A,"R-13, Ara Damansara, Oasis Square, No. 2, Jalan PJU 1A/7A, Petaling Jaya, 47301 Selangor",3.113361,101.575445,Jalan PJU 1A/7A,"['海底捞火锅 Haidilao Malaysia (Office)', 'Bank Islam (Ara Damansara)', 'Chiropractic Speciality Centre']"
familymart,convenience_store,FAMILYMART @Cyber12,"Lot-21B, Dpulze, Lingkaran Cyber Point Timur, Cyber12, 63000 Cyberjaya, Selangor",2.921855,101.651211,Cyber12,"['Boat Noodle', ""Jasmina Collection D'Pulze"", 'Campur Campur Kitchen']"
familymart,convenience_store,FAMILYMART @Jalan Putra,"Unit No 1.019B, First Floor, Sunway Putra Mall, 40, Jalan Putra, Chow Kit, 50350 Kuala Lumpur",3.166343,101.692082,Jalan Putra,"['Mac Cosmetics', 'Monki', 'SSF@Sunway Putra']"
familymart,convenience_store,FAMILYMART @Taman Eng Ann,"No 2, Lorong Kasawari 4B, Taman Eng Ann, Klang, 41150 Selangor",3.057183,101.459965,Taman Eng Ann,"['Cocorica', 'FamilyMart', '金刚茶餐室']"
familymart,convenience_store,FAMILYMART @Prima Sri Gombak,"No 13G (Ground Floor), Jalan Prima SG 1, Prima Sri Gombak, 68100 Batu Caves, Selangor",3.238809,101.699845,Prima Sri Gombak,"['HSBC Amanah @ Prima Sri Gombak', 'Airish Beauty & Spa', 'Secret Recipe']"
familymart,convenience_store,FAMILYMART @Seksyen 7,"No 17, Jalan Plumbum R7/R, Seksyen 7, 40000 Shah Alam, Selangor",3.067883,101.489494,Seksyen 7,"['CrazeeCausa', 'Ninjaz', 'Family Mart']"
familymart,convenience_store,FAMILYMART @Mines Resort City,"The Mines, L2-K6, Level 2, Jalan Dulang, Mines Resort City, Seri Kembangan, 43300 Selangor",3.028024,101.717657,Mines Resort City,"['Seoul Garden The Mines', 'Evolution Optical Sdn Bhd', 'Seoul Garden']"
familymart,convenience_store,FAMILYMART @Desa Aman Puri,"1-36A, Jalan Desa 1/3, Desa Aman Puri, Kepong, 52100 Kuala Lumpur",3.211579,101.615653,Desa Aman Puri,"['Family Mart Aman Puri', 'Pet Save @ Aman Puri', 'C&C Salon']"
familymart,convenience_store,FAMILYMART @Seksyen 18,"27G, Jalan Pinang B, 18/B, Seksyen 18, 40000 Shah Alam, Selangor",3.044483,101.51803,Seksyen 18,"['Family Mart Seksyen 18', 'Poliklinik Rakyat Dr Jega', 'Foto SZ']"
familymart,convenience_store,FAMILYMART @Jalan Kuchai Maju 8,"5G, Jalan Kuchai Maju 8, Kuchai Lama, 58200 Kuala Lumpur",3.089626,101.686656,Jalan Kuchai Maju 8,"['足悦足疗保健中心', '湘满清酒楼 Restaurant Xiang Man Qing', 'Family Mart Kuchai Lama']"
familymart,convenience_store,FAMILYMART @Dataran Dwitasik,"No 61, Jalan Dwitasik 1, Dataran Dwitasik, Bandar Sri Permaisuri, 56000 Kuala Lumpur",3.100978,101.712486,Dataran Dwitasik,"['Pakar Ekzos Kaki Exhaust', 'Twolip Dreadshoppe', 'Agrobank Cheras']"
familymart,convenience_store,FAMILYMART @Bandar Menjalara,"55G, Jalan 3/62A, Bandar Menjalara, kepong, 52100 Kuala Lumpur",3.195159,101.630762,Bandar Menjalara,"['Zen & Co', '新高原海鲜火锅饭店', 'Lucky Star Cafe']"
familymart,convenience_store,FAMILYMART @62502 Putrajaya,"LG-72, Lower Ground Floor, IOI City Tower Two, Lebuh IRC, IOI Resort City, 62502 Putrajaya, Sepang, Selangor",2.969659,101.712434,62502 Putrajaya,"['A-Saloon', 'NYX Professional Makeup', 'Clarks']"
familymart,convenience_store,FAMILYMART @Jalan Metro Pudu 2,"48G, Jalan Metro Pudu 2, off Jalan Yew, 55100 Kuala Lumpur",3.129395,101.714147,Jalan Metro Pudu 2,"['Theater Room HELP College', 'Family Mart @ Fraser Business Park', 'Room #842']"
familymart,convenience_store,FAMILYMART @Glenmarie,"No 3, jalan Peniaga U1 / 34 ,  Glenmarie , Seksyen U 1 , 40150 Shah Alam",3.081959,101.559207,Glenmarie,"['Pusat Bekam Glenmarie', 'Family Mart', 'Familymart']"
familymart,convenience_store,FAMILYMART @KU/13,"G - 270, KU/13, Jalan Besar, 42200 Kapar",3.139033,101.369969,KU/13,"['Familymart', '99 Market Kapar Batu 10', 'Namena Beauty & Boutique']"
familymart,convenience_store,FAMILYMART @43200,"G-2A, Jalan Temenggung 7/9, Bandar Mahkota Cheras, 43200, Cheras, Selangor",3.05246,101.786923,43200,"['Axeana Baby & Me', 'Family Mart', 'Foot Massage']"
familymart,convenience_store,FAMILYMART @Jalan Pandan Indah 1/25,"Lot R.G.02, Level G, MidPoint Shopping Complex, Jalan Pandan Indah 1/25, Pandan Indah, 55100 Kuala Lumpur",3.132439,101.752562,Jalan Pandan Indah 1/25,"['Family Mart', 'Texas Chicken', 'Charren Image Hair Saloon']"
familymart,convenience_store,FAMILYMART @Section 13,"G-9 , Menara U, Jalan Boling Padang 13/62, Section 13, 40100 Shah Alam, Selangor",3.075804,101.551854,Section 13,"['Gamma Fitness', 'Family Mart Section 13', 'Restoran Ajwain']"
familymart,convenience_store,FAMILYMART @Ground Floor,"No.61, Ground Floor, Jalan Sultan Ismail, 50250 Wilayah Persekutuan Kuala Lumpur",3.147362,101.711262,Ground Floor,"['The Shawarma Factory', 'Al Bedouin Delights', 'Kebab G']"
familymart,convenience_store,FAMILYMART @Taman Sutera Utama,"95, Sutera Tanjung 8/2, Taman Sutera Utama, 81300 Skudai, Johor",1.514798,103.668885,Taman Sutera Utama,"['我的Food Court', 'Hotel Suan Bee', 'Kingston Hotel']"
familymart,convenience_store,FAMILYMART @Kelana Jaya,"F-G-02, Jalan SS6/ 5B, Dataran Glomac, Kelana Jaya, 47301 Petaling Jaya, Selangor",3.103634,101.60014,Kelana Jaya,"['Family Mart', 'Premio Stationery Sdn Bhd', 'Menara Optometry']"
familymart,convenience_store,FAMILYMART @Bandar Puchong Jaya,"G7, Jalan Kenari 4, Bandar Puchong Jaya, 47170 Puchong, Selangor",3.045468,101.620956,Bandar Puchong Jaya,"['Star Elite Table Tennis Centre', 'Family Mart Puchong Jaya', 'Fipper']"
familymart,convenience_store,FAMILYMART @Seksyen U3,"Lot 37011, No. PU 469, Jalan Subang Sungai Buloh, Seksyen U3, 40150 Shah Alam, Selangor",3.15339,101.553088,Seksyen U3,"['Caltex', 'Family Mart @ Caltex', 'CarWash Caltex Subang']"
familymart,convenience_store,FAMILYMART @Taman Selayang Utama,"No 3, Jalan SU 10, Taman Selayang Utama, 68100 Batu Caves, Selangor",3.237149,101.643538,Taman Selayang Utama,"['Family Mart Selayang', 'Max Automart Cash & Carry', 'Dapur Penyet']"
familymart,convenience_store,FAMILYMART @Bandar Sunway,"OB2.G.U2A, Oasis Boulevard, Sunway Pyramid, 3, Jalan PJS 11/15, Bandar Sunway, 47500 Petaling Jaya, Selangor",3.069892,101.518563,Bandar Sunway,"['Pesta Buku Negeri Selangor', 'Grand Ballroom SACC', 'Westside Bistro']"
familymart,convenience_store,FAMILYMART @Seksyen 14,"GF-32,Ground Floor, SACC Mall, Jalan Perbadanan 14/9, Seksyen 14, 40000 Shah Alam, Selangor",3.069892,101.518563,Seksyen 14,"['Pesta Buku Negeri Selangor', 'Grand Ballroom SACC', 'Westside Bistro']"
familymart,convenience_store,FAMILYMART @3 1/2 Miles,"568-G-8 & 568-G-25, Kompleks Mutiara, 3 1/2 Miles, Jalan Ipoh, 52100 Kuala Lumpur",3.178395,101.685171,3 1/2 Miles,"['KSKA Arkitek Sdn Bhd', 'Pool Side', 'Sri Paranjothy Vinayaga Temple']"
familymart,convenience_store,FAMILYMART @Taman Nusa Bestari,"14 (G), Jalan Bestari 2/2, Taman Nusa Bestari, 81200 Skudai, Johor",1.480735,103.665307,Taman Nusa Bestari,"['Nova Furniture Centre', 'FamilyMart', 'TMpoint']"
familymart,convenience_store,FAMILYMART @Jalan Puchong,"Lot 58753, Batu 14, Jalan Puchong, 47100 Puchong, Selangor",2.987537,101.625394,Jalan Puchong,"[""Vista Prima Condo's Swimming Pool"", 'Family Mart', 'Caltex']"
familymart,convenience_store,FAMILYMART @Persiaran Lestari Perdana,"Lot 45245, Persiaran Lestari Perdana, Taman Lestari Perdana, 43300 Seri Kembangan",2.994221,101.663337,Persiaran Lestari Perdana,"['Caltex', 'FamilyMart', 'Taman Rekreasi Lestari Perdana']"
familymart,convenience_store,FAMILYMART @Block F,"Unit 1A & Unit 25, Ground Floor, Block F, Plaza Sentosa, 80150 Johor Bahru",1.492704,103.768571,Block F,"['Grand Sentosa Hotel', 'MR. D.I.Y', ""Sentosa D'eli""]"
familymart,convenience_store,FAMILYMART @Bandar Bestari,"No. 1, Ground Floor, KSL Avenue, No. 1, Jln Bestari 9/KS09, Bandar Bestari, 41200 Klang Bandar Diraja, Selangor",2.959934,101.466635,Bandar Bestari,"['Family Mart @ KSL Avenue', 'Family Mart @ Canary Garden', 'Nippon Sushi (Bandar Bestari)']"
familymart,convenience_store,FAMILYMART @Ampang Point,"87 (Ground Floor), Lorong Mamanda 1, Ampang Point, 68000 Ampang, Selangor",3.158951,101.750855,Ampang Point,"['Nippon Sushi', 'Medini Ampang Point Dental Clinic', ""Klinik Medi'zen""]"
familymart,convenience_store,FAMILYMART @Sunway South Quay,"Lot L2-02-01A, Sunway Monash Residence, Persiaran Tasik Barat, Sunway South Quay, 47500 Subang Jaya, Selangor",3.063052,101.599376,Sunway South Quay,"['Gymnasium', 'FamilyMart (全家便利商店)', 'Monash Residence Basketball Court']"
familymart,convenience_store,FAMILYMART @Jalil Link,"22, 2, Jalan Jalil Jaya 2, Jalil Link, 57000 Kuala Lumpur, Wilayah Persekutuan Kuala Lumpur",3.057732,101.673994,Jalil Link,"['Great Ideals', 'Golden Tyre Car Care Services', 'Hidangan Ummi Restoran & Katering']"
familymart,convenience_store,FAMILYMART @Jalan Wong Ah Fook,"Lot J2-18 Level 02, Johor Bahru City Square, 106-108, Jalan Wong Ah Fook, 8000 Johor Bahru, Johor",1.461496,103.763854,Jalan Wong Ah Fook,"['Zaid Ibrahim & Co', 'Uptown Seget', 'Delifrance']"
familymart,convenience_store,FAMILYMART @Taman Austin Heights,"62, Jalan Austin Heights 8/7, Taman Austin Heights, 81100 Johor Bahru, Johor",1.560973,103.78009,Taman Austin Heights,"[""Domino's Pizza"", '颜香海鲜鱼肉汤 Mount Austin', 'Global Pets']"
familymart,convenience_store,FAMILYMART @Jalan Mega Mendung,"109, Jalan Mega Mendung, Bandar Complex, 58200 Kuala Lumpur",3.083203,101.671397,Jalan Mega Mendung,"['RHB Bank', 'Maybank OUG', 'FamilyMart']"
familymart,convenience_store,FAMILYMART @Mid Valley Megamall,"T-030A, Third Floor, Mid Valley Megamall, Lingkaran Syed Putra, 59200 Kuala Lumpur",3.11866,101.678306,Mid Valley Megamall,"['All IT Xpress', 'AEON Food Street', 'Original Cake']"
familymart,convenience_store,FAMILYMART @Lorong Batu Nilam 21B,"No. 57 (Ground Floor), Lorong Batu Nilam 21B, Bandar Bukit Tinggi, 41200 Klang",2.998507,101.442594,Lorong Batu Nilam 21B,"['Restoran TST & AT （天上天亞頭海鮮肉骨茶飯店）', 'Zens Sushi', 'Mi Saeng Sushi 未生']"
familymart,convenience_store,FAMILYMART @Persiaran Multimedia,"Lot LG-39, Sentral i-City Shopping Centre, Plot 1, I-City, Persiaran Multimedia, Seksyen 7, 40000 Shah Alam",3.06238,101.481242,Persiaran Multimedia,"['Black Canyon', 'Hotpot Town', ""Johnny's Restaurant""]"
familymart,convenience_store,FAMILYMART @Seksyen 7,"No.112,Leboh Turi Taman Chi Liung, 41200 Klang",3.027033,101.427908,Seksyen 7,"['Seri Melayu Heritage', 'Fruity Bakery & Cafe', 'Delta & Johan (Chi Liung)']"
familymart,convenience_store,FAMILYMART @Southkey,"LG -020, The Mall, Mid Valley SouthKey, Persiaran Southkey 1, Southkey, 80150 Johor Bahru, Johor",1.49765,103.776939,Southkey,"['Eos Travel Agency', 'FBI 联邦调茶局', 'Tng - Tandoori Grill']"
familymart,convenience_store,FAMILYMART @Taman Johor Jaya,"No 22, Jalan Dedap 4, Taman Johor Jaya, 81100 Johor Bahru, Johor",1.540526,103.804532,Taman Johor Jaya,"['FamilyMart', 'Pine System Technology', ""万盈糕粉专卖店 (BX BAKER'S & TRADING)""]"
familymart,convenience_store,FAMILYMART @Seksyen 9,"NO. 15, Tengku Ampuan Zabedah E9/E, Seksyen 9, 40100 Shah Alam, Selangor",3.085449,101.522843,Seksyen 9,"['Restoran Al Safi', 'Restoran Ayam Penyet - Ap', 'KK Super Mart']"
familymart,convenience_store,FAMILYMART @Taman Daya,"Jalan Nipah 2, Taman Daya, 81100 Johor Bahru, Johor",1.544043,103.762465,Taman Daya,"['Subway', 'FamilyMart', 'Ar-Rahnu Taman Daya']"
familymart,convenience_store,FAMILYMART @Lake Fields,"63A, Jalan Tasik Utama 3, The Trillium, Lake Fields, Sungei Besi, 57000 Kuala Lumpur",3.061974,101.710983,Lake Fields,"['Family Mart', 'The Melium Group', 'G13 Hair Studio']"
familymart,convenience_store,FAMILYMART @Jalan Jelok 8,"Lot G2, Ground Floor, Metro Point Complex, Jalan Jelok 8, 43000 Kajang, Selangor Darul Ehsan",2.991738,101.793503,Jalan Jelok 8,"['Boat Noodle', 'The Hangout Café', 'Music Box KTV']"
familymart,convenience_store,FAMILYMART @43000 Kajang,"No. 127, Jalan Hang Jebat, 75200 Melaka.",2.197664,102.245365,43000 Kajang,"['鸡场街文化坊舞台', 'Backlane Coffee', '馬六甲雞場街']"
familymart,convenience_store,FAMILYMART @Selangor Darul Ehsan,"Kampung Kangkar Tebrau, 81100 Johor Bahru, Johor",1.500458,103.746623,Selangor Darul Ehsan,"['Caltex', 'Caltex - Larkin Perdana', 'Dewan Bahasa Dan Pustaka Wilayah Selatan']"
familymart,convenience_store,FAMILYMART @Taman Molek,"No 45, Ground Floor, Jalan Molek 3/10, Taman Molek, 81100 Johor Bahru, Johor",1.53362,103.790729,Taman Molek,"['Chai Jia Chai 蔡家菜馆', 'Shredz Fitness', 'Perodua Service Centre']"
familymart,convenience_store,FAMILYMART @Taman Mutiara Mas,"No. 2 , Jalan Mutiara 1/1, Taman Mutiara Mas, 81300 Skudai, Johor",1.515271,103.632407,Taman Mutiara Mas,"['JClean Laundromat Wash & Dry', '创世纪火锅料理', 'Nam Huat Heng 南发兴美食中心']"
familymart,convenience_store,FAMILYMART @Indahpura,"189, Jalan Kenanga 29/4, Indahpura, 81000 Kulai,<r>Johor",1.641611,103.619353,Indahpura,"['Indian Rail', 'Maybank Indahpura', 'Affin Bank']"
familymart,convenience_store,FAMILYMART @Bandar Baru Nilai,"G-03a, Ground Floor, Mesamall, Persiaran Ilmu, Bandar Baru Nilai, 71800 Nilai, Negeri Sembilan",2.824085,101.777395,Bandar Baru Nilai,"['Oc Original Classic', 'SSF', 'The Nom @MesaMall Nilai']"
familymart,convenience_store,FAMILYMART @Taman Bukit Dahlia,"No. 5, Jalan Sejambak 14, Taman Bukit Dahlia, 81700, Johor",1.478191,103.896039,Taman Bukit Dahlia,"['Restoran Zuraimi', 'Restorant Zuraimi', 'FamilyMart']"
familymart,convenience_store,FAMILYMART @Pusat Komersial Rasah Prima,"No.12-G, Jalan Rasah Prima 1, Pusat Komersial Rasah Prima, 70300 Seremban, Negeri Sembilan",2.689011,101.934284,Pusat Komersial Rasah Prima,"['Kedai Kopi Tak Sama', '不一样咖啡店', 'Family Mart']"
familymart,convenience_store,FAMILYMART @Taman Universiti,"No. 1 , Jalan Pendidikan 8, Taman Universiti, 81300 Skudai, Johor Bahru",1.545354,103.629505,Taman Universiti,"['El-Rahah Hair Salon', 'A.T. Plan Printing Centre', 'Bird On Wheels @ Warung D Keramat']"
familymart,convenience_store,FAMILYMART @Jalan Tun Mohd Fuad 3,"No. 27B, Ground Floor, Jalan Tun Mohd Fuad 3, Taman Tun Dr Ismail, 60000 Kuala Lumpur",3.139733,101.629647,Jalan Tun Mohd Fuad 3,"['Mr D.I.Y @ TTDI', 'Jenny Hong Soya Bean TTDI', 'KKIA TTDI']"
familymart,convenience_store,FAMILYMART @Taman Mount Austin,"5-1A-1, Jalan Austin Heights 3, Taman Mount Austin, 81100 Johor Bahru, Johor",1.560973,103.78009,Taman Mount Austin,"[""Domino's Pizza"", '颜香海鲜鱼肉汤 Mount Austin', 'Global Pets']"
familymart,convenience_store,FAMILYMART @Jalan Merdeka Villa,"No.1A-00-06, Pangsapuri Melati Merdeka Villa, Jalan Merdeka Villa, 68000 Ampang, Selangor",3.138782,101.764428,Jalan Merdeka Villa,"['Kedai Dobi Hoong Hoong Laundry', 'Family Mart', 'Kiwii Stationery']"
familymart,convenience_store,FAMILYMART @Kubang Badak,"PT 7490, Section 2, Kubang Badak, Pekan Bestari Jaya, 45000 Selangor",3.380533,101.413179,Kubang Badak,"['Family Mart', 'Burger King Bestari Jaya', 'Klinik Mediviron']"
familymart,convenience_store,FAMILYMART @Seksyen U13,"#LG-20A, Setia City Mall, No. 7, Persiaran Setia Dagang, Bandar Setia Alam, Seksyen U13, 40170 Shah Alam, Selangor",3.108652,101.460716,Seksyen U13,"['FamilyMart', 'Daiso', 'DC Shoes']"
familymart,convenience_store,FAMILYMART @Seremban - Bukit Nenas Highway,"Lot No 10 (A), Ground Floor, Gateway Off, Seremban - Bukit Nenas Highway, 70200 Seremban, Negeri Sembilan",2.717097,101.919439,Seremban - Bukit Nenas Highway,"['Nippon Sushi', 'Sushi Tsen', 'The Coffee Bean & Tea Leaf']"
familymart,convenience_store,FAMILYMART @Melak,"No. 3, Jalan Komersial TAKH 2, Taman Ayer Keroh Heights, Melak, Taman Muzaffar Shah, 75450 Malacca",2.25402,102.290779,Melak,"['Bubblelab Laundry Arcade', 'NG GK Dental Surgery (Melaka) Sdn Bhd', 'Klinik Gigi Dr Ng']"
familymart,convenience_store,FAMILYMART @Betaria Business Centre,"G-14, Ground Floor, Centerpoint Seremban, 33, Jalan Dato Siamang Gagap, Betaria Business Centre, 70100 Seremban, Negeri Sembilan",2.722232,101.955536,Betaria Business Centre,"['Pizza Hut Seremban CenterPoint', 'Centerpoint Seremban', 'The Store']"
familymart,convenience_store,FAMILYMART @Jalan SS 16/1,"LG-11, Lower Ground Level, Empire Shopping Gallery, Jalan SS 16/1, 47500 Subang Jaya, Selangor",3.082092,101.582297,Jalan SS 16/1,"['Paper Plane Production S/B', ""Keihl's"", 'Mail Boxes Etc. (MBE Empire Shopping Gallery)']"
familymart,convenience_store,FAMILYMART @Jalan Bukit Pantai,"Retail Lot 10, Ground floor, Block A, Pantai Hospital Kuala Lumpur, 8, Jalan Bukit Pantai, 59100, Kuala Lumpur",3.11971,101.666946,Jalan Bukit Pantai,"[""Dr. Tan Lye Suan's ENT"", 'Subway', 'Premium Pediatric Ward']"
familymart,convenience_store,FAMILYMART @Jalan 2/109F,"No. 1, Jalan 2/109F, Taman Danau Desa, 58100 Kuala Lumpur",3.098913,101.686541,Jalan 2/109F,"['Family Mart', 'Secret Recipe', 'Magicboo Beauty Sdn Bhd']"
familymart,convenience_store,FAMILYMART @SD13/1,"No. 11G, Jalan Tanjung, SD13/1, Bandar Sri Damansara, 52200 Kuala Lumpur",3.188203,101.60539,SD13/1,"['Gairs Auto Car Wash', 'Rummy Vegas', 'Health Lane Pharmacy']"
familymart,convenience_store,FAMILYMART @Taman Sentosa,"No. 6, Jalan Dato Yusuf Shabuddin 30, Taman Sentosa, 41200 Klang, Selangor",3.010492,101.466066,Taman Sentosa,"['Familymart', 'Hankook ( Perfomance Tyre )', 'Public Bank Sentosa']"
familymart,convenience_store,FAMILYMART @Jalan Sri Hartamas 1,"P-8A, Plaza Floor, No.60, Jalan Sri Hartamas 1, Taman Sri Hartamas, 50480 Kuala Lumpur",3.163871,101.657272,Jalan Sri Hartamas 1,"['Dama Music Productions', 'Yamaha Music School', 'Optimum Chiropractic']"
familymart,convenience_store,FAMILYMART @Jalan Cemerlang 4,"Np. 1(G), Jalan Cemerlang 4, 42700 Banting, Selangor",2.813279,101.507775,Jalan Cemerlang 4,"['Banting Business Center', 'Family Mart', 'The Chaiwalla Restaurant']"
familymart,convenience_store,FAMILYMART @Tmn Setia tropika,"3, Jalan Setia tropica 1/15, Tmn Setia tropika, 81200 Johor Bahru,  Johor",1.545722,103.71141,Tmn Setia tropika,"['Warisan Kelate', 'Mademoiselle Café', 'Mademoiselle Cafe']"
familymart,convenience_store,FAMILYMART @Lebuhraya Sg Buloh-Tanjung Malim,"Lot R5, Restoran Jejantas Sg Buloh (Arah Selatan), KM 458.3, Lebuhraya Sg Buloh-Tanjung Malim , 47000 Sg Buloh, Selangor",3.188742,101.586598,Lebuhraya Sg Buloh-Tanjung Malim,"['Burger King', 'R&R Restoran Jejantas Sungai Buloh', 'Kaya Kopitiam']"
familymart,convenience_store,FAMILYMART @Off Jalan Kapar,"Lot 75, Jalan Delima, Off Jalan Kapar, 41400 Klang, Selangor",3.056142,101.445771,Off Jalan Kapar,"['Family Mart Berkeley Uptown', 'Berkeley Uptown Sales Gallery', 'Perodua']"
familymart,convenience_store,FAMILYMART @Jalan Melaka Raya 3,"258, Jalan Melaka Raya 3, Taman Melaka Raya, 75000 Melaka",2.18774,102.253459,Jalan Melaka Raya 3,"['Restoren Ole Rasa', 'Restoran Nisa Din Melaka Raya', 'Ant Bar @ Jln Merdeka']"
familymart,convenience_store,FAMILYMART @Jalan Stesen Sentral 5,"Unit 3A-G Ground Floor, Block 3A, Plaza Sentral, Jalan Stesen Sentral 5, KL Sentral, 50470-Kuala Lumpur",3.132929,101.685105,Jalan Stesen Sentral 5,"['Malakoff Utilities', 'Malakoff', 'Klinik Bakti Sentral']"
familymart,convenience_store,FAMILYMART @Taman Desa Cemerlang,"No.99, Jalan Tanjong 1, Taman Desa Cemerlang, 81800 Ulu Tiram, Johor",1.461052,103.584133,Taman Desa Cemerlang,"['FamilyMart', 'Kedai Gunting Rambut Nathan', 'Klinik MM Care']"
familymart,convenience_store,FAMILYMART @Jalan Nusaria 11/1,"No. 27, Jalan Nusaria 11/1, Taman Nusantara, Gelang Patah",1.461052,103.584133,Jalan Nusaria 11/1,"['FamilyMart', 'Kedai Gunting Rambut Nathan', 'Klinik MM Care']"
familymart,convenience_store,FAMILYMART @Taman Puteri Wangsa,"Lot B, No.2, Jalan Beladau 31, Taman Puteri Wangsa, 81800 Ulu Tiram, Johor",1.590891,103.802095,Taman Puteri Wangsa,"['Family Mart (Taman Puteri Wangsa)', '乐天茶餐室 Restoran Wan Chiao', 'Caltex Petrol Station']"
familymart,convenience_store,FAMILYMART @Jalan Damanlela,"LG-18, Lower Ground Floor, Damansara City Mall, Damansara City, No. 6, Jalan Damanlela, Bukit Damansara, 50490 Kuala Lumpur",1.439342,103.620227,Jalan Damanlela,"['Restoran Al Barakah', 'FamilyMart', 'Manzanita Patrisserie And Boulangerie']"
familymart,convenience_store,FAMILYMART @Taman Eko Botani,"No 74, Jalan EkoBotanic 3/2, Taman Eko Botani, 79100 Nusajaya, Johor",1.439342,103.620227,Taman Eko Botani,"['Restoran Al Barakah', 'FamilyMart', 'Manzanita Patrisserie And Boulangerie']"
familymart,convenience_store,FAMILYMART @Persiaran Residen,"GF-21H, Ground Floor, The Waterfront@ParkCity, No.5, Persiaran Residen, Desa Park City, 52200 Kuala Lumpur",3.187106,101.6274,Persiaran Residen,"['Hearing Partners', 'Garden Scents', 'Volt Bicycle']"
familymart,convenience_store,FAMILYMART @Bandar Baru Seri Alam,"Gravity Green, Bandar Seri Alam, Masai Gravity Green @ Bandar Seri Alam, Jalan Suria, Bandar Baru Seri Alam, 81750 Masai, Johor",1.496107,103.872419,Bandar Baru Seri Alam,"['Vivo Pizza & Lebon', 'FamilyMart', 'Sabaidi Spa Masai']"
familymart,convenience_store,FAMILYMART @Seksyen 9,"No.23, Ground Floor, Jalan Medan Pusat 2D, Seksyen 9, 43650 Bandar Baru Bangi, Selangor",2.963613,101.752896,Seksyen 9,"[""Me'nate Steak Hub"", ""Me'nate Steak Hub Bandar Baru Bangi"", '101 Bangi Hotel']"
familymart,convenience_store,FAMILYMART @43650 Bandar Baru Bangi,"K3- Concourse Level, LRT Ampang Park Station, Kuala Lumpur",3.159878,101.7191,43650 Bandar Baru Bangi,"['BAE Systems Applied Intelligence', 'Yamesushi (Ampang Park Station)', 'Avon Titian Suria Beauty']"
familymart,convenience_store,FAMILYMART @Hang Tuah Jaya,"658F-G, Jalan Delima, Taman Bukit Melaka, Hang Tuah Jaya, 75450 Ayer Keroh, Melaka",2.232215,102.281997,Hang Tuah Jaya,"['Parkson', 'Sinar Permata Melaka Mall', 'LHDN Melaka']"
familymart,convenience_store,FAMILYMART @Jalan Dungun,"G-01A, Ground Floor, Wisma Perintis, 47, Jalan Dungun, Damansara Heights, 50490 Kuala Lumpur",3.15225,101.665313,Jalan Dungun,"['University Of Sheffield South East Asia Office', 'FamilyMart', 'Xi Fertility TCM Centre 兆喜中医助孕中心']"
familymart,convenience_store,FAMILYMART @Jalan Permas10/7,"No.14, Jalan Permas10/7, Bandar Baru Permas Jaya, 81750 Masai Johor",1.496771,103.815308,Jalan Permas10/7,"['Restoran Sin Soon Li 新顺利面粉粿专卖店', 'Restoran Rasa Permas', 'LaundryBar']"
familymart,convenience_store,FAMILYMART @Bandar Sunway,"LG Floor, Tower C, No.5, Jalan Lagoon Selatan, Bandar Sunway, 47500 Petaling Jaya, Selangor",3.066238,101.60954,Bandar Sunway,"['Dr Khoo Boo Aik - Paediatrician', 'Sunway Fertility Centre', 'Paedratic Department']"
familymart,convenience_store,FAMILYMART @Jalan Skudai,"GM 679, Lot 1283, Mukim Of Pulai, Tempat Batu 8, Jalan Skudai, 81300 Johor Bahru, Johor",1.523526,103.67822,Jalan Skudai,"['Caltex', 'FamilyMart', ""McDonald's / McCafé""]"
familymart,convenience_store,FAMILYMART @Jalan Bangsar Utama 1,"Unit 1-3A, 5, Jalan Bangsar Utama 1, Taman Bangsar, 59000 Kuala Lumpur",3.12812,101.678678,Jalan Bangsar Utama 1,"['HMSK Architecture Sdn Bhd', 'Sophie Paris', 'Kok Yuen Pin Dental Surgery']"
familymart,convenience_store,FAMILYMART @Taman Abad,"No LG-039, Lower Ground Floor, KSL CITY, 33, Jalan Seladang, Taman Abad, 80250 Johor Bahru, Johor",1.485563,103.762399,Taman Abad,"['IJ Pharmacy', 'Choco Choco', 'Team Hair & Nail Studio']"
familymart,convenience_store,FAMILYMART @No.1,"Lot G11, Ground Floor, Mahkota Parade, No.1, Jalan Merdeka, 75000 Melaka",2.188607,102.249966,No.1,"['K3 Dessert', 'K1 Penang Delight', 'Ages Ago 很久以前']"
familymart,convenience_store,FAMILYMART @Section U13,"No 2, Persiaran Setia Impian Bandar Setia Alam, Section U13, 40170 Shah Alam, Selangor",3.101481,101.443985,Section U13,"['Caltex', 'Maybank', 'Petron Setia Alam']"
familymart,convenience_store,FAMILYMART @Seta Ecohill,"No.28,-1 (Ground Floor), Jalan Ecohill 1/5A, Seta Ecohill, 43500 Semenyih, Selangor",2.926168,101.854918,Seta Ecohill,"['Family Mart', 'Family Mart', 'SK Bandar Rinching']"
familymart,convenience_store,FAMILYMART @Taman Desa Tebrau,"G01, TOPPEN Shopping Centre, No.33, Jalan Harmonium, Taman Desa Tebrau, 81100 Johor Bahru, Johor",1.553575,103.798408,Taman Desa Tebrau,"['Popular Bookstore', 'TGV Cinemas', 'Art Friend']"
familymart,convenience_store,FAMILYMART @Nu Sentral Shopping Centre,"G39 & G40, Level Ground Floor, Nu Sentral Shopping Centre, Jalan Tun Sambanthan, Kuala Lumpur",3.133192,101.687312,Nu Sentral Shopping Centre,"['Din by Din Tai Fung', 'DubuYo Urban Korean Food', 'Kenny Rogers Roasters']"
familymart,convenience_store,FAMILYMART @Taman Ungku Tun Aminah,"No.2, Jalan Pendekar 13, Taman Ungku Tun Aminah, 81300 Skudai, Johor",1.514027,103.653888,Taman Ungku Tun Aminah,"['MUZU', 'Flamingo By Gran Fiesta', 'Lan Kwai Fong Restaurant']"
familymart,convenience_store,FAMILYMART @Bandar Puteri,"No. M, Lot 133826, Lebuh Sanggul 1/KS7, Bandar Puteri, 41200 Klang, Selangor",2.988527,101.465961,Bandar Puteri,"['Family Mart Bandar Puteri', ""McDonald's"", 'NZ Curry House Bdr. Puteri']"
familymart,convenience_store,FAMILYMART @Kampung Berembang,"Lots 3 & 3A of Ground Floor, Block B, 282 & 286, Jalan Ampang, Kampung Berembang, 50450 Kuala Lumpur, Wilayah Persekutuan Kuala Lumpur",3.16141,101.739063,Kampung Berembang,"['Pharmacy', 'Clinic Dr Vimalan 5-17 Gleneagles Hospital', 'Gleneagles Hospital Kuala Lumpur']"
familymart,convenience_store,FAMILYMART @Adda Heights,"No 89, Jalan Adda 3/1, Taman Adda, Adda Heights, 81100 Johor Bahru, Johor",1.547556,103.746523,Adda Heights,"['The Reference Book Cafe 餐烤酥', 'Familymart', 'Project A']"
familymart,convenience_store,FAMILYMART @Jalan Diplomatik,"No. 58, Jalan Diplomatik, Presint 15, 62000 Putrajaya.",2.945499,101.723673,Jalan Diplomatik,"['Mesra Pet Shop', 'Klinik Mediviron Diplomatik', 'POTO Travel & Tours Putrajaya']"
familymart,convenience_store,FAMILYMART @Jalan Terminal 5,"No 32G, Jalan Terminal 5, 81400 Senai, Johor",1.63646,103.663095,Jalan Terminal 5,"['Perth Hotel', 'Chamek Kopitiam', 'Poliklinik Penawar Senai Airport']"
familymart,convenience_store,FAMILYMART @Jalan KLJ 8,"No. 10, Jalan KLJ 8, Taman Kota Laksamana Jaya, 75200 Melaka",2.199313,102.23026,Jalan KLJ 8,"['Daruma Syokudo', 'JLD DRAGON MELAKA', 'Family Mart']"
familymart,convenience_store,"FAMILYMART @Cyberjaya</span></h5><p class=""font10""Prima 4","/><span class=""small-font"">Prima Avenue, Cyberjaya</span></h5><p class=""font10""Prima 4, Jalan Teknokrat 5, 63000 Cyberjaya",2.920835,101.656611,"Cyberjaya</span></h5><p class=""font10""Prima 4","['TK KABIN', 'Container Ave', 'JN Cendol Station']"
familymart,convenience_store,FAMILYMART @Taman Mutiara,"No. 36, Jalan Mutiara Melaka 2, Taman Mutiara, 75350 Batu Berendam, Melaka",2.238215,102.260679,Taman Mutiara,"['Burger Selat', '7-Eleven', 'Familymart Batu Berendam']"
familymart,convenience_store,FAMILYMART @Jalan Lagenda 1,"35, Jalan Lagenda 1, Taman 1 Lagenda Melaka, Melaka",2.214578,102.244878,Jalan Lagenda 1,"['Gemoq Cafe', 'Ej Style Melaka', 'Familymart Lagenda Melaka']"
familymart,convenience_store,FAMILYMART @Suria KLCC,"Lot C02-C03, Concourse Level, Suria KLCC, Kuala Lumpur City Centre, 50088 Kuala Lumpur",3.157881,101.712611,Suria KLCC,"['Amouage', 'RASA Food Arena', 'Truefitt & Hill']"
familymart,convenience_store,FAMILYMART @Pusat Perdagangan Kebun Teh,"No. 20(GF), Jalan Kebun Teh 1, Pusat Perdagangan Kebun Teh, 80250 Johor Bahru, Johor",1.48765,103.754854,Pusat Perdagangan Kebun Teh,"[""Ads Corner's"", 'Bawal Power Sempoi', 'Eleven Kitchen']"
familymart,convenience_store,FAMILYMART @Pusat Perniagaan Bukit Baru Utama,"19, Jalan PNBBU 1, Pusat Perniagaan Bukit Baru Utama, 75150 Bukit Baru, Melaka",2.216314,102.270366,Pusat Perniagaan Bukit Baru Utama,"['Bubblelab Laundry Arcade', 'Salai Corner', 'Kedai Ayamas']"
familymart,convenience_store,FAMILYMART @Genting Highlands Resort,"Lot No. T1-03 of Level G, SkyAvenue, Genting Highlands Resort, 69000 Genting Highlands, Pahang",3.424088,101.795178,Genting Highlands Resort,"['MoodBoard', 'Absolute Thai', 'San Francisco Coffee']"
familymart,convenience_store,FAMILYMART @Teluk Kemang,"No. 18-G, Block B, Jalan PDS 1, PD Sunggala Gateway, Teluk Kemang, 71050 Port Dickson, Negeri Sembilan",2.47499,101.856828,Teluk Kemang,"['Marina Bay', 'Pirate Coffee @ Arissa Ariana Vendeur Boutique Batu 6', 'Kedai Rakyat 1 Malaysia Port Dickson']"
familymart,convenience_store,FAMILYMART @Seksyen U16,"No.15-1 Jalan Elektron J U16/J, Seksyen U16, Denai Alam, 40160 Shah Alam",3.160652,101.512423,Seksyen U16,"['Family Mart', 'Pizza Hut Denai Alam', 'Chacup Cafe']"
familymart,convenience_store,FAMILYMART @Taman Gaya,"No.102, Jalan Gaya 1, Taman Gaya, 81800 Ulu Tiram, Johor.",1.562699,103.800365,Taman Gaya,"['Transform Fitness Centre', 'SUMMERTEA 夏一杯', '天晴飲食宮第二分行']"
familymart,convenience_store,FAMILYMART @64000 KLIA,"l2-27, 29 &30, Level 2, gateway@klia2, Arrival Hall, Terminal KLIA2, KL International Airport, Jalan KLIA 2/1, 64000 KLIA, Sepang, Selangor.",2.743476,101.688039,64000 KLIA,"['Jo Malone', 'Upin & Ipin Shoppe', ""Uncle Lim's""]"
familymart,convenience_store,FAMILYMART @Jalan PB 1A,"2A, Jalan PB 1A, Taman Puncak Bertam, 75250 Melaka",2.252598,102.222431,Jalan PB 1A,"['BHP Petrol Station Cheng/Bertam', 'Petron Cheng', ""McDonald's Pandu Lalu AMJ Bertam""]"
familymart,convenience_store,FAMILYMART @No.1 Jalan Pelangi 2,"G-3A One Maxim, No.1 Jalan Pelangi 2, 51000 Sentul, Kuala Lumpur",3.205526,101.689526,No.1 Jalan Pelangi 2,"['Char Kuey Teaw Sifu Corner Koperasi Polis', 'Shell', 'Cahaya Home Concept']"
familymart,convenience_store,FAMILYMART @Bandar Iskandar,"Retail Lot B1, Tower B, Lobby, Medini 9, Persiaran Medini Sentral1, Bandar Iskandar, 79250 Iskandar Puteri, Johor",2.919004,101.686816,Bandar Iskandar,"['Jabatan Imigresen Malaysia (Bahagian Passport)', 'Jabatan Imigresen Malaysia', 'Menara Ikhlas']"
familymart,convenience_store,FAMILYMART @Persiaran Perdana,"Ground Floor, Retail F&B 3, Menara Ikhlas, No. 17, Persiaran Perdana, Presint 3, 62100 Putrajaya",2.919004,101.686816,Persiaran Perdana,"['Jabatan Imigresen Malaysia (Bahagian Passport)', 'Jabatan Imigresen Malaysia', 'Menara Ikhlas']"
familymart,convenience_store,FAMILYMART @Jalan Tun Abdul Razak,"TZB14/TZB15, Zone B Terminal, Melaka Sentral, Jalan Tun Abdul Razak, Peringgit, 75300 Melaka",2.221198,102.250072,Jalan Tun Abdul Razak,"['SUBWAY', 'Restoran Nasi Ayam Malaysia', 'Restoran Sri Mawar Ria']"
familymart,convenience_store,FAMILYMART @Tingkat Bawah,"No.11, Tingkat Bawah, Lorong Hang Jebat, 75200 Melaka",2.240175,102.233969,Tingkat Bawah,"['FamilyMart Malim', 'Wings Musicafe Malim Jaya', 'Restoran Al-Albraar']"
familymart,convenience_store,FAMILYMART @Jalan Rahmat 2,"No. 13, Jalan Rahmat 2, Taman Malim Jaya, 75250 Melaka",2.240175,102.233969,Jalan Rahmat 2,"['FamilyMart Malim', 'Wings Musicafe Malim Jaya', 'Restoran Al-Albraar']"
familymart,convenience_store,FAMILYMART @Seksyen 15,"No.17 GF, Jalan 15/1A, Seksyen 15, 43650 Bandar Baru Bangi, Selangor",2.933499,101.768501,Seksyen 15,"['Michelin Star Plus Auto Car Care', 'Hock Eng Sports Yonex', 'Hock Eng Sports']"
familymart,convenience_store,FAMILYMART @Jalan Alamanda,"Lot G03-G04, Alamanda Shopping Centre, Jalan Alamanda, Precinct 1, 62000 Putrajaya",2.939636,101.710657,Jalan Alamanda,"['Good2u', 'M.A.C', 'GUESS']"
familymart,convenience_store,FAMILYMART @Mukim Tanjung Minyak,"Part of Lot 11723, Mukim Tanjung Minyak, Daerah Melaka Tengah, Melaka",2.285054,102.2049,Mukim Tanjung Minyak,"['Family Mart Lebuh SPA', 'Perusahaan Batu Tujuh Sdn Bhd', 'ASR Padu Sdn Bhd']"
familymart,convenience_store,FAMILYMART @Daerah Melaka Tengah,"K4- Concourse Level, LRT Masjid Jamek Station, Kuala Lumpur",3.149611,101.696481,Daerah Melaka Tengah,"['Menara OCBC Food Court', 'Gallery Note @ Masjid Jamek', 'RapidKL Masjid Jamek (ST5/KJ13) LRT Station']"
familymart,convenience_store,FAMILYMART @Taman Pasir Putih,"Jalan Jambu Utama, Taman Pasir Putih, 81700 Pasir Gudang, Johor",1.485037,103.950057,Taman Pasir Putih,"['Pinggiran Rambai', 'Restoran Al-Safa', 'Sekolah Kebangsaan Kota Masai']"
familymart,convenience_store,FAMILYMART @Lingkaran SV,"L1,SunwayMedicalCentreVelocity, Lingkaran SV, Sunway Velocity, 55100 Kuala Lumpur",3.127892,101.722393,Lingkaran SV,"['Payathin Food Court', '不夜天美食中心', 'Sunway Velocity Medical Center']"
familymart,convenience_store,FAMILYMART @Jalan Serampang,"No.21, Jalan Serampang, Taman Sri Tebrau, 80050 Johor Bahru",1.484312,103.768052,Jalan Serampang,"['Destino Bridal Gallery', 'Restaurant Mun Gi 文记海鲜楼', 'Lexus Showroom']"
familymart,convenience_store,FAMILYMART @Plaza Damansara,"No. 28-G, Jalan Medan Setia 2, Plaza Damansara, Bukit Damansara, 50490 Kuala Lumpur",3.149129,101.653256,Plaza Damansara,"['Chef Diary', 'The Heritage', 'Sinbad Bukit Damansara']"
familymart,convenience_store,FAMILYMART @Seksyen 1,"50-LG, Jalan BS 1/1, Pusat Perdagangan Olive Hill, Taman Bukit Serdang, Seksyen 1, 43300 Seri Kembangan, Selangor",3.013394,101.696566,Seksyen 1,"['Dynasty Palace', '好好捞烧烤火锅（沙登）', 'Little Oven Bakery小烤箱烘焙工作室']"
familymart,convenience_store,FAMILYMART @UTC,"Lot GF-29, Level GF, Galleria @ Kotaraya, Jalan Trus, UTC, 80000 Johor Bahru, Johor",3.041716,101.430487,UTC,"['Alif Tomyam Seafood', 'Aishah Tomyam', '巴生九皇爷凤山寺']"
familymart,convenience_store,FAMILYMART @Jalan Teluk Pulai,"No. 39, Ground Floor, Jalan Teluk Pulai, 41100 Klang, Selangor",3.041716,101.430487,Jalan Teluk Pulai,"['Alif Tomyam Seafood', 'Aishah Tomyam', '巴生九皇爷凤山寺']"
familymart,convenience_store,FAMILYMART @Pusat Perniagaan Impian,"No. 7, Ground Floor, Jalan Pusat Perniagaan Impian 1, Pusat Perniagaan Impian, 71009 Port Dickson, Negeri Sembilan",2.525906,101.808594,Pusat Perniagaan Impian,"['Family Mart', 'Klinik Ang', '7-Eleven']"
familymart,convenience_store,FAMILYMART @Jalan Besar,"Lot 49358, Jalan Besar, 43300 Seri Kembangan, Selangor",3.0268,101.710382,Jalan Besar,"['Caltex Seri Kembangan', 'Caltex@South City', 'PETRON Station']"
familymart,convenience_store,FAMILYMART @Taman Sri Jaya,"No. 22 (Ground Floor), Jalan Rotan Utama, Taman Sri Jaya, 83000 Batu Pahat, Johor",1.863452,102.95434,Taman Sri Jaya,"['Subway Batu Pahat', 'Old Street 老街坊', 'Fika Cafe']"
familymart,convenience_store,FAMILYMART @Taman Setia Indah,"No.2, Jalan Setia 3/2, Taman Setia Indah, 81100 Johor Bahru, Johor",1.572271,103.756819,Taman Setia Indah,"['Sword of The Spirit Family Church', '花哈裁縫服裝中心', 'Tyreplus Jet Yang Auto Services']"
familymart,convenience_store,FAMILYMART @Taman Impian Emas,"Part of PTD 107072, Jalan Seri Impian 1, Taman Impian Emas, 81300 Skudai, Johor",1.545493,103.683639,Taman Impian Emas,"['Caltex', ""Flanagan's Irish Restaurant"", 'Fidzs Fine & Fanciful Shoppe']"
familymart,convenience_store,FAMILYMART @Seremban 2,"PT9770, Persiaran Rasah Kemayan 1, Seremban 2, 70300 Seremban, Negeri Sembilan",2.691357,101.893868,Seremban 2,"['Family Mart Rasah Kemayan', 'Rasah Kemayan 1388 Guard House', 'Petron']"
familymart,convenience_store,FAMILYMART @Pusat Perniagaan R.E.E.F 2,"No. A1-G, Jalan Rawang, Pusat Perniagaan R.E.E.F 2, 48000 Rawang, Selangor",3.307169,101.58631,Pusat Perniagaan R.E.E.F 2,"['Sushi Mentai', 'Pusat Perkhidmatan MCA Bahagian Selayang', 'Restoran TTE Foodland']"
familymart,convenience_store,FAMILYMART @Bandar Seri Putra,"No.12, Ground Floor, Jalan Seri Putra 1/4, Bandar Seri Putra, 43000 Bangi, Selangor",2.885338,101.790562,Bandar Seri Putra,"['Eighteen Vapor', 'Pusat Servis Kereta Lamry', 'Restoran Aruna Steamboat']"
familymart,convenience_store,FAMILYMART @Jalan Sakeh,"2 Jalan Pesta 1, Pusat Perdagangan Mega, Jalan Sakeh, 84000 Muar, Johor",2.05096,102.583248,Jalan Sakeh,"['The Food Lab', 'Dream Luxury Hotel', 'AMPM Pharmacy']"
familymart,convenience_store,FAMILYMART @Taman Setiawangsa,"12914, Jalan 37/56, Taman Setiawangsa, 54200 Kuala Lumpur, Selangor",3.177629,101.737347,Taman Setiawangsa,"['FamilyMart', 'Caltex', 'Caltex Car Wash Centre']"
familymart,convenience_store,FAMILYMART @Pusat Perniagaan Kota Emas,"No. 50-G, Jalan Emas 2, Pusat Perniagaan Kota Emas, 82000 Pontian, Johor",1.480321,103.399492,Pusat Perniagaan Kota Emas,"['KFC', 'Kfc Pontian Drive Thru', 'Clean Wash Laundry']"
familymart,convenience_store,FAMILYMART @Kampung Masjid Lama,"108, Jalan Haji Manan, Kampung Masjid Lama, 86000 Kluang, Johor",2.035325,103.319348,Kampung Masjid Lama,"['Fion Hair Design & Make Up Studio', '亚华豆腐水（三板头）', 'Unian Agencies Bookstore']"
familymart,convenience_store,FAMILYMART @Jalan Melang,"PT 3173, Taman Melang ////Shoplot, Jalan Melang, 72000 Kuala Pilah, Negeri Sembilan",2.736025,102.227068,Jalan Melang,"['Kodai Lobam', 'Spita Pilah', 'Stesyen Minyak Petron Jln Melang']"
familymart,convenience_store,FAMILYMART @Jalan Universiti 1,"No 22, Jalan Universiti 1, Taman Universiti Parit Raja, 86400 Batu Pahat",1.848636,103.074161,Jalan Universiti 1,"['Emo Haircut Saloon', ""Domino's Pizza"", 'King Station Cafe']"
familymart,convenience_store,FAMILYMART @Persiaran Karpal Singh,"No.29C-01-19 & No. 29C-01-20, Maritime, Persiaran Karpal Singh, 11600 Jelutong, Penang",5.398821,100.329389,Persiaran Karpal Singh,"['Pann Tea 盼茶', 'Bingsu 9 Korean Dessert Café', 'Le Harlequin Cafe']"
familymart,convenience_store,FAMILYMART @Jalan Kapar Batu 5,"A portion of Lot 2740, Jalan Kapar Batu 5, 42100 Klang, Selangor",3.057783,101.445191,Jalan Kapar Batu 5,"['Ban Hooi Tayar Sdn Bhd', 'Naga Motorsport HQ', 'Naga Motor Sport']"
familymart,convenience_store,FAMILYMART @Seksyen U13,"No.2, Jala Setia Utama AR U13/AR, Setia Alam, Seksyen U13, 40170 Shah Alam, Selangor",3.123893,101.466684,Seksyen U13,"['S Tyre', 'The Loft Event Space', 'Gecar Bistro']"
familymart,convenience_store,FAMILYMART @Jalan Perusahaan,"Juru Interchange, Auto-City, No. 1824-G1 & 1823-G3, Jalan Perusahaan, 13600 Prai, Penang",5.337851,100.428609,Jalan Perusahaan,"['Guardian Pharmacy', '道 Tao Authentic Asian Cuisine & Lounge', 'Auto-City Fun Fair']"
familymart,convenience_store,FAMILYMART @13600 Prai,"No.306-F, Jalan Burma, 10350 Penang",5.432399,100.310955,13600 Prai,"['Klinik Burma', 'Luke Clinic', 'How Ji Roaster Rice Noodle']"
familymart,convenience_store,FAMILYMART @Paradigm Mall,"Lot GF-18,19,20,21&22, Ground Floor, Paradigm Mall, Johor Bahru, Johor",1.515575,103.685558,Paradigm Mall,"['Subway', 'Brands Outlet', 'Health & Fitness Protein Poke Bowl']"
familymart,convenience_store,FAMILYMART @Taman Tanjung Aman,"Part of Lot 2219, Section 1, Jalan Raja Uda, Taman Tanjung Aman, 12300 Butterworth, Pulau Pinang",5.43003,100.384532,Taman Tanjung Aman,"['Cube Coffee Caltex Raju Uda', 'Caltex', 'Penang Christian Centre']"
familymart,convenience_store,FAMILYMART @Taman Perindustrian Pekan Nenas,"No 111, Jalan Industri 8, Taman Perindustrian Pekan Nenas, 81500 Pontian, Johor",1.494792,103.528129,Taman Perindustrian Pekan Nenas,"['CH Toyo Tires', 'CH ONE STOP ENTERPRISE SDN BHD', 'Caltex']"
familymart,convenience_store,FAMILYMART @Lebuhraya Thean Teik,"16E, Farlim Business Center, Lebuhraya Thean Teik, Bandar Baru Air Itam, 11500 Pulau Pinang",5.387318,100.27724,Lebuhraya Thean Teik,"['Caltex', ""McDonald's / McCafé"", 'Hot Stone Grilled Burger']"
familymart,convenience_store,FAMILYMART @PB1/1 Pusat Bandar Tanjung Karang,"No 9, PB1/1 Pusat Bandar Tanjung Karang, 45500 Tanjung Karang, Selangor",3.424969,101.176971,PB1/1 Pusat Bandar Tanjung Karang,"['Pizza Hut Tanjung Karang', ""John's Hair Salon"", '99 Speedmart']"
familymart,convenience_store,FAMILYMART @Lebuhraya Utara Selatan,"Caltex Sg Dua North Bound, PMT 10359, KM 132.5, Lebuhraya Utara Selatan, 13600 Permatang Pauh, Pulau Pinang",5.423317,100.413185,Lebuhraya Utara Selatan,"['Shell Permatang Pauh Highway (South Bound)', 'Tealive', 'BHPetrol Station ( Southbound )']"
familymart,convenience_store,FAMILYMART @Bandar Damai Perdana,"No. 18, Jalan Damai Perdana 1/9a, Bandar Damai Perdana, 43200 Cheras, Selangor",3.046029,101.739279,Bandar Damai Perdana,"['AYAMAS Bandar Damai Perdana', 'Dr. Mah Dental Surgery', 'T2 Auto Accessories']"
familymart,convenience_store,FAMILYMART @Taman Hulu Langat Jaya,"2, Jalan Hulu Langat Jaya 1, Taman Hulu Langat Jaya, 43200 Cheras, Selangor",3.070688,101.78104,Taman Hulu Langat Jaya,"['Petron Hulu Langat', 'New Kfc Drive Thru', 'KFC HULU LANGAT']"
familymart,convenience_store,FAMILYMART @Semenyih Vista Valley,"No 20-G, Jalan Vista Valley 3, Semenyih Vista Valley, 43500 Semenyih, Selangor",2.957699,101.83985,Semenyih Vista Valley,"['99 Speedmart', 'Alpro Pharmacy', 'Restoran Mamak Cendol']"
familymart,convenience_store,FAMILYMART @Bukit Tengah,"No. 3(Ground & Mezzanine Floor), Jalan Icon City, Bukit Tengah, 14000 Bukit Mertajam, Pulau Pinang",5.337624,100.429036,Bukit Tengah,"['Auto-City Flea Market', 'Garmin Shop', 'Maxis']"
familymart,convenience_store,FAMILYMART @Jalan 1/76D,"No. 4, Jalan 1/76D, Desa Pandan, 55100 Kuala Lumpur",3.146982,101.736893,Jalan 1/76D,"['Strawberry Hair & Beauty', 'Lintas Travel Services', 'Ayam Golek Borak Borak']"
familymart,convenience_store,FAMILYMART @Taman Sembrong,"No.2 (Tingkat Bawah), Jalan Cahaya Baru, Taman Sembrong, 83700 Yong Peng, Johor",2.009605,103.069005,Taman Sembrong,"['Hotel Zaifa Yong Peng', 'Jabatan Pendaftaran Negara', 'Otak Otak Muar Ah Jie']"
familymart,convenience_store,FAMILYMART @Jalan Desa Botani 1,"PTD 61251GF, Jalan Desa Botani 1, 83000 Batu Pahat, Johor",1.867431,102.932843,Jalan Desa Botani 1,"['Eat Toast Kopitiam', 'The Pokemist', 'Waku Sushi']"
familymart,convenience_store,FAMILYMART @Bandar Saujana Putra,"41-G, Jalan SP1/1, Bandar Saujana Putra, 42610 Jenjarom, Selangor",2.95447,101.578428,Bandar Saujana Putra,"['The Tire Store', 'Get Geared Bikers Equipment', '80 Kopitiam']"
familymart,convenience_store,FAMILYMART @Sungai Besar Sentral,"No.2, Jalan Bunga Loceng Kuning, Sungai Besar Sentral, 45300 Sungai Besar, Selangor",3.673225,100.984724,Sungai Besar Sentral,"['Ayam Penyet AP', 'Laundrybar', 'Butik Chanteques']"
familymart,convenience_store,FAMILYMART @Taman Perling,"PTD 30504, Jalan Layang, Taman Perling, 81200 Johor Bahru, Johor",1.476053,103.679304,Taman Perling,"['Caltex', 'Arulmigu Senthil', 'Warong Depan Caltex']"
familymart,convenience_store,FAMILYMART @Taman Indah 2,"No. 12, Jalan Indah 2/1, Taman Indah 2, 45400 Sekinchan, Selangor",3.501981,101.10416,Taman Indah 2,"['Burger King', 'No. 1 Laundry', 'Secret Recipe']"
familymart,convenience_store,FAMILYMART @332,"Ground Floor, Kim Mansion Building, 332, Chulia Street, 10200 Penang",5.419119,100.334805,332,"['Stardust Restaurant&guesthouse', 'FAIR FIELD MARITIME (PG) SDN BHD', 'Yeng Keng Café & Bar']"
familymart,convenience_store,FAMILYMART @Taman Masjid Tanah Ria,"SU1463, Jalan Masjid Tanah Ria Utama, Taman Masjid Tanah Ria, 78300 Masjid Tanah, Melaka",2.351358,102.117512,Taman Masjid Tanah Ria,"['99Speedmart', 'RS Gym', 'Al-Ikhsan Masjid Tanah']"
familymart,convenience_store,FAMILYMART @Jalan Perak,"338-D (Ground Floor), Jalan Perak, Taman Desa Green, 11600 Pulau Pinang",5.399517439772847,100.31521836812355,Jalan Perak,"['Snacks & Ladders', 'Little Ha Noi', 'Loh Hup Kee Famous Chicken Leg']"
familymart,convenience_store,FAMILYMART @Taman Segar,"No 55, Jalan Manis 4, Taman Segar, 56100 Kuala Lumpur, Wilayah Persekutuan Kuala Lumpur",3.087698,101.742551,Taman Segar,"['7 Eleven', 'Ub Automobile Taman Segar', '33hotel']"
familymart,convenience_store,FAMILYMART @Pusat Perniagaan Setia Sentral,"No.1, Jalan Setia Sentral, Pusat Perniagaan Setia Sentral, 14000 Bukit Mertajam, Penang",5.355103,100.417265,Pusat Perniagaan Setia Sentral,"['Setia Sentral', 'Bread History', 'Starbucks']"
familymart,convenience_store,FAMILYMART @Pulau Sebang,"PS2, Jalan Besar, Pulau Sebang, 78000 Alor Gajah, Malacca",2.466235,102.231169,Pulau Sebang,"['Kimrie Unisex Salon', 'Guezt Friseur Hair Studio', 'Chan Furniture Tampin']"
familymart,convenience_store,FAMILYMART @Pekan Gemas,"PT 4617 Bawah, Jalan Pekan Gemas, Pekan Gemas, 73400 Gemas, Negeri Sembilan",2.580537,102.611722,Pekan Gemas,"['Columbia Tailoring Co.', 'KFC Gemas', 'Pejabat Pos Malaysia Berhad']"
familymart,convenience_store,FAMILYMART @Jalan Song Ban Kheng,"Lot 2551, Mukim, 10, Jalan Song Ban Kheng, 14000, Pulau Pinang",5.351072,100.453648,Jalan Song Ban Kheng,"['Caltex', 'Northern Hill Coffee Cafe', 'Aloha Juice Bar']"
familymart,convenience_store,FAMILYMART @Jalan Kebun Nanas 7A/KS8,"No.25, Jalan Kebun Nanas 7A/KS8, 41200 Klang, Selangor",2.961075,101.515054,Jalan Kebun Nanas 7A/KS8,"['Salai POWER', 'Pasar Mlm Kampung Jalan Kebun']"
familymart,convenience_store,FAMILYMART @Jalan Kiara,"Lot 1A New Wing, Lower Ground Floor,<Br>Mont Kiara Shoplex, Jalan Kiara, Mont Kiara, 50480 Kuala Lumpur",3.166655,101.652766,Jalan Kiara,"['Baskin-Robbins', 'Odyssey Coaches', 'Doma']"
familymart,convenience_store,FAMILYMART @Taman Utama,"Pusat Komersial Sri Utama, NO.5 - 7, Jalan Utama 3/2, Taman Utama, 85000 Segamat, Johor",2.514132,102.82069,Taman Utama,"['Icon Hotel', 'Poml Beverage Bar', 'Zara Sofea']"
familymart,convenience_store,FAMILYMART @85000 Segamat,"JA 9954, Bandar Baru Jasin 3,  77200 Malacca",2.277352,102.393648,85000 Segamat,"['Secret Recipe Jasin', 'Redone Jasin', 'Bank Islam Jasin Bestari']"
familymart,convenience_store,FAMILYMART @Bukit Sentosa,"17-G, Seksyen BS1, Jalan Orkid 1F/2, Bukit Sentosa, 48300 Rawang, Selangor",3.403446,101.560489,Bukit Sentosa,"['Restoran Al Faize Nasi Kandar Original', 'Mr Diy Bukit Sentosa', 'Eco Garden Hotel']"
familymart,convenience_store,FAMILYMART @Taman Puchong Utama,"No: A-G-12, Block A, Dataran Puchong, Jalan PU 7/1, Taman Puchong Utama, 47140 Puchong, Selangor",2.990829,101.616669,Taman Puchong Utama,"['Bazar Ramadan Puchong Utama', 'Pasar Malam Puchong Utama 3', 'Jabatan Pendaftaran Negara (JPN)']"
familymart,convenience_store,FAMILYMART @Pusat Perniagaan Sinar Bakri,"No 3, Jalan Sinar Bakri 2, Pusat Perniagaan Sinar Bakri, 84000 Muar, Johor",2.041606,102.656633,Pusat Perniagaan Sinar Bakri,"['Tealive Bakri Muar', 'Southern Tigers Muar', ""The Baker's Cottage""]"
familymart,convenience_store,FAMILYMART @84000 Muar,"A portion of Lot 166, Salak South Garden, 57100 Kuala Lumpur",3.08343779329278,101.6957974219741,84000 Muar,"['Golden Photo Studio', 'SSG Automotive Air Conditioners', 'Drs Wong & Partners Dental Surgeons']"
familymart,convenience_store,FAMILYMART @Bandar Baru Teluk Intan,"No.1B, Ground Floor, Laman Intan, Bandar Baru Teluk Intan, Jalan Changkat Jong, 36000 Perak",4.020587,101.022309,Bandar Baru Teluk Intan,"['RQ Tea Bar', 'Erican Language Centre', 'Coffee Lab Cafe']"
familymart,convenience_store,FAMILYMART @Taman Prima Saujana,"A-G-8, Jalan Prima Saujana 2, 1A, Seksyen 2, Taman Prima Saujana, 43000 Kajang, Selangor",3.007594,101.805791,Taman Prima Saujana,"['Marrybrown', 'Bazaar Ramadhan Impian Saujana', 'Pasar Tani']"
familymart,convenience_store,FAMILYMART @Bandar Segamat Baru,"A portion of No. 1-1A, Jalan Nagasari, Bandar Segamat Baru, 85000 Segamat, Johor",2.493055,102.852903,Bandar Segamat Baru,"['Pasar Malam Segamat Baru', 'Warung Pak Akob Triple S', 'Medan Selera Bandar Segamat Baru']"
familymart,convenience_store,FAMILYMART @Pusat Perniagaan Kiara,"No. 1, Jalan Kiara 1, Pusat Perniagaan Kiara, 72100 Bahau, Negeri Sembilan",2.810124,102.396609,Pusat Perniagaan Kiara,"['Restoran Cmz Tom Yam Seafood', 'CMZ Tomyam', 'Upwell Bahau']"
familymart,convenience_store,FAMILYMART @Greentown Business Centre,"No. 4 (Ground Floor), Persiaran Greentown 10, Greentown Business Centre, 30450 Ipoh, Perak",4.598561672002863,101.0923122363896,Greentown Business Centre,"['SUBWAY', 'Ani Sup Utara', 'HongLeong Assurance']"
familymart,convenience_store,FAMILYMART @Kampung Tanjong Batu 15,"LC 171, Jalan Muar, Kampung Tanjong Batu 15, 84900 Tangkak, Johor",2.266408,102.538777,Kampung Tanjong Batu 15,"['AmBank Tangkak', 'LaundryBar Tangkak', 'Traffic Light 6 Tahun']"
familymart,convenience_store,FAMILYMART @Kawasan R&R Skudai,"Lot 1A, 7A Jalan R&R Skudai, Kawasan R&R Skudai, 81400 Senai, Johor",1.58932,103.635787,Kawasan R&R Skudai,"['Johor Technology Park', 'OMEGA Private & International Institution', 'Seri Omega Private & International School']"
familymart,convenience_store,FAMILYMART @42700 Banting,"Lot 2352, Jalan Sultan Abdul Samad, Taman Banting Baru, 42700 Banting, Kuala Langat, Selangor",2.817865,101.519302,42700 Banting,"['Stadium Jugra', 'Masjid As-Syarif', 'Dewan Seri Jugra']"
familymart,convenience_store,FAMILYMART @Bandar Baru Merlimau Utara,"JC 19, Jalan BMU 1, Bandar Baru Merlimau Utara, 77300 Merlimau, Melaka",2.138887,102.427619,Bandar Baru Merlimau Utara,"['Anjung Selera Amer Conner', ""D'Putera Seafood"", 'Balai Polis Merlimau']"
familymart,convenience_store,FAMILYMART @Pusat Perniagaan Mutiara Gemilang,"P11,  Jalan MG1, Pusat Perniagaan Mutiara Gemilang, 28700 Bentong, Pahang",3.4844948140644934,101.91202870584421,Pusat Perniagaan Mutiara Gemilang,"['Kolej Kediaman Kolej Vokasional Tengku Ampuan Afzan', 'Kolej Vokasional Tengku Ampuan Afzan', 'Restoran Zaliah']"
familymart,convenience_store,FAMILYMART @Jelapang,"Lot 120089, Taman Meru Industrial Estate, Jelapang, 30020 Ipoh, Perak",4.65124,101.070071,Jelapang,"['Caltex', 'Restoran Di Naina', 'Petronas Bdr Meru Raya']"
familymart,convenience_store,FAMILYMART @Jalan Tun Dr. Awang,"2-G-3A, Solaria Square, Jalan Tun Dr. Awang, 11900 Bayan Lepas, Pulau Pinang",5.299991393023169,100.26640269553172,Jalan Tun Dr. Awang,"['Woori KOREAN Mart', 'The Coffee Bean & Tea Leaf', 'Solaria Square Parking']"
familymart,convenience_store,FAMILYMART @Seksyen 5 Bandar Baru Batang Kali,"Part of Caltex Batang Kali, PT9610, Jalan Batang Kali, Seksyen 5 Bandar Baru Batang Kali, 44300 Batang Kali, Selangor",3.452436052668055,101.66410283348176,Seksyen 5 Bandar Baru Batang Kali,"['Gi Z Corner', ""Restoran D' Anjung Kelah"", 'Wong Man Hotel & Homestay']"
familymart,convenience_store,FAMILYMART @Kampung Paya,"Jalan Pengkalan Putra 1, Kampung Paya, 31650 Ipoh, Perak",4.5526615520964295,101.07514868581018,Kampung Paya,"['Family Bundle', 'Manhattan Hotel', 'THE FACE SHOP']"
familymart,convenience_store,FAMILYMART @Taman GP Prima,"LOT 202, Susur GP Prima, Taman GP Prima, 81550 Gelang Patah, Johor",1.4776838371897845,103.5835450626339,Taman GP Prima,"['Hotel Holmes GP', 'Mr. DIY', '18°C - Gelang Patah']"
familymart,convenience_store,FAMILYMART @Jalan Tanjung Labuh,"Lot 4459, BT 2, Jalan Tanjung Labuh, 83000 Batu Pahat, Johor",1.8376456219844401,102.9467288687108,Jalan Tanjung Labuh,"['Lian Seng Tyre & Battery Service Centre', 'Pusat Servis Tayar SinWufu Ent', '宏海鲜']"
familymart,convenience_store,FAMILYMART @Jalan Kerambit 1,"No 5, Jalan Kerambit 1, Bandar Baru Sungai Udang, 76300 Melaka",2.290429238201029,102.14005395515613,Jalan Kerambit 1,"['Restoran Maulana Nasi Kandar', 'Bank Simpanan Nasional (BSN)', 'One Bake Kedai Roti']"
familymart,convenience_store,FAMILYMART @Bandar Baru Sungai Udang,"PT 5946 Lebuhraya Karak, 68100 Gombak, Selangor",3.241106886138028,101.71582962775346,Bandar Baru Sungai Udang,"['Stesen Shell Lebuhraya Lingkaran Tengah 2', 'Subway', 'Chatime']"
familymart,convenience_store,FAMILYMART @Jalan Kangsar,"No. 70-C Ground Floor, Jalan Kangsar, 33000 Kuala Kangsar, Perak",4.7695199747714145,100.94024741965016,Jalan Kangsar,"['KFC', 'CIMB Bank', 'CIMB Kuala Kangsar']"
familymart,convenience_store,FAMILYMART @39100 Brinchang,"C-G-43, Presint 1, Cameron Centrum, 39100 Brinchang, Cameron Highlands, Pahang",4.49553472345996,101.38992248307387,39100 Brinchang,"['Adeq Corner Bihun Sup Kedah', 'Pasar Tani Brinchang', 'Fragrance Nusery']"
familymart,convenience_store,FAMILYMART @Tanah Rata,"41, Jalan Besar, Tanah Rata, 39000 Tanah Rata, Pahang",4.471429392931759,101.37385736904557,Tanah Rata,"['De Cabin Grill Box Port', 'Box Port', 'Rainforest Cafe@ Heritage Hotel']"
familymart,convenience_store,FAMILYMART @Persiaran Bayan Indah,"110-01-18, Persiaran Bayan Indah, 11900 Bayan Lepas, Pulau Pinang",5.338641725300197,100.3086059973891,Persiaran Bayan Indah,"['Coin & Wash Laundry', 'The Coffee Bean & Tea Leaf', 'Villa Vino Tapas and Wine Bar']"
familymart,convenience_store,FAMILYMART @Pusat Perniagaan Simee,"No.19 & 19A, Jalan Niaga Simee 1, Pusat Perniagaan Simee, 31400 Ipoh, Perak",4.6162188599657785,101.11653492400784,Pusat Perniagaan Simee,"['Dynasty World', 'Royal Thai Massage', 'Wemabox Solutions']"
familymart,convenience_store,FAMILYMART @Botanica CT Centre,"Plot 14 & 15, Botanica CT Centre, 11000 Balik Pulau, Pulau Pinang",5.372237459508474,100.21847483971803,Botanica CT Centre,"['Botanica Sales Gallery', 'Kim Seng Kopitiam 金城咖啡店', 'Pedal Cafe']"
familymart,convenience_store,FAMILYMART @Gunung Rapat,"264, Jalan Dato Raja Nazrin Shah, Gunung Rapat, 31350 Ipoh, Perak",4.5706041462826965,101.11330936273107,Gunung Rapat,"['Umobile Gunung Rapat', 'Chiang Heng Gold & Diamond S/B', 'Ring Ring One Shop']"
familymart,convenience_store,FAMILYMART @Pusat Perniagaan Jelatang,"No.17, 1, Jalan Perniagaan Jelatang 1, Pusat Perniagaan Jelatang, 78000 Alor Gajah, Melaka",2.384136583158846,102.21652743727344,Pusat Perniagaan Jelatang,"['Pizza Hut', 'Malacca Fried Chicken', 'Secret Recipe']"
familymart,convenience_store,FAMILYMART @Taman Komersial Senawang,"No.160-G, Jalan Taman Komersial Senawang 1, Taman Komersial Senawang, 70450 Seremban, Negeri Sembilan",2.7045264486832847,101.98666479739043,Taman Komersial Senawang,"['Perodua Sales Senawang', '7 Eleven', 'TM Point Senawang']"
familymart,convenience_store,FAMILYMART @Taman Nirwana,"20, Jalan Nirwana 2, Taman Nirwana, 75200 Tanjung Kling, Melaka",2.2212882399274507,102.18405272622677,Taman Nirwana,"['Klinik Pergigian Noormi', 'KFC Klebang Besar', '7 Eleven Batang Tiga']"
familymart,convenience_store,FAMILYMART @Taman Cahaya Masai,"Part of Lot 72090, Taman Cahaya Masai, 81700 Pasir Gudang, Johor",1.5093646239227958,103.92269469073265,Taman Cahaya Masai,"['Multi Trade Supply', 'Syukur Tom Yam Food Restaurant', 'Restoran Ahmad Khan 24jam']"
familymart,convenience_store,FAMILYMART @Taman Sri Kurau,"Jalan Bercham, Taman Sri Kurau, 31400 Ipoh, Perak",4.626354992613194,101.12513639471162,Taman Sri Kurau,"['Rockstar Becham', 'Bank Simpanan Nasional Bercham', 'Bsn Bercham']"
familymart,convenience_store,FAMILYMART @Jalan Sungai Dua,"723 S-G, Vanda Business Park, Jalan Sungai Dua, 11700 Gelugor, Penang",5.3520797619976985,100.29943953914562,Jalan Sungai Dua,"['AirAsia Travel & Service Centre', 'Nasi Kandar Pelita', 'Hitomi Hair Care Centre']"
familymart,convenience_store,FAMILYMART @Jalan Istana Larut,"G-01 & G-02 of Taiping Sentral Mall, No. 36, Jalan Istana Larut, 34000 Taiping, Perak",4.865488201378828,100.73141314362118,Jalan Istana Larut,"['Taiping Bike Park', 'SUBWAY', 'Watsons']"
familymart,convenience_store,FAMILYMART @Seksyen 4 Jelutong,"1, Lebuhraya Tun Dr Lim Chong Eu, Seksyen 4 Jelutong, 11600 Georgetown, Pulau Pinang",5.309422910175802,100.29839258986674,Seksyen 4 Jelutong,"['Abbott Medical Penang', 'Gertak Sanggul', 'St.Jude Medical Operation']"
familymart,convenience_store,FAMILYMART @Jalan Niaga Utama,"No. 9, Jalan Niaga Utama, 81900 Kota Tinggi, Johor",1.7288007987394347,103.90107866858091,Jalan Niaga Utama,"['Kedai Baju Kemboja', 'Jalan Niaga 3 Bazar Kota', 'Jumbo']"
familymart,convenience_store,FAMILYMART @Jln. Kuala Kangsar,"NO 109C, Jln. Kuala Kangsar, 30010 Ipoh, Perak",4.625870066068171,101.08194839738894,Jln. Kuala Kangsar,"['SL Ding Auto Sdn Bhd', 'KK Home Deco', 'Nissan Service Centre Ipoh ( TCEAS )']"
familymart,convenience_store,FAMILYMART @Jalan Dato Ismail Hashim,"35-1-1 and 35-1-2, Golden Triangle 2, Jalan Dato Ismail Hashim, 11900 Bayan Lepas, Penang",5.329873745158384,100.27544098154017,Jalan Dato Ismail Hashim,"['Relau Bamboo Cafe 竹轩小食馆', 'Baan Nan Cafe', 'Topkids SA 佳儿幼儿园']"
familymart,convenience_store,FAMILYMART @Taman Perindustrian Nibong Tebal,"Unit 62 & 63a, C Mart Nibong Tebal, Taman Perindustrian Nibong Tebal, 14300 Nibong Tebal, Penang",5.1784390425389715,100.48188924118692,Taman Perindustrian Nibong Tebal,"['Little Rasa Thai', 'Subway', 'C-Mart Nibong Tebal']"
familymart,convenience_store,FAMILYMART @Jalan Tambun,"PT 126050, Jalan Tambun, 31400 Ipoh, Perak",4.607164208320913,101.1292447263371,Jalan Tambun,"['Caltex Jln Tambun', 'Gua Lukisan Tambun', 'Tambun']"
familymart,convenience_store,FAMILYMART @Jalan Baru,"B2-G-1, Elevate Gravitas, Jalan Baru, 13700 Bukit Mertajam, Pulau Pinang",5.369401106223664,100.4169638970514,Jalan Baru,"['Trivalence Auto Sdn Bhd', 'Gerai Roti Canai Jalan Baru', 'Roti Canai & Nasi Lemak']"
familymart,convenience_store,FAMILYMART @Eco Majestic,"No. 43-1, Jalan Eco Majestic 10/1A, Eco Majestic, 43500 Semenyih, Selangor",2.9006891129830086,101.83303625507644,Eco Majestic,"['Majestic Animal Medical Centre (MAMC)', 'Semenyih Joy Methodist Church']"
familymart,convenience_store,FAMILYMART @Bandar Baru Uda,"No 29, Jalan Padi Ria, Bandar Baru Uda, 81200 Johor Bahru, Johor",1.5015886495350044,103.7188678128866,Bandar Baru Uda,"['Nasi Ambang Petronas', 'Petronas', ""Ravi's Barber Shop""]"
familymart,convenience_store,FAMILYMART @163D-1-01a,"Lot G.01a & G.A6A, Ground Floor, Gurney Paragon Mall, 163D-1-01a, Persiaran Gurney, 10250 Pulau Pinang",5.429228735086992,100.32051729469607,163D-1-01a,"['D-Format Kitchen Cabinet', 'Sri Pangkor Tower 2 Lift Lobby', 'Tean Ean Local Products (M) Sdn Bhd']"
familymart,convenience_store,FAMILYMART @Diamond Valley Industrial Park,"Jalan Batu Maung, Diamond Valley Industrial Park, 11960 Batu Maung, Pulau Pinang",5.2814190493728335,100.27401076265903,Diamond Valley Industrial Park,"['Kedai Runcit Cheng Chooi', 'Aisy Char Koay Teow', 'Planters Inn Cafe']"
familymart,convenience_store,FAMILYMART @Jalan Sultan Idris Shah,"Block D,G-9 Soho Ipoh, Jalan Sultan Idris Shah, 30000 Ipoh, Perak",4.59255057422602,101.08993808206203,Jalan Sultan Idris Shah,"['奉茶 Fengcha', 'Com City Sdn. Bhd.', 'Islee Boutique']"
familymart,convenience_store,FAMILYMART @Block A,"11-G (GF), Plaza KL Traders Square, Block A, Jalan Gombak, 53000 Kuala Lumpur",3.2045396980233605,101.70294152657246,Block A,"['A-One Tyre & Car Service', 'Burger King', 'Pusat Bayaran Bil Setempat DBKL']"
familymart,convenience_store,FAMILYMART @Taman Desaru Utama,"155, Jalan Jelutong, Taman Desaru Utama, Bandar Penawar, 81930 Johor",1.5732554988588947,104.21409256856685,Taman Desaru Utama,"['Duke Vaper Shop', 'Restoran Asri Rosmerah', 'KFC Bandar Penawar']"
familymart,convenience_store,FAMILYMART @Bandar Penawar,"Lot 6853 Simpang Empat, 36400 Hutan Melintang, Perak",3.897139574729688,100.93822246920742,Bandar Penawar,"['Caltex', 'OldTown White Coffee Basic', 'Ree BUNDLE']"
familymart,convenience_store,FAMILYMART @Timur@Enstek,"No. 26, Jalan Timur 6 / 1A, Timur@Enstek, 71760 Bandar Enstek, Negeri Sembilan",2.7479109980047656,101.76433026838187,Timur@Enstek,"['Sri Enstek Hotel', 'Wayan Balinese Spa', 'Senze Studio']"
familymart,convenience_store,FAMILYMART @Jalan Taiping,"Unit G-6 & G-7, Kompleks Perniagaan Parit Buntar, No. 199, Jalan Taiping, 34200 Parit Buntar, Perak",5.119875682320606,100.4860714242037,Jalan Taiping,"['源兴茶餐室 Guan Heng', '建和港式包饺点心', 'Pos Laju Parit Buntar']"
familymart,convenience_store,FAMILYMART @Taman Malcop,"Jalan Silibin, Taman Malcop, 30100 Ipoh, Perak",4.608854037520117,101.0605855184556,Taman Malcop,"['DrLaptop.my Manjoi', 'Restoran Daun Pisang No.1', 'BH Tyre Service Center']"
familymart,convenience_store,FAMILYMART @30100 Ipoh,"Jalan Bukit, 27600 Raub, Pahang",3.7908408133205853,101.85581319741934,30100 Ipoh,"['East Coast Coffee House', 'Mahkamah Sesyen Dan Majistret Raub', 'Syarikat Cermin Mata Mee Seng']"
familymart,convenience_store,FAMILYMART @Perak,"Kota Warisan, 43900 Sepang, Selangor",2.8182046455338514,101.69426703984638,Perak,"[""Domino's Pizza"", 'Bubblelab Laundry', 'Pizza Hut']"
familymart,convenience_store,FAMILYMART @21,"Unit No. 1-9D & 1-9E, Level 1, Wisma UOA II, 21, Jalan Pinang, 50450 Kuala Lumpur",3.1523407406675985,101.71203067828252,21,"['SABAH INTERNATIONAL PETROLEUM', 'Wisma UOA Centre', 'Aimia']"
familymart,convenience_store,FAMILYMART @Bandar Medini Iskandar,"as Plot F21, Jalan Medini Selatan 1, Bandar Medini Iskandar, 79250 Iskandar Puteri, Johor",1.3965815343558134,103.63130776417508,Bandar Medini Iskandar,"['Caltex', 'BookXcess', 'Sunway Big Box']"
familymart,convenience_store,FAMILYMART @Larkin Town Centre,"PTB 24504, Larkin Town Centre, Jalan Geroda 2/1, 81200 Johor Bahru",1.4948361248349102,103.74177512602854,Larkin Town Centre,"['Larkin Bustand', 'PappaRoti', 'Klinik Wakaf An-Nur']"
familymart,convenience_store,FAMILYMART @Persiaran Jalil Utama,"Lot 1.47.00, Level 1, Pavilion Bukit Jalil, Pusat Bandar, 2, Persiaran Jalil Utama, Bukit Jalil, 57000 Kuala Lumpur",3.05133485394342,101.67148001360435,Persiaran Jalil Utama,"['酒方 Nine Square', 'Monalisa Bookstore', 'Viola Flower Cafe']"
familymart,convenience_store,FAMILYMART @Kota Damansara,"No. 3, Jalan Teknologi 3/6B, Taman Sains Selangor, Sek 3, Kota Damansara, 47810 Petaling Jaya, Selangor",3.157073423397498,101.57089457131752,Kota Damansara,"['Pasar Malam', 'Pasar Tani Kota Damansara', ""Sha's Tauhu Bakar""]"
familymart,convenience_store,FAMILYMART @Persiaran Persona 1 Medan Persona,"No.2 & 3 ( Ground Floor ), Persiaran Persona 1 Medan Persona, 31100 Sungai Siput, Perak",4.816452996651958,101.07812008346777,Persiaran Persona 1 Medan Persona,"['Mahkamah Majistret Sungai Siput', 'Kantin JKR Sg Siput', 'Shell']"
familymart,convenience_store,FAMILYMART @Taman Seri Jaromas,"No. 2, Jalan 2/21, Taman Seri Jaromas, 42600 Jenjarom, Selangor",2.8749481717445944,101.50217061716526,Taman Seri Jaromas,"['GreenHouze VapeLounge', 'Pizza Hut Delivery', 'Restoran Habiba Maju']"
familymart,convenience_store,FAMILYMART @Bandar Cyber,"No.2, Jalan Lapangan Siber 10, Bandar Cyber, 31350 Ipoh, Perak",4.54356178204801,101.11005422608747,Bandar Cyber,"['翠林苑粵式點心', 'De Park View Hotel', 'Restoran Botani Dim Sum']"
familymart,convenience_store,FAMILYMART @Pusat Komersial Borealis,"31-G & 33-G, Jalan Borealis 3, Pusat Komersial Borealis, 14100 Bandar Cassia, Pulau Pinang",5.2366890659814,100.4437803186877,Pusat Komersial Borealis,"['Eco Horizon', 'Aspen Group Sales Gallery', 'IKEA Swedish Food Market']"
familymart,convenience_store,FAMILYMART @Subang Bestari Sek U5,"1-G, Jalan Nova U5/N, Subang Bestari Sek U5, 40150 Shah Alam, Selangor",3.17814384742296,101.54804470587798,Subang Bestari Sek U5,"['Glazerpro Grooming Centre', 'FAY Auto Garage', 'Tealive Subang Bestari']"
familymart,convenience_store,FAMILYMART @Pusat Komersial Yayasan,"No 15, Jalan PKY 1, Pusat Komersial Yayasan, 85000 Segamat, Johor",2.5476169850077928,102.79360593832546,Pusat Komersial Yayasan,"['ID Hotel Taman Yayasan', 'Ezy Smart Laundry', 'NGETEH Port']"
familymart,convenience_store,FAMILYMART @Seremban 2,"No. 348, Jalan S2 B8 Uptown Avenue, Seremban 2, Seremban, Negeri Sembilan",2.6934572590159926,101.91198682551082,Seremban 2,"['Hotel S2', 'The Kitchen', 'Kolej Teknologi Alpha']"
familymart,convenience_store,FAMILYMART @Jalan Taman Melati Utama 4,"7G, Jalan Taman Melati Utama 4, Taman Melati Utama, 53100 Wilayah Persekutuan Kuala Lumpur",3.2236084857998253,101.73053726872823,Jalan Taman Melati Utama 4,"['Restoran Taj Hadramawt', 'Bloom The Floral Shop', 'Pusat Servis EON']"
familymart,convenience_store,FAMILYMART @Lembah Selatan,"Savanna Lifestyle Retail, Jalan BBLS 2 Bandar Baru Lembah Selatan Bandar Baru, Lembah Selatan, 43800 Dengkil, Selangor.",2.9030766254851335,101.76235989642572,Lembah Selatan,"['Mykōri Dessert Cafe', 'Aiza Bistro', 'Laundry Box']"
familymart,convenience_store,FAMILYMART @Pusat Komersial Bentong Prima,"P65-G, Jalan Prima 1, Pusat Komersial Bentong Prima, 28700 Bentong, Pahang",3.5148221482766133,101.91364392212722,Pusat Komersial Bentong Prima,"['Chanteq Cafe', 'Astana Island Restaurant', 'Pejabat Agama Islam Daerah Bentong & Mahkamah Syariah Bentong']"
familymart,convenience_store,FAMILYMART @Jalan Persiaran Puncak Alam 6,"PT 42663, Jalan Persiaran Puncak Alam 6, 42300 Bandar Puncak Alam, Selangor",3.230763344779231,101.45076739751336,Jalan Persiaran Puncak Alam 6,"['Jalan Batu Arang Exit Puncak Alam', 'Didi Kids World']"
familymart,convenience_store,FAMILYMART @Pusat Perniagaan Putra Raub,"No. 111, Lorong Putra Raub 2, Pusat Perniagaan Putra Raub, 27600 Raub, Pahang",3.806220854895982,101.85420980410942,Pusat Perniagaan Putra Raub,"['Unit Pengambilan Tanah Raub', 'Bangunan Persekutuan Raub', 'Jabatan Pendaftaran Negara Daerah Raub']"
familymart,convenience_store,FAMILYMART @Jalan Tanjung Bungah,"533b, Jalan Tanjung Bungah, 11200 Tanjung Bungah, Pulau Pinang",5.466475936169589,100.28645839741152,Jalan Tanjung Bungah,"['TM Resort', 'Sunflower Bakery', 'Home Cafe']"
familymart,convenience_store,FAMILYMART @Jade Hills,"36, Jalan Dataran Jade 5, Jade Hills, 43000 Kajang, Selangor",2.993140640903641,101.76046479564071,Jade Hills,"['Starbucks Jade Hills DT', ""Le Moon's"", 'Restoran Jadehill Maju']"
familymart,convenience_store,FAMILYMART @Bandar Baru Sungai Buloh,"No. 374, Jalan 1a/3, Bandar Baru Sungai Buloh, 47000 Sungai Buloh, Selangor",3.2115443336208123,101.56488649769189,Bandar Baru Sungai Buloh,"['Secret Recipe', 'Bintang Gemilang Karaoke', 'Healthlane Pharmacy']"
familymart,convenience_store,FAMILYMART @Jalan Tapah-Bidor,"No. 2, (Ground Floor), PT 11166, No. 3, (Ground Floor), PT 11167, Jalan Tapah-Bidor, 35500 Bidor, Perak",4.113240904223285,101.28615461090484,Jalan Tapah-Bidor,"['Neeza Cafe @Atap Merah Nasi Ayam', '壹号大饭店', 'Pejabat Pos Bidor']"
familymart,convenience_store,FAMILYMART @Teluk Air Tawar,"Jalan Teluk Air Tawar, Teluk Air Tawar, 13050 Butterworth, Pulau Pinang",5.479214875847636,100.38383931090492,Teluk Air Tawar,"['Caltex Teluk Air Tawar', 'Warung MesraJaya', 'Masjid Daerah Sbrg Perai Utara']"
familymart,convenience_store,FAMILYMART @Medan Klebang Restu,"Laluan Klebang Restu 2, Medan Klebang Restu, 31200 Chemor, Perak",4.682061162564061,101.12157480629888,Medan Klebang Restu,"['Farmasi Klebang Restu', 'Restoran Seri Nuri', 'Poliklinik & Surgery Gul']"
familymart,convenience_store,FAMILYMART @Jalan Tanjung Bungah,"533b, Jalan Tanjung Bungah, 11200 Tanjung Bungah, Pulau Pinang",5.466486616211747,100.28645839741152,Jalan Tanjung Bungah,"['TM Resort', 'Sunflower Bakery', 'Home Cafe']"
familymart,convenience_store,FAMILYMART @Pusat Perniagaan Baldwin,"103, Jalan Baldwin 3, Pusat Perniagaan Baldwin, 35000 Tapah, Perak",4.195832692536369,101.26323920508263,Pusat Perniagaan Baldwin,"['Watsons Tapah', 'Kedai Dobi Nice N Easy Clean', 'Watson Tapah']"
familymart,convenience_store,FAMILYMART @Jalan TPI 1/5,"41-G Pinggiran Batu Caves, Jalan TPI 1/5, 68100 Batu Caves, Selangor",3.25066622312165,101.69257677762614,Jalan TPI 1/5,"['Kedai Dobi SpeedyWash', 'Honda Motor', 'SK Taman Seri Gombak']"
familymart,convenience_store,FAMILYMART @Putra Nilai,"Ground Floor, PT 12167, Jalan BBN 1/1F, Putra Nilai, 71800 Nilai, Negeri Sembilan",2.8141268615472605,101.79726799741277,Putra Nilai,"['Mudah Enterprise', 'Perabot Gembira', 'Vaporlink Specialist']"
familymart,convenience_store,FAMILYMART @Pudu,"Jalan Pudu, Pudu, 55100 Kuala Lumpur, Wilayah Persekutuan Kuala Lumpur",3.1371001104800444,101.71121069741227,Pudu,"['Caltex Jalan Pudu', 'MFI Autohaus', 'Caltex']"
familymart,convenience_store,FAMILYMART @Kelapa Sawit,"No. 9(GF), Jalan Impiana 1, Taman Impiana, Kelapa Sawit, 81030 Kulai, Johor",1.6752174281403465,103.53180829405696,Kelapa Sawit,"['Petronas Kelapa Sawit', 'Klinik Adham Kelapa Sawit', 'Jibril Corner']"
familymart,convenience_store,FAMILYMART @32610,"No. 2 & 3 (Ground Floor), Persiaran SIBC 2, Seri Iskandar Business Centre, 32610, Seri Iskandar, Perak",4.358371253845774,100.96702758494385,32610,"['Pakchu Tomyam', 'Badang Fitness Gym', 'Bandar Sri Iskandar']"
familymart,convenience_store,FAMILYMART @Seri Iskandar,"Taman Puchong Perdana, 47100 Puchong, Selangor",3.0067106426381436,101.60520573673516,Seri Iskandar,"['Super Cut Puchong Perdana', 'Farrah Salon', '7Eleven Puchong Perdana']"
familymart,convenience_store,FAMILYMART @Pusat Perniagaan Maju Utama,"32, Lorong Maju Utama 1, Pusat Perniagaan Maju Utama, 14000 Bukit Mertajam, Pulau Pinang",5.3515578243835495,100.472457468746,Pusat Perniagaan Maju Utama,"['The-Garden Restaurant', 'T Garden Cafe', 'Mii Design by Korea']"
familymart,convenience_store,FAMILYMART @Taman Dagang,"16, Jalan Dagang B/3a, Taman Dagang, 68000 Ampang, Selangor",3.148739085324507,101.75445067392396,Taman Dagang,"['Kari Gegar', 'Tini Spa', 'Ezuwan Ismail Kuala Lumpur']"
familymart,convenience_store,FAMILYMART @68000 Ampang,"Bandar Teknologi Kajang, 43500 Semenyih, Selangor",2.970797141094306,101.82699126867324,68000 Ampang,"['Cendol Lori Bandar Teknologi Kajang', 'Pasar Malam Bandar Teknologi Kajang', '好望角海鲜餐馆 Golden Corner Seafood Restaurant']"
familymart,convenience_store,FAMILYMART @Bandar Kinrara,"No. 53-G , Jalan BK 5A/2, Bandar Kinrara, 47180 Puchong, Selangor",3.046585784115132,101.64596682634432,Bandar Kinrara,"['Bubble Lite 24 Hours', 'Publika Kopitiam', 'Econ Bubble Lite']"
familymart,convenience_store,FAMILYMART @Pekan Durian Tunggal,"DT 975, Pekan Durian Tunggal, 76100 Durian Tunggal, Melaka",2.310906296090612,102.28108245050015,Pekan Durian Tunggal,"['Pasar Mini Bismi Zam Zam', '7 Eleven Durian Tunggal', ""Roy's Burger""]"
familymart,convenience_store,FAMILYMART @Pusat Perniagaan Mas Jaya,"No 21 (Ground Floor), Jalan Perniagaan Jaya, Pusat Perniagaan Mas Jaya, 84000 Muar, Johor",2.068566276463599,102.5789021326848,Pusat Perniagaan Mas Jaya,"['Croods Cafe', 'Dragon City Hotel', 'Steak N Cake House']"
familymart,convenience_store,FAMILYMART @Taman Bandar Baru,"No.2222 (Ground Floor), Jalan Batu Karang, Taman Bandar Baru, 31900 Kampar, Perak",4.326594093368253,101.14598796861671,Taman Bandar Baru,"['金城海鲜饭店', 'Havana Seafood', 'Hawana Tom Yum Seafood']"
familymart,convenience_store,FAMILYMART @Jalan Rambai Jaya 29,"No. 33, Jalan Rambai Jaya 29, Taman Rambai Jaya, 75260 Melaka",2.2635976597426852,102.18926376881123,Jalan Rambai Jaya 29,"['Pemborong Perfume Melaka', 'MAXIBI I.T. SOLUTIONS (Kedai Komputer)', 'RESTORAN MAULANA NASI KANDAR']"
familymart,convenience_store,FAMILYMART @Persiaran Sri Pulai 2,"Caltex Temiang, Provisional Lot No. 3, Lot No. 40766, Persiaran Sri Pulai 2, 70400 Seremban, Negeri Sembilan",2.7480369540501637,101.94312097033695,Persiaran Sri Pulai 2,"['Gedabucks Kontena', 'Gedabucks Foodstation', 'Bubble Lab Sri Pulai']"
familymart,convenience_store,FAMILYMART @Bandar Tasik Puteri,"No. 106G, Jalan 7A/2, Medan Puteri, Bandar Tasik Puteri, 48020 Rawang, Selangor",3.2831008931458783,101.4734818721198,Bandar Tasik Puteri,"['Satay Pak Wan', 'Mr Diy Bandar Tasik Puteri', 'Restoran Moulana Muhammed']"
familymart,convenience_store,FAMILYMART @Taman Lumut Indah II,"No. 7 (Ground Floor), Jalan Lumut Indah 2/1, Taman Lumut Indah II, 32200 Lumut, Perak",4.208972449746626,100.63880428303995,Taman Lumut Indah II,"['Kedai Rm2', 'Kedai Makan Ali Junior', 'Hospital TLDM Lumut']"
familymart,convenience_store,FAMILYMART @Seksyen 7,"No.43 Jalan 7/7C, Seksyen 7, 43650 Bandar Baru Bangi, Selangor",2.9697153411205948,101.77326899762616,Seksyen 7,"['Bodyprime Gym & Fitness', 'Al Baghdadi Learning Centre Seksyen 7 BB Bangi', 'Restoran Thai Ikan Bakar']"
familymart,convenience_store,FAMILYMART @Pusat Perniagaan Mahkota Impian,"No. 1 (Ground & Mezzanine), Persiaran Seri Impian, Pusat Perniagaan Mahkota Impian, 14000 Bukit Mertajam, Pulau Pinang",5.318097605010297,100.47705753528918,Pusat Perniagaan Mahkota Impian,"['KFC', 'Watsons', 'Shunka Alma']"
familymart,convenience_store,FAMILYMART @Jalan Sitiawan-Lumut,"Stesen Minyak Petron, PT 50174 (Lot Lama 44434), Jalan Sitiawan-Lumut, 32000 Sitiawan, Perak",4.211382429512205,100.68216698449983,Jalan Sitiawan-Lumut,"['Drive Thru Car Wash', 'Smart Cyclone Car Wash', 'Mitsubishi Showroom']"
familymart,convenience_store,FAMILYMART @Mukim Hulu Yam,"A portion of PT 545, Kampung Batu 30, Mukim Hulu Yam, Daerah Hulu Selangor, Selangor Darul Ehsan",3.439053891146332,101.631628022715,Mukim Hulu Yam,"['Mek Tanjung Seafood', 'Combat Coating Malaysia Sdn Bhd', 'Combat Engineering']"
familymart,convenience_store,FAMILYMART @Jalan Wangsa Setia 1,"No. 33-G, Jalan Wangsa Setia 1, Taman Wangsa Melawati, 53300 Kuala Lumpur",3.209664697669057,101.74402489755737,Jalan Wangsa Setia 1,"['Idemitsu Pusat Service Kereta & Tayar', 'Enak Rasa Cafe', 'Dr Zainol Mart']"
familymart,convenience_store,FAMILYMART @Saujana Utama 3,"88G, Jalan Bidara 6/3, Saujana Utama 3, 47000 Sungai Buloh, Selangor",3.202049126469174,101.48733052288301,Saujana Utama 3,"['Restoran Fareed', 'Restoran Fareed Saujana Utama', 'Gerai Monster X Burger Saujana Utama']"
familymart,convenience_store,FAMILYMART @Taman Sungai Baru Ilir Jaya,"SI17, Jalan Kuala Sungai Baru Ilir Jaya Utama, Taman Sungai Baru Ilir Jaya, 78000 Alor Gajah, Melaka",2.3663479982669844,102.05126895533253,Taman Sungai Baru Ilir Jaya,"['Rumsis SBI', 'Easy Clean Dobby', '7 Eleven']"
familymart,convenience_store,FAMILYMART @S2 Heights,"PT 27159, Jalan Rimbun Indah 2, S2 Heights, 70300 Seremban, Negeri Sembilan",2.7116840828532855,101.88898510473797,S2 Heights,"['Old Skool Warung', 'Parti Pribumi Bersatu Malaysia Rasah', 'Hill Park S2 Heights']"
familymart,convenience_store,FAMILYMART @Bandar Sri Semantan,"No. 4&6, Jalan Sudirman 1, Bandar Sri Semantan, 28000 Temerloh, Pahang",3.449063554373097,102.41540744372094,Bandar Sri Semantan,"['Pizza Hut', 'Anakku Temerloh', 'Maybank Temerloh']"
familymart,convenience_store,FAMILYMART @Jalan Istana Kuning,"NO. S7 & S12, Lot 92, Jalan Istana Kuning, 05000 Alor Setar, Kedah",6.125065886282303,100.36892476489399,Jalan Istana Kuning,"['Krabi Thai Food Restaurant', 'KOPITIAM Jalan Teluk Wan Jah-hkg', 'Kopitiam Convent']"
familymart,convenience_store,FAMILYMART @Mukim 18,"A Portion of 5B, Mukim 18, Persiaran Tanjung Tokong, 10740 Pulau Pinang",5.446147703933006,100.30474894168105,Mukim 18,"['Caltex', 'Cube Coffee', 'Continental Tyres']"
familymart,convenience_store,FAMILYMART @Taman TTDI Grove,"No. 70-1, Jalan TTDI Grove 1/1, Taman TTDI Grove, 43000 Kajang, Selangor",2.996235526156555,101.81388426885567,Taman TTDI Grove,"[""Adam's Bundle"", 'AMAYA (Boutique)', 'Restoran Ehsan Maju']"
familymart,convenience_store,FAMILYMART @Taman Pantai Makmur,"16 (Ground Floor), Jln Pantai Makmur 2/1, Taman Pantai Makmur, 34900 Pantai Remis, Perak",4.443156186548834,100.62651689769503,Taman Pantai Makmur,"['洪福冷氣海鮮飯店 Restoran Hong Hock', 'Kokee Restaurant', '国记海鲜酒家饭店']"
familymart,convenience_store,FAMILYMART @Taman Cindai Jaya,"No.10, Jalan Cindai Jaya 1A, Taman Cindai Jaya, 08000 Sungai Petani, Kedah",5.624959950251329,100.53225266896378,Taman Cindai Jaya,"['Restoran Sukhumvit Tomyam', 'Klinik Pergigian Dr Noor Dina', 'Poliklinik Dr. Azhar & Rakan-Rakan']"
familymart,convenience_store,FAMILYMART @Taman Medan Seri Sentosa,"No.10 (Ground floor), Jalan Seri Sentosa 1, Taman Medan Seri Sentosa, 32400 Ayer Tawar, Perak",4.293225615642569,100.75274960645177,Taman Medan Seri Sentosa,"['CoffeeLand Cafe', 'Mr. Cendol @ Ayer Tawar', '7-Eleven Ayer Tawar']"
familymart,convenience_store,FAMILYMART @Jalan Kemajuan,"No.11-G (Ground floor), Jalan Kemajuan, 31000 Batu Gajah, Perak",4.472385677570629,101.04162249779607,Jalan Kemajuan,"['Restaurant Mee Fong', 'CIMB Bank', 'Guardian Batu Gajah']"
familymart,convenience_store,FAMILYMART @Jalan Temerloh,"No.64 & 65, Jalan Temerloh, 28400 Mentakab, Pahang",3.4837946244927283,102.34580472651264,Jalan Temerloh,"['Klinik Pergigian Khek', 'Taman Mentakab Playground', 'D Studio']"
familymart,convenience_store,FAMILYMART @83100 Rengit,"No. 85 & 87, Lot 88 & 89, Jalan Besar, 83100 Rengit, Batu Pahat, Johor",1.6830147713956964,103.14478249767377,83100 Rengit,"['SBR Chong Hwa High School', 'Eng Hiap Seng Sdn. Bhd.', 'Amaron Battery Shop - Hasanah']"
familymart,convenience_store,FAMILYMART @IOI Resort,"Lot LG218, IOI City Tower Two Lebuh IRC, IOI Resort, 62502 Putrajaya, Selangor",2.969223971101217,101.71133080989023,IOI Resort,"['Kakatoo Ioi City Mall', 'Black Canyon', 'Noodle Station']"
familymart,convenience_store,FAMILYMART @Kampung Teluk Bagan,"Jalan Dato&acute; Syed Omar, Kampung Teluk Bagan, 05050 Alor Setar, Kedah",6.068896422229235,100.36543523104184,Kampung Teluk Bagan,"['Petronas Tandop', 'Taman Titiwangsa', 'Traffic Light Stargate']"
familymart,convenience_store,FAMILYMART @98,"No. 4, Tingkat Bawah Lorong SU 1/1, 98, 27000 Jerantut, Pahang",3.927883997143151,102.38133256886074,98,"['Laundry Bar', 'Bamboo House 竹林屋', 'Station Nasi Ayam Malaya']"
familymart,convenience_store,FAMILYMART @Jalan Selama Kedah,"A portion of Caltex Petrol Station at Lot 5863, Jalan Selama Kedah, 34100 Selama, Perak",5.224406993777666,100.68752526093847,Jalan Selama Kedah,"['Caltex Selama', 'Refuel Cafe', 'SuperEZ Laundry']"
familymart,convenience_store,FAMILYMART @Taman Lukut Hartamas,"No. 23 (G), Jalan Hartamas 1, Taman Lukut Hartamas, 71010 Port Dickson, Negeri Sembilan",2.568551894584986,101.82927829736175,Taman Lukut Hartamas,"['Indra Spices Flour Mill', 'Gavino Furniture', 'Sai Kumarans Curry House']"
familymart,convenience_store,FAMILYMART @Iconic Point,"101-G & 103-G, Jalan Iconic Point, Iconic Point, 14100 Simpang Ampat, Pulau Pinang",5.283449829179067,100.47629132649321,Iconic Point,"['Yeap Poliklinik Sdn Bhd', 'Hari Krisnan Clinic', 'Masjid Jamek Al-Ihsaniah Simpang Ampat']"
familymart,convenience_store,FAMILYMART @Jalan Pintasan Dengkil-Putrajaya (FT29) Arah Utara,"PT 3353, KM48.7, Jalan Pintasan Dengkil-Putrajaya (FT29) Arah Utara, 43800 Dengkil, Selangor Darul Ehsan",2.8691616363515164,101.68522350689427,Jalan Pintasan Dengkil-Putrajaya (FT29) Arah Utara,"['Tasik Bukit Unggul', 'Restoran Dengkil Seafood', 'ENEOS Car Service Centre']"
familymart,convenience_store,FAMILYMART @Taman Sejati Indah,"No. 3A & 5 (Ground Floor), Jalan Permatang Gedong, Taman Sejati Indah, 08000 Sungai Petani, Kedah Darul Aman",5.6121518055695425,100.48306182649442,Taman Sejati Indah,"['Gerai Alaf Utara', 'Restoran Assalam Taqwa', 'Happy Home Superstore']"
familymart,convenience_store,FAMILYMART @SS15,"No. 63 (Ground Floor), Jalan SS15/8A, SS15, 47500 Subang Jaya, Selangor",3.0740947882604335,101.59003837113785,SS15,"['Zetro Salon', 'Pestle & Mortar', 'NinjaZ']"
familymart,convenience_store,FAMILYMART @Mukim Hulu Bernam Timur,"Lot 232, Mukim Hulu Bernam Timur, District Muallim, Perak Darul Ridzuan",3.6915770104633774,101.52248292659367,Mukim Hulu Bernam Timur,"['TM Point', 'Yap Auto Air-cond And Battery Service', 'Cupak Cafe']"
familymart,convenience_store,FAMILYMART @Lagenda Heights,"301, Jalan Legenda 1, Lagenda Heights, 08000 Sungai Petani, Kedah",5.664400525238681,100.50359509096509,Lagenda Heights,"['Sports Station', 'Vintage Car Wash & Detailing Centre', 'Hong Leong Bank']"
familymart,convenience_store,FAMILYMART @Taman Paya Rumput Utama,"No. 17, Jalan Inang 4, Taman Paya Rumput Utama, Taman Seri Paya Rumput, 76450 Malacca",2.2802346073128783,102.21744453019657,Taman Paya Rumput Utama,"['San Jie Mei Restaurant', 'Klinik Pergigian Leow & Teng', 'Pusat Buku Aneka']"
familymart,convenience_store,FAMILYMART @Lorong Bunga Ros 1,"No. 52 & 53 (Ground Floor), Lorong Bunga Ros 1, Taman Bunga Ros, 32000 Perak",4.207965109548557,100.69739297886358,Lorong Bunga Ros 1,"['Sk St. Francis Sitiawan', 'Smk Convent Sitiawan', 'Restoran Taman Ros']"
familymart,convenience_store,FAMILYMART @Taman Bahagia,"Lot 12A, PT111, Kompleks Perniagaan Ampang, Sultanah Bahiyah Hwy, Taman Bahagia, 05050 Alor Setar, Kedah",6.111898457785264,100.35127226891176,Taman Bahagia,"['C Mart Ampang Business Centre', ""有米酸奶 Alor Setar ABC - Yomie's Rice X Yogurt"", 'Ampang Business Centre']"
familymart,convenience_store,FAMILYMART @Elmina East,"No.71 (GF), Jalan Eserina Y U16/Y, Elmina East, 40160 Shah Alam, Selangor",3.1857831344469543,101.52514126851011,Elmina East,"['The Sawah Riadah Court', 'Taman Tasik Elmina', 'Warung Beger & Char Kuew Tiau']"
familymart,convenience_store,FAMILYMART @Taman Samudra,"13A-G, Prima Samudera, Jalan 11, Lorong Samudera Utara, Taman Samudra, 68100 Batu Caves, Selangor",3.234060876159981,101.69525333335679,Taman Samudra,"['Batu Caves AL-Ikhsan (BCA)', 'WashOut Laundry & Cafe', 'Al Ikhsan']"
familymart,convenience_store,FAMILYMART @Bukit Raja,"PT29780, Kg. Bukit Cherakah, Seksyen U15, Bukit Raja, 42200 Petaling Jaya, Selangor",3.170020410110882,101.46940592668076,Bukit Raja,"['Kem Bina Negara Meru', 'Restoran Payung']"
familymart,convenience_store,FAMILYMART @Kampung Sikamat Lama,"No. 9 (Ground Floor), Jalan Seri Pandan 1 Taman Seri Pandan, Kampung Sikamat Lama, 70400 Seremban, Negeri Sembilan",2.7508264503290794,101.97516770653513,Kampung Sikamat Lama,"['Dewan Perdana KRS', 'Surau Vila Suria', 'Surau Al-Hidayah']"
familymart,convenience_store,FAMILYMART @Dataran Selayang,"16-G, Jalan Dataran Selayang 1, Dataran Selayang, 68100 Batu Caves, Selangor.",3.2377918874215057,101.67374661277624,Dataran Selayang,"['Spa Car Wash', 'Batu Caves Tyre And Services S/B', 'Kirimba Cafe']"
familymart,convenience_store,FAMILYMART @Pusat Komersial Locak,"No. 13 (GF), Jalan PKL 2, Pusat Komersial Locak, 70200 Seremban, Negeri Sembilan",2.72754943416346,101.92527731249334,Pusat Komersial Locak,"['Forever Living', '百酌點心 Pak Chok Dim Sum Restaurant', 'Mother Dung Restaurant']"
familymart,convenience_store,FAMILYMART @Bukit Raja,"T29780, Kg. Bukit Cherakah, Seksyen U15, Bukit Raja, 42200 Petaling Jaya, Selangor",3.1700248447235175,101.4694016139535,Bukit Raja,"['Kem Bina Negara Meru', 'Restoran Payung']"
familymart,convenience_store,FAMILYMART @Pekan Simpang Kuala,"No. 65 (Ground Floor), Jalan PSK 1, Pekan Simpang Kuala, 05400 Alor Setar, Kedah",6.098251784133195,100.36474707330721,Pekan Simpang Kuala,"['Rainbow Hantaran SDN BHD', 'Nasi Kandar Aiena', 'Tiffz Coffee Gallery']"
familymart,convenience_store,FAMILYMART @Bukit Jelutong,"G-23(i), Komersial Radia, Persiaran Tebar Layar, Bukit Jelutong, 40150 Shah Alam, Selangor",3.101538983753652,101.53557905382932,Bukit Jelutong,"['Pizza Hut', 'Daniels Cafe', 'Mail Boxes Etc. (Mbe) Radia Commercial']"
familymart,convenience_store,FAMILYMART @Taman Tasik Indah,"No 126, Jalan Tasik Indah 1/4, Taman Tasik Indah, 86000 Kluang, Johor",1.995552142644949,103.295643724991,Taman Tasik Indah,['newplace']
familymart,convenience_store,FAMILYMART @Mukim Ijok,"Lot PT 28807, Bandar Saujana Utama, Mukim Ijok, Daerah Kuala Selangor, Selangor",3.2058837415339547,101.47175174006964,Mukim Ijok,"['Restoran Periuk Besar', 'Restoran Gajah Putih', 'Shoppe In']"
familymart,convenience_store,FAMILYMART @Daerah Kuala Selangor,"A portion of Lot PT 12724 Mukim Krubong, Melaka Tengah, 75260 Melaka",2.296883317889456,102.24835259631784,Daerah Kuala Selangor,"['Bubble Lab Laundry Arcade', 'Gerilla Coffee Krubong', 'Chaq Char Kuey Teow']"
familymart,convenience_store,FAMILYMART @Jalan Batu Ferringhi,"72C-G-2 & 72C-G-3, Jalan Batu Ferringhi, 11100 Batu Ferringhi, Pulau Pinang",5.475049627476105,100.24941958454868,Jalan Batu Ferringhi,"['Viva Italia', 'I Love U Cafe', 'Ferringhi Night Market']"
familymart,convenience_store,FAMILYMART @Kota Sultan Ahmad Shah,"R-15, Tasek Commercial Centre, Kota Sultan Ahmad Shah, 25200 Kuantan, Pahang Darul Makmur",3.8707300865661742,103.27424860235416,Kota Sultan Ahmad Shah,"['KotaSAS Sales Gallery', 'Aquanano Kotasas', 'Surau Al Mussolah']"
familymart,convenience_store,FAMILYMART @Landmark City Commercial Centre,"Plot 55 & 56 (Ground Floor), Landmark City Commercial Centre, Kulim, Kedah",5.383928813091406,100.54679869629683,Landmark City Commercial Centre,"['Tealive', 'Gene Martino', 'Affin Bank Kulim']"
familymart,convenience_store,FAMILYMART @Taman Sri Serdang,"11, Jalan 18/33A, Taman Sri Serdang, 43300 Seri Kembangan, Selangor",3.008472711012393,101.7144033961046,Taman Sri Serdang,"[""McDonald's"", 'Secret Recipe Sri Serdang', 'De Gift House']"
familymart,convenience_store,FAMILYMART @Taman Paroi Jaya,"406, Persiaran Rajawali, Taman Paroi Jaya, 70400 Seremban, Negeri Sembilan",2.730578080581036,101.98529979621976,Taman Paroi Jaya,"['Azhaar Maju', ""Thanks God It's Mek"", 'AWE Yong Tau Foo']"
familymart,convenience_store,FAMILYMART @Bandar Baru Bukit Gambir,"Lot No. A12, Gambir Square, Bandar Baru Bukit Gambir, 84700 Tangkak, Johor",2.212782399835567,102.65145328738697,Bandar Baru Bukit Gambir,"['Econsave Bukit Gambir', 'Nasi Kandar Satu M', 'Klinik Elizabeth']"
familymart,convenience_store,FAMILYMART @Jalan Tanah Putih,"Bangunan Lama MPK, Majlis, Jalan Tanah Putih, 25100 Kuantan, Pahang",3.7985070961593816,103.32187168272678,Jalan Tanah Putih,"['Majlis Perbandaran Kuantan (Municipal Council)', 'Majlis Perbandaran Kuantan', 'HQ MPK']"
familymart,convenience_store,FAMILYMART @Taman Serai Wangi III & IV,"Lot 54, No. 2500， Lorong Serai Wangi 4/10, Taman Serai Wangi III & IV,  09400 Padang Serai, Kedah",5.523608073451315,100.5446200250432,Taman Serai Wangi III & IV,"['SMK Dato Lela Pahlawan', 'Sekolah Kebangsaan Taman Ria', 'Bazaar Ramadhan Padang Serai']"
familymart,convenience_store,FAMILYMART @KLIA2,"S2-3-L11, Departure Level, Public Concourse (Landside), KLIA2, 64000 Sepang, Selangor",2.747165023129941,101.68540010149646,KLIA2,"['AmBank', 'Butter Olive Wholesome Pastry House', 'KLIA2 Air Traffic Control Tower']"
familymart,convenience_store,FAMILYMART @Bandar Indera Mahkota 8,"B 138 & B 140 (Ground Floor), Lorong IM 8/33, Jalan Sungai Lembing, Bandar Indera Mahkota 8, 25200 Kuantan, Pahang Darul Makmur",3.826847010546202,103.30283586931796,Bandar Indera Mahkota 8,"['Rumah Kopi', 'Veer Hotel', 'Kayu Manis Bistro']"
familymart,convenience_store,FAMILYMART @Pusat Perniagaan Barry @ Kuala Lipis,"No. 3 & 4, Jalan Pusat Perniagaan Barry, Pusat Perniagaan Barry @ Kuala Lipis, 27200 Lipis, Pahang Darul Makmur",4.188971929758468,102.04945367426978,Pusat Perniagaan Barry @ Kuala Lipis,"['Pulut Rendang Warisan Lipis', 'Restoren Jamil Pulut', 'Bazar Ramadhan K. Lipis']"
familymart,convenience_store,FAMILYMART @Mukim 12,"A portion of Stesen Minyak Mayang Pasir Permai, No. 23, Jalan Tengah, Bayan Baru, Mukim 12, 11950 Bayan Lepas, Pulau Pinang",5.3197323903316605,100.28443203128955,Mukim 12,"['Caltex', ""McDonald's / McCafé"", 'Asiawash Autospa']"
familymart,convenience_store,FAMILYMART @Jalan Kijang,"13, Jalan Kijang, Taman Mohd Yassin, 86200 Simpang Renggam",1.8225215305680664,103.31433803768127,Jalan Kijang,"['Restoran Tai Kai Hock 大家福冷气酒楼', 'RHB Bank Berhad', 'Pizza Hut Delivery']"
familymart,convenience_store,FAMILYMART @Jalan 1/125D,"39-G, Jalan 1/125D, Desa Petaling, 57100 Kuala Lumpur",3.0829705534608514,101.70453155727614,Jalan 1/125D,"['高原天天来海鲜饭店', 'Warung Mamak KK', 'Restaurant Desa Petaling']"
familymart,convenience_store,FAMILYMART @81600 Pengerang,"No. 87-1, Ground Floor, Jalan Hee Seng, Sungai Rengit, 81600 Pengerang, Kota Tinggi, Johor",1.350592098639527,104.2238118956432,81600 Pengerang,"['Klinik Rafeeq & Nurul', '新光海鲜', 'Restauran Makanan Laut Sin Kong']"
familymart,convenience_store,FAMILYMART @Putra Heights,"No. 19, Jalan Putra Mahkota 7/6c, Putra Heights, 47650 Subang Jaya, Selangor",2.9963987253110917,101.57354999564068,Putra Heights,"['Emery School Of Coffee (Esc)', 'Mr. Burger', 'Kingsley International Educational Centre']"
familymart,convenience_store,FAMILYMART @Bandar Sunway,"OB2.G.U2A, Oasis Boulevard, Sunway Pyramid, 3, Jalan PJS 11/15, Bandar Sunway, 47500 Petaling Jaya, Selangor",3.073042467980549,101.60881806675937,Bandar Sunway,"['Aloha Karaoke Sunway', '7-11', 'Sushi Zanmai (壽司三味)']"
familymart,convenience_store,FAMILYMART @Klang,"Lot 139 Batu 2, Jalan Kuala Selangor, Klang, 45000 Kuala Selangor, Selangor.",3.3149139946185406,101.27700900699999,Klang,"['Kuala Selangor Shop', 'Toyota Service Center', 'Metro Maternity Hospital']"
familymart,convenience_store,FAMILYMART @Genting Permai Avenue Bentong,"Part of Petron Genting Permai, Lot 21078, Jalan Permai 2, Genting Permai Avenue Bentong, 69000 Genting Highlands, Pahang",3.3871288447005776,101.7736894048113,Genting Permai Avenue Bentong,"['Petron', 'Starbucks', 'Geo Resort & Hotel']"
familymart,convenience_store,FAMILYMART @Taman Jerai Maju 1,"Lot No. M1, 31, 32 & 33, Jerai Plaza, No. 1, Taman Jerai Maju 1, 08300 Gurun, Kedah",5.819369039455474,100.48222024816558,Taman Jerai Maju 1,"['MAXIS', 'Maybank Gurun', 'Hasani Bookstore']"
familymart,convenience_store,FAMILYMART @08300 Gurun,"Kampung Batu Tujuh, 25150 Kuantan, Pahang",3.793406990859128,103.24838985360283,08300 Gurun,"['BHPetrol Kuantan By Pass', 'BHP Petrol', 'Muhimeen Tomyam & Seafood']"
familymart,convenience_store,FAMILYMART @Bandar Country Homes,"No. G-15, Avia Plus, Jalan Desa Utama, Bandar Country Homes, 48000 Rawang, Selangor",3.3235675595984744,101.52663755611296,Bandar Country Homes,"['Reborn Hair Salon', 'Klinik Amar', 'KFC']"
familymart,convenience_store,FAMILYMART @Rembau Sentral,"No. 9-G (Ground Floor), Jalan RS 1, Rembau Sentral, 71309 Pekan Rembau, Negeri Sembilan",2.5883077619954986,102.09888038854157,Rembau Sentral,"['99 Speedmart', '7 Eleven', 'Secret Recipe']"
familymart,convenience_store,FAMILYMART @Jalan Beserah,"B-272, Ground Floor, Jalan Beserah, 25300 Kuantan, Pahang",3.8263331355394343,103.33696765136328,Jalan Beserah,"['Nasi Lemak Place', 'Amlife Insurance Berhad', 'Klinik Pergigian Nazira']"
familymart,convenience_store,FAMILYMART @Bandar Sri Sendayan,"No. 21, Ground Floor Persiaran Metro Park, Bandar Sri Sendayan, 71950, Negeri Sembilan",2.6869289038561757,101.84770870219435,Bandar Sri Sendayan,"['Klinik Mediviron Metropark Sendayan', 'Restoran Idaman Villa', 'Secret Recipe']"
familymart,convenience_store,FAMILYMART @Taman Putra,"No. 39, Jalan Bunga Tanjung 9C, Taman Putra, 68000 Ampang, Selangor",3.1204939968505165,101.76285362479089,Taman Putra,"[""Parking McDonald's"", 'Kentucky Fried Chicken', 'CIMB Bank']"
familymart,convenience_store,FAMILYMART @Jalan Tun Ismail 1,"A-7, Ground Floor, Jalan Tun Ismail 1, 25000 Kuantan, Pahang",3.8152296331650244,103.3284083936766,Jalan Tun Ismail 1,"['Citibank', 'Prudential Insurance Kuantan', 'Prudential Assurance Malaysia Bhd (Kuantan Branch)']"
familymart,convenience_store,FAMILYMART @Mukim Kapar,"Lot 53237 (PT 53555), Persiaran Batu Belah, Bandar Bukit Raja Stage 1, Mukim Kapar, Daerah Klang, Selangor",3.088082123396397,101.43282222463259,Mukim Kapar,"['Taman Rekreasi Bandar Bukit Raja (S)', 'Qisra Islamic Empire', '99 SPEEDMART']"
