feature_name,feature_tag,Name,Address,Longitude,Latitude
mynews,convenience_store,myNEWS @ AEON Bukit Indah (G Floor),"LOT G41, AEON BUKIT INDAH SHOPPING CENTRE, NO 8, JALAN INDAH 15/2, BUKIT INDAH",103.65615,1.482208
mynews,convenience_store,myNEWS @ AEON Kempas (G Floor) ,"LOT G-02, AEON MALL KEMPAS, NO.3, JALAN DATO ONN, BANDAR DATO ONN",103.7350412,1.5639165
mynews,convenience_store,myNEWS @ AEON Tebrau City (G Floor),"LOT G38, AEON TEBRAU CITY STORE & SHOPPING CENTRE, NO 1, JALAN DESA TEBRAU, TAMAN DESA TEBRAU",103.796804,1.549699
mynews,convenience_store,myNEWS (Maru Kafe) @ Arked Meranti UTM Skudai (G Floor),"LOT G-01, ARKED MERANTI UTM SKUDAI, JALAN UNIVERSITI",103.633513,1.559672
mynews,convenience_store,myNEWS @ Bandar Seri Alam,"NO. 55 (GROUND FLOOR & SUB-BASEMENT) JALAN BINA 1, BANDAR SERI ALAM",103.873438,1.505245
mynews,convenience_store,myNEWS @ Baypoint Shopping Mall (G Floor) ,"G-42, NO. 01-01 BAYPOINT SHOPPING MALL, PERSIARAN DANGA PERDANA COUNTRY GARDEN DANGA BAY",103.728926,1.464299
mynews,convenience_store,myNEWS (Maru Kafe) @ Desaru Utama,"NO.101, JALAN JELUTONG 1, TAMAN DESARU UTAMA",104.214017,1.57347
mynews,convenience_store,myNEWS @ Eco Curve JB (G Floor),"NO. 8 & #08-01, ECO CURVE JALAN EKOPERNIAGAAN 1/3 TAMAN EKOPERNIAGAAN",103.722665,1.578886
mynews,convenience_store,myNEWS @ Giant Plentong (G Floor),"LOT R58 & R59, GIANT HYPERMARKET PLENTONG NO. 3, JALAN MASAI LAMA MUKIM PLENTONG",103.8145482,1.5283188
mynews,convenience_store,myNEWS (Maru Kafe) @ Jalan Bakri Muar,"NO. 82-13 (1ST FLOOR, 2ND FLOOR, 3RD FLOR) JALAN BAKRI",102.592511,2.048044
mynews,convenience_store,myNEWS (Maru Kafe) @ Jalan Trus JB,"NO. 4, 5, 6 & 7 (GROUND FLOOR) JALAN TRUS",103.7632975,1.461265811
mynews,convenience_store,myNEWS (Maru Kafe) @ Kampung Masjid Lama,"NO 25, GROUND FLOOR JALAN LANG SAT",103.3189357,2.037931473
mynews,convenience_store,myNEWS @ Komtar JBCC (G Floor),"LOT NO. KG-1A, GROUND FLOOR, KOMTAR JBCC",103.7640179,1.4617565
mynews,convenience_store,myNEWS (Maru Kafe) @ Kota Tinggi Johor,"NO. 17, (GROUND FLOOR) JALN SERI WARISAN KOTA HERITAGE COMMERCIAL CENTRE",103.9057017,1.74918006
mynews,convenience_store,myNEWS @ Little Red Cube (G Floor) ,"LOT 4C, GROUND FLOOR, LITTLE RED CUBE, PERSIARAN PUTERI SELATAN, PUTERI HARBOUR",103.6576916,1.4164165
mynews,convenience_store,myNEWS @ Medini Mall (G Floor),"LOT G17 & G18, GROUND FLOOR, MALL OF MEDINI, NO. 4, LEBUH MEDINI UTARA, MEDINI ISKANDAR",103.632393,1.428412
mynews,convenience_store,myNEWS (Maru Kafe) @ Mount Austin JB,"NO. 49-G, JALAN MUTIARA EMAS 9/3 TAMAN MOUNT AUSTIN",103.7881732,1.546655897
mynews,convenience_store,myNEWS @ Pangsapuri Seri Kencana Setia (G Floor),"SHOP NO. 2, #01-03, BLOCK A PANGSAPURI SERI KENCANA SETIA JALAN STOREY, BUKIT SENYUM",103.762476,1.471088
mynews,convenience_store,myNEWS @ Paradigm Mall JB (4th Floor) ,"4F-23, PARADIGM MALL JOHOR BAHRU, JALAN SKUDAI",103.685767,1.515153
mynews,convenience_store,myNEWS (Maru Kafe) @ Pekan Muar,"LOT 1260, 14 JALAN HAJI ABU",102.568394,2.047635
mynews,convenience_store,myNEWS @ Phoenix JB,"LOT NO. H1.2F, PHOENIX HOTEL, JALAN FOREST CITY 1 PULAU SATU, GELANG PATAH","", 
mynews,convenience_store,myNEWS @ Plaza Angsana (1st Floor),"L1.37, L1, PLAZA ANGSANA, PUSAT BANDAR TAMPOI, JALAN SKUDAI",103.705764,1.49513
mynews,convenience_store,myNEWS @ PLUS R&R Gelang Patah (Southbound),"GPHSB-OL19, KM 4.9 LEBUHRAYA UTARA-SELATAN KAWASN REHAT DAN RAWAT GELANG PATAH ARAH UTARA GELANG PATAH",103.152057,1.945459
mynews,convenience_store,myNEWS @ Pusat Komersial Sunway Marketplace,"LOT G-L-15, GROUND FLOOR, PUSAT KOMERSIAL SUNWAY MARKETPLACE, SUNWAY BIG BOX PERSIARAN MEDINI 6, SUNWAY ISKANDAR",103.628495,1.398809
mynews,convenience_store, myNEWS (Maru Kafe) @ Pusat Perdagangan Pontian Johor ," NO. 10, GROUND FLOOR JALAN DELIMA PUSAT PERDAGANGAN PONTIAN ",103.3898206,1.47903758
mynews,convenience_store,SUPERVALUE @ Pusat Perdagangan Sri Mersing,NO. 12 (G-FLOOR) & 13 (G-FLOOR) JALAN SRI MERSING 1 PUSAT PERDAGANGAN SRI MERSING,103.8334,2.4388 
mynews,convenience_store,myNEWS @ R&F Mall (G Floor) ,"LOT G-080 & G-081, GROUND FLOOR R&F MALL, MERCU 1, JALAN TANJUNG PUTERI 1 R&F MALL TANJUNG PUTERI",103.768252,1.45984
mynews,convenience_store,myNEWS @ R&R Pagoh (Northbound),"LOT R1, KWS REHAT & RAWAT PAGOH ARAH UTARA, SIMPANG AMPAT PAGOH, LEBUHRAYA UTARA SELATAN",102.7935147,2.122322
mynews,convenience_store,myNEWS (Maru Kafe) @ Segamat Johor ,"SHOPS NO. 23 & 25, GROUND FLOOR JALAN UTAMA 3/1 PUSAT KOMERSIAL SRI UTAMA",102.8229405,2.513235656
mynews,convenience_store,myNEWS (Maru Kafe) @ Setia Tropika JB,"NO. 42 (GF), JALAN SETIA TROPIKA 1/18 TAMAN SETIA TROPIKA JOHOR BAHRU",103.716359,1.547027
mynews,convenience_store,myNEWS (SUPERVALUE) @ Sri Tgh Kluang,"No.10, G Floor Jalan Lada Hitam, Taman Sri Tengah",103.34865,2.05477
mynews,convenience_store,myNEWS @ Taman Daya JB,"NO. 3, BLOCK E PUSAT PERNIAGAAN TAMAN DAYA JALAN DAYA, TAMAN DAYA",103.758494,1.566544
mynews,convenience_store,myNEWS (Maru Kafe) @ Taman Desa Terbrau JB,NO. 37 (GROUND FLOOR) JALAN HARMONIUM 35/1 TAMAN DESA TEBRAU,103.7900358,1.556523938
mynews,convenience_store,myNEWS (Maru Kafe) @ Taman Eco Casadia JB,NO. 23 (GROUND FLOOR) JALAN ECO CASCADIA 6/1 TAMAN ECO CASCADIA,103.7596642,1.583046194
mynews,convenience_store,myNEWS (Maru Kafe) @ Taman Flora Utama Batu Pahat,"36, JALAN FLORA UTAMA 8 TAMAN FLORA UTAMA",102.950041,1.867734
mynews,convenience_store,"myNEWS (SUPERVALUE) @ Taman Impian Emas, Johor",NO 4 & 6 (GROUND FLOOR) JALAN IMPIAN EMAS 4 TAMAN IMPIAN EMAS,"",""
mynews,convenience_store,myNEWS (Maru Kafe) @ Taman Molek JB,"NO. 51, JALAN MOLEK 1/29 TAMAN MOLEK",103.786854,1.525348
mynews,convenience_store,myNEWS @ Taman Mutira Mas ,"NO. 22, GROUND FLOOR, JALAN MUTIARA 1/1, TAMAN MUTIARA MAS",103.8171891,1.5868087
mynews,convenience_store,myNEWS @ Taman Nusa Puncak,"11 (GF), PUNCAK 1 TAMAN NUSA PUNCAK JALAN NUSA PERINDUSTRIAN",103.598207,1.442142
mynews,convenience_store,myNEWS @ Taman Nusantara,"LOT 02-01 (GROUND FLOOR), JALAN NUSARIA 11/6, TAMAN NUSANTARA",103.5840533,1.4596256
mynews,convenience_store,myNEWS (Maru Kafe) @ Taman Sutera Utama Skudai,"NO. 45, JALAN SUTERA TANJUNG 8/3 TAMAN SUTERA UTAMA",103.6679737,1.516546246
mynews,convenience_store,myNEWS (Maru Kafe) @ Tangkak Johor,"NO.7, JALAN MUAR",101.441962,3.064716
mynews,convenience_store,myNEWS (Maru Kafe) @ Teega Puteri Harbour (G Floor),"LOT R-GL-17, GROUND LEVEL, TOWER A TEEGA PUTERI HARBOUR, ISKANDAR PUTERI JALAN LAKSAMANA 1, PUTERI HARBOUR, ISKANDAR PUTERI",103.653335,1.415352
mynews,convenience_store,myNEWS (Maru Kafe) @ Tepian Sungai Mersing,"NO. 60, JALAN SULAIMAN BANDAR TEPIAN SUNGAI",103.836252,2.431717
mynews,convenience_store,myNEWS @ Tesco Bukit Indah (1st Floor) ,"LOT F13, FIRST FLOOR, TESCO BUKIT INDAH, NO. 1, JALAN INDAH 15, BUKIT INDAH,",103.662865,1.481873
mynews,convenience_store,myNEWS @ Tesco Desa Tebrau (1st Floor) ,"LOT F20, TESCO DESA TEBRAU, NO 1, PERSIARAN DESA TEBRAU, TAMAN DESA TEBRAU",103.7935817,1.5478845
mynews,convenience_store,myNEWS @ The Mall Mid Valley Southkey (LG Floor) ,"LG-044, THE MALL MID VALLEY SOUTHKEY NO. 1, PERSIARAN SOUTHKEY 1",103.777443,1.501288
mynews,convenience_store,myNEWS (Maru Kafe) @ Toppen Shopping Central (2nd Floor) ,"L2.66, LEVEL 2 TOPPEN SHOPPING CENTRE TAMAN DESA TEBRAU",103.798371,1.553658
mynews,convenience_store,myNEWS (SUPERVALUE) @ Jalan Sekerat Alor Setar,"NO. 17 & 18 (GF), JALAN SEKERAT (JALAN TENGAH)",100.495034,5.642649
mynews,convenience_store,myNEWS (Maru Kafe) @ Jalan Stadium Kedah,"NO 1959-C (GF), JALAN STADIUM, 05100, ALOR SETAR, KEDAH DARUL AMAN","",""
mynews,convenience_store,myNEWS (Maru Kafe) @ Kedah Medical Center (G Floor),"CONVENIENCE SHOP LOT (GF) KEDAH MEDICAL CENTRE, JLN ANAK BUKIT KAMPUNG PUMPONG",100.369347,6.149005
mynews,convenience_store,myNEWS (Maru Kafe) @ Pantai Hospital Laguna Merbok (G Floor),"PANTAI HOSPITAL LAGUNA MERBOK NO. 1, LORONG BLM 1/10 BANDAR LAGUNA MERBOK",100.494653,5.683294
mynews,convenience_store,myNEWS (Maru Kafe) @ Pantai Hospital Sungai Petani (G Floor),"PANTAI HOSPITAL SUNGAI PETANI - CONVENIENCE SHOP NO. 1, PERSIARAN CEMPAKA, BANDAR AMANJAYA",100.513116,5.672511
mynews,convenience_store,myNEWS (Maru Kafe) @ Pekan Simpang Alor Setar,"NO. 57 (GF), JALAN PSK 1 @ JALAN UTAMA, SIMPANG KUALA PEKAN SIMPANG KUALA",100.364034,6.100528
mynews,convenience_store, myNEWS (Maru Kafe) @ Taman Pekan Baru Sungai Pertani,"NO. 200 (GF), JALAN MAWAR 3/2 TAMAN PEKAN BARU",100.4821933,5.641071116
mynews,convenience_store,myNEWS @ TF Value Mall Sg Petani (G Floor) ,"LOT A16, TF VALUE MART SG PETANI, JALAN LENCONGAN BARAT",100.472606,5.615623
mynews,convenience_store,myNEWS (Maru Kafe) @ Uum Sintok,"Ruangan Perniagaan SEFB, UUM Sintok, Changlun","", 
mynews,convenience_store,myNEWS @ 1 Mont Kiara (LG Floor),"UNIT LG-11, LOWER GROUND FLOOR, ONE MONT KIARA, NO. 1, JALAN KIARA",101.6531723,3.1657103
mynews,convenience_store,myNEWS (Maru Kafe) @ 163 Retail Park (LG Floor),"LG1-18, LOWER GROUND 1 163 RETAIL PARK NO. 8 JALAN KIARA, MONT KIARA",101.652394,3.166772
mynews,convenience_store,myNEWS (Maru Kafe) @ 231TR Serviced Suites (G Floor) ,"LOT G-02, 231TR SERVICED SUITES, JALAN TUN RAZAK",101.7221526,3.1471447
mynews,convenience_store,myNEWS @ AEON Taman Maluri (B2 Floor) ,"LOT B203, AEON TAMAN MALURI SHOPPING CENTRE JALAN JEJAKA TAMAN MALURI CHERAS",101.728666,3.125961
mynews,convenience_store,myNEWS (Maru Kafe) @ AEON Taman Maluri (G Floor),"LOT G01, AEON TAMAN MALURI SHOPPING CENTRE JALAN JEJAKA TAMAN MALURI CHERAS",101.728402,3.126251
mynews,convenience_store,myNEWS (Maru Kafe) @ Aman Walk (G Floor),"UNIT NO. C-0G-01 & C-0B-01, GF & BASEMENT, AMAN WALK, MONT KIARA AMAN, NO. 4 JALAN KIARA 2, MONT KIARA",101.6560029,3.1728028
mynews,convenience_store,myNEWS (Maru Kafe) @ Ara Kiri Lucky Garden,NO. 32 (GROUND FLOOR) PERSIARAN ARA KIRI LUCKY GARDEN,101.6701682,3.128044035
mynews,convenience_store,myNEWS (Maru Kafe) @ Arcoris Plaza (G Floor),"LOT G-3 & G-3A ARCORIS PLAZA JALAN KIARA, MONT KIARA",101.6515129,3.166583896
mynews,convenience_store,myNEWS @ Ascott KL (Lobby Floor),"AREA A & B, LOBBY AREA, ASCOTT KUALA LUMPUR, NO. 9, JALAN PINANG",101.7106996,3.1548153
mynews,convenience_store,myNEWS @ Ativo Plaza (G Floor),"LOT A-G-5, ATIVO PLAZA, BLOCK A, NO. 1, JALAN PJU 9/1, DAMANSARA AVENUE, BANDAR SRI DAMANSARA",101.61276,3.20074
mynews,convenience_store,myNEWS @ Axiata Tower (G Floor) ,"LEVEL 1 (GF), AXIATA TOWER, QUILL 7, NO. 9, JALAN STESEN SENTRAL 5",101.6847996,3.1338794
mynews,convenience_store,myNEWS (Maru Kafe) @ Bandar Sri Permaisuri,"NO. 26, JALAN DWITASIK 2 BANDAR SRI PERMAISURI CHERAS",101.713035,3.1000102
mynews,convenience_store,myNEWS @ Bangsar Shopping Center (LG Floor),"LOT KIOSK 2, LG FLOOR, BANGSAR SHOPPING CENTRE, 285, JALAN MAAROF, BUKIT BANDARAYA",101.6674161,3.1427983
mynews,convenience_store,myNEWS (Maru Kafe) @ Bangunan Plaza PPUM,"RUANG NIAGA DI HENTIAN TEKSI PLAZA, BANGUNAN PLAZA PUSAT PERUBATAN UNIVERSITI MALAYA PPUM (UTARA)","",""
mynews,convenience_store,myNEWS @ Bangsar Village (LG Floor),"LG 12, BANGSAR VILLAGE, NO 1, JALAN TELAWI 1, BANGSAR BARU",101.6707564,3.1296713
mynews,convenience_store,myNEWS @ Binjai 8 Serviced Suite (G Floor) ,"G-02, PANGSAPURI SERVIS (SUITE) BINJAI 8, NO. 2, LORONG BINJAI,",101.717411,3.1588241
mynews,convenience_store,myNEWS @ Block A Plaza Damas (Ground Floor),"BLOCK A-0-18, PLAZA DAMAS 3, NO. 63, JALAN SRI HARTAMAS 1, TAMAN SRI HARTAMAS",101.6560653,3.1628443
mynews,convenience_store,myNEWS (Maru Kafe) @ Block F Plaza Damas (Ground Floor),"F-0-1, BLOCK F, PLAZA DAMAS, NO. 60, JALAN SRI HARTAMAS,",101.656944,3.162584
mynews,convenience_store,myNEWS (Maru Kafe) @ Bukit Bintang,"GROUND FLOOR 140 & 142, JALAN BUKIT BINTANG,",101.7118309,3.1474252
mynews,convenience_store,SUPERVALUE @ Bukit OUG,"LOT 9 & 11, GROUND FLOOR JALAN 6/155 BUKIT OUG INTEGRATED BUSINESS PARK",101.6646759,3.06220587
mynews,convenience_store,myNEWS (Maru Kafe) @ Cap Square KL (G Floor),"UNIT GF.02, LEVEL GROUND, NO. 8, JALAN MUNSHI ABDULLAH,",101.6993237,3.1551978
mynews,convenience_store,myNEWS (Maru Kafe) @ Centrepoint South Mid Valley (Lobby Level),"SUITE 1.01, LOBBY LEVEL CENTREPOINT SOUTH, MID VALLEY CITY LINGKARAN SYED PUTRA",101.676817,3.118186
mynews,convenience_store,myNEWS @ Centrio (G Floor),"LOT 1-6, GROUND FLOOR CENTRIO, NO. 1, JALAN PANTAI MURNI, PANTAI HILLPARK",101.6659579,3.1073792
mynews,convenience_store,SUPERVALUE @ Cheras Business Center (G Floor),"NO. 20-0-7, JALAN 2/101C, CHERAS BUSINESS CENTRE",101.73959,3.09935
mynews,convenience_store,myNEWS @ Cheras Business Centre,"66-G JALAN 5/101C, OFF JALAN KASKAS, JALAN CHERAS",101.7390203,3.0999355
mynews,convenience_store,myNEWS (Maru Kafe) @ Crown Regency Serviced Suites (G Floor),"ISLAND AREA, GF, CROWN REGENCY SERVICED SUITES, NO. 12, JALAN P. RAMLEE",101.708213,3.155059
mynews,convenience_store,myNEWS @ Dataran Jelatek (G Floor) ,"UNIT G-01, GROUND FLOOR, DATARAN JELATEK, JALAN JELATEK",101.7349526,3.1752508
mynews,convenience_store,myNEWS (Maru Kafe) @ DC Mall (G Floor),"LOT G-03A, GF, DC MALL, PLAZA DC, DAMANSARA CITY, 6, JALAN DAMANLELA",101.6615483,3.146673
mynews,convenience_store,myNEWS @ Desa Sri Hartamas,"NO. 68, JALAN 27/70A NO. 68, JALAN 27/70A, DESA SRI HARTAMAS",101.65,3.16342
mynews,convenience_store,SUPERVALUE @ Eco Sky Commercial Building (1st Floor),"UNIT 23A-1, LEVEL 1, ECO SKY COMMERCIAL BUILDING, JALAN IPOH",101.6712321,3.219069886
mynews,convenience_store,myNEWS @ EkoCheras Mall (LG Floor),"M-LG-27, EKOCHERAS MALL NO. 693, BATU 5 JALAN CHERAS",101.738924,3.093042
mynews,convenience_store,myNEWS (Maru Kafe) @ Endah Promenade (G Floor),"A-G-02, ENDAH PROMENADE NO. 5, JALAN 3/149E TAMAN SRI ENDAH, SRI PETALING",101.6969965,3.0637911
mynews,convenience_store,myNEWS @ Etiqa Twins (1st Floor) ,"LOT 1.2, LEVEL 1, ETIQA TWINS, 11, JALAN PINANG",101.7111936,3.1542623
mynews,convenience_store,myNEWS @ Faber Towers (G Floor),"LOT G-OS-6, GF, PODIUM BLOCK, FABER TOWERS, JALAN DESA BAHAGIA, TAMAN DESA",101.6848981,3.1022894
mynews,convenience_store,myNEWS @ Four Seasons Place KL (B1 Floor) ,"LOT B1-20, BASEMENT 1, SHOPPES AT FOUR SEASONS PLACE KUALA LUMPUR FOUR SEASONS PLACE KL, NO. 145, JALAN AMPANG",101.713741,3.157756433
mynews,convenience_store,myNEWS (Maru Kafe) @ Hospital UKM (Lobby Floor),LOT 01 LOBI PELAWAT HOSPITAL CANSELOR TUANKU MUHRIZ (HCTM UKM KAMPUS,101.725337,3.099471
mynews,convenience_store,myNEWS @ HP Tower (G Floor),"LOT G-05, GF, CONNECTING PODIUM, HP TOWER, NO. 12, JALAN GELENGGANG, BUKIT DAMANSARA",101.663855,3.151475
mynews,convenience_store,myNEWS @ Ilham Tower (G Floor) ,"GROUND FLOOR, ILHAM TOWER, NO. 8, JALAN BINJAI",101.7185135,3.159057
mynews,convenience_store,myNEWS @ Institut Jantung Negara (G Floor) ,"LOT NO. 14, GROUND FL INSTITUT JANTUNG NEGARA, 145, JALAN TUN RAZAK",101.7094247,3.1699993
mynews,convenience_store,myNEWS (Maru Kafe) @ Intermark Mall (Concourse),"LOT C-16 & C-17, CONCOURSE LEVEL, INTERMARK MALL, 348, JALAN TUN RAZAK",101.720344,3.164431
mynews,convenience_store,myNEWS @ J. Dupion Residences (G Floor),"LOT 01-05, J. DUPION RESIDENCES JALAN SEMBILANG TAMAN TENAGA",101.726945,3.113656
mynews,convenience_store,myNEWS (Maru Kafe) @ Jalan Aminuddin Baki TTDI,"NO. 165, GROUND FLOOR JALAN AMINUDDIN BAKI TAMAN TUN DR ISMIL",101.622684,3.153563
mynews,convenience_store,myNEWS (Maru Kafe) @ Jalan Solaris 3,NO. 7 (GROUND FLOOR) JALAN SOLARIS 3 SOLARIS MONT KIARA,101.659574,3.174702
mynews,convenience_store,myNEWS @ KL Convention Centre (Concourse),"LOT C14, COUNCOURSE LEVEL, KUALA LUMPUR CONVENTION CENTRE, KUALA LUMPUR CITY CENTRE",101.7131965,3.1536674
mynews,convenience_store,myNEWS (Maru Kafe) @ KL East Mall (LG Floor),"LOT LG-41, LOWER GROUND FLOOR KL EAST MALL, 823 JLN LINGKARAN TENGAH 2 KL TIMUR",101.730372,3.224811
mynews,convenience_store,myNEWS (Maru Kafe) @ KL Eco City Mall (UG Level) ,"LOT UG-16, KL ECO CITY MALL PANTAI BARU, JALAN BANGSAR",101.676049,3.132387
mynews,convenience_store,myNEWS @ KL Ecocity Mall (UG Floor) ,"LOT UG-02, KL ECOCITY MALL PANTAI BARU, JALAN BANGSAR",101.67414,3.116278
mynews,convenience_store,myNEWS @ KL Gateway (LG1 Floor),"LG1-03, PUSAT BELI BELAH KL GATEWAY, NO. 2, JALAN KERINCHI, GERBANG KERINCHI LESTARI",101.6628453,3.1135471
mynews,convenience_store,myNEWS (Maru Kafe) @ KL Gateway (LG2 Floor) ,"LG2-05, PUSAT BELI BELAH KL GATEWAY, NO. 2, JALAN KERINCHI, GERBANG KERINCHI LESTARI",101.6629931,3.113744
mynews,convenience_store,myNEWS @ KL Sentral (1st Floor) (1),"S192, LEVEL 1, KL SENTRAL STATION",101.686385,3.134632
mynews,convenience_store,myNEWS (Maru Kafe) @ KL Sentral (1st Floor) (2),"SPACE NO. 21210, 1211 & 1212, LEVEL 1, KL SENTRAL STATION",101.6859478,3.1343519
mynews,convenience_store,myNEWS (Maru Kafe) @ Komplex Pertama (G Floor),"KIOSK NO. 1, SIARKAKI HADAPAN DI KOMPLEKS PERTAMA JALAN TUANKU ABDUL RAHMAN",101.6968982,3.157511181
mynews,convenience_store,myNEWS @ KTM Abdullah Hukum,"KIOSK 3, PLATFORM 1 STESEN KOMUTER ABDULLAH HUKUM",101.6729,3.1187
mynews,convenience_store,myNEWS (Maru Kafe) @ KTM Bank Negara,SEBAHAGIAN RUANG STESEN KERETAPI BANK NEGARA,101.693165,3.154912
mynews,convenience_store,myNEWS @ KTM Mid Valley ,"STESEN KOMUTER MID VALLEY, LINGKARAN SYED PUTRA",101.6786111,3.1186111
mynews,convenience_store,myNEWS @ Kuchai Enterpreneurs Park,"NO. 26-G FLOOR, JALAN KUCHAI MAJU 11 KUCHAI ENTREPRENEURS PARK",101.6893548,3.0901485
mynews,convenience_store,SUPERVALUE @ Lakeville Residence (G Floor),"G-06, LAKEVILLE RESIDENCE, JALAN SIBU TAMAN WAHYU, MUKIM BATU",101.668798,3.209948
mynews,convenience_store,SUPERVALUE @ Laman Rimbunan Kepong,"NO. 66G & 68G, JALAN RIMBUNAN RAYA LAMAN RIMBUNAN KEPONG",101.6499008,3.2117228
mynews,convenience_store,myNEWS @ LRT Abdullah Hukum,"N1, STESEN LRT ABDULLAH HUKUM, JALAN BANGSAR",101.67291,3.11865
mynews,convenience_store,myNEWS @ LRT Ampang,"S1, STREET LEVEL, STESEN STAR LRT AMPANG, 5, JALAN AMPANG",101.7601652,3.1505907
mynews,convenience_store,myNEWS (Maru Kafe) @ LRT Ampang Park,"AMPANG PARK STATION (UNDERGROUND), JALAN AMPANG",101.7194545,3.1597351
mynews,convenience_store,myNEWS @ LRT Bandar Tun Razak,"BANDAR TUN RAZAK STATION (AMPANG LINE), STESYEN STAR-LRT BDR. TUN RAZAK",101.695674,3.14926
mynews,convenience_store,myNEWS (Maru Kafe) @ LRT Bangsar,"STESEN LRT BANGSAR, LOT 349, JALAN & JALAN BANGSAR, SEKSYEN 96",101.679062,3.127588
mynews,convenience_store,myNEWS @ LRT Cempaka ,"STESEN STAR-LRT CEMPAKA, JALAN PANDAN INDAH 23, PANDAH INDAH, AMPANG",101.7529654,3.1382768
mynews,convenience_store,myNEWS @ LRT Dang Wangi,"DANG WANGI STATION, JALAN AMPANG",101.703,3.1562105
mynews,convenience_store,myNEWS (Maru Kafe) @ LRT Jelatek,"STESEN LRT JELATEK, N2, STESEN LRT JELATEK JALAN JELATEK, AU1",101.73535,3.16734
mynews,convenience_store,myNEWS @ LRT Masjid Jamek,"MASJID JAMEK STATION (AMPANG LINE), STESYEN STAR-LRT MASJID JAMEK JALAN TUN PERAK",101.695642,3.1489493
mynews,convenience_store,myNEWS (Maru Kafe) @ LRT Masjid Jamek,"LOT NO. 4, STESEN LRT MASJID JAMEK, JALAN MELAKA",101.6963272,3.150222632
mynews,convenience_store,myNEWS @ LRT Pasar Seni ,"STATION PASAR SENI, JALAN SULTAN MUHAMED",101.694745,3.14287
mynews,convenience_store,myNEWS @ LRT Plaza Rakyat,"STESEN STAR-LRT PLAZA RAKYAT, BANGUNAN PLAZA RAKYAT, JALAN PUDU",101.70293,3.1446
mynews,convenience_store,myNEWS @ LRT PWTC,"LOT NO. K1, STESEN LRT PWTC, S15, JALAN PUTRA, CHOW KIT",101.6935757,3.1666431
mynews,convenience_store,myNEWS @ LRT Sentul Timur ,"STESYEN LRT SENTUL TIMUR, JALAN 2/48A, BANDAR BARU SENTUL",101.6954291,3.1858835
mynews,convenience_store,myNEWS @ LRT Sri Rampai ,"STESEN LRT SRI RAMPAI, JALAN WANGSA PERDANA 1, WANGSA MAJU",101.737531,3.198869
mynews,convenience_store,myNEWS @ LRT Taman Melati ,"STESEN LRT TAMAN MELATI, LOT 5502, JALAN TUMBUHAN",101.72183,3.21957
mynews,convenience_store,myNEWS @ LRT Wangsa Maju ,"STESEN LRT WANGSA MAJU, JALAN 1/27A",101.73173,3.20583
mynews,convenience_store,myNEWS (Maru Kafe) @ M City Ampang (G Floor),"K-01-G & JK-02-G, M CITY AMPANG, JALAN AMPANG",101.7475801,3.1587687
mynews,convenience_store,myNEWS (Maru Kafe) @ Maxim Alam Damai (G Floor) ,"G-10, MAXIM ALAM DAMAI NO. 43, JALAN 9, TAMAN LEN SENG, CHERAS",101.7423352,3.0760017
mynews,convenience_store,myNEWS @ Maxim Citylights (G Floor) ,"S-G-26, GROUND FLOOR, MAXIM CITYLIGHTS @ SENTUL, JALAN SENTUL PASAR, SENTUL PASAR",101.6897341,3.2077721
mynews,convenience_store,myNEWS @ Medan Niaga Tasik Damai,"NO. 7, GROUND FLOOR, JALAN TASIK UTAMA 3, MEDAN NIAGA TASIK DAMAI, SUNGAI BESI",101.709564,3.060773
mynews,convenience_store,myNEWS (Maru Kafe) @ Megan Avenue 1,"BLOCK B-0-1, MEGAN AVENUE 1 189, JALAN TUN RAZAK",101.716967,3.162111
mynews,convenience_store,myNEWS @ Melawati Mall (LG Floor) ,"LG-02(B), UP2-01, MELAWATI MALL, 355, JALAN BANDAR MELAWATI PUSAT BANDAR MELAWATI",101.748277,3.210537
mynews,convenience_store,myNEWS (Maru Kafe) @ Menara Hlx,"Lot1-02, Level 1, Menara HLX, No.3, Jalan Kia Peng","",""
mynews,convenience_store,myNEWS @ Menara MBF (LG2 Floor) ,"LOT LG2-B, MENARA MBF JALAN SULTAN ISMAIL",101.709079,3.153703
mynews,convenience_store,myNEWS @ Menara Prestige (G Floor) ,"UNIT G-4, GROUND FLOOR, MENARA PRESTIGE, 1, JALAN PINANG",101.7099116,3.1558891
mynews,convenience_store,myNEWS (Maru Kafe) @ Menara Telekom (LG Floor),"SHOP 3, LG 1, MENARA TELEKOM, JALAN PANTAI BARU",101.6656244,3.1160061
mynews,convenience_store,myNEWS @ Menara UAB (G Floor) ,"LOT 1A, GROUND FLOOR, MENARA UAB, NO. 6, JALAN TUN PERAK",101.6956659,3.1505848
mynews,convenience_store,myNEWS (Maru Kafe) @ Mercu Summer Suites (1st Floor),"LOT NO. 1-02, LEVEL 1, MERCU SUMMER SUITES, NO. 8, JALAN CENDANA, OFF JALAN SULTAN ISMAIL",101.7049162,3.1588212
mynews,convenience_store,myNEWS @ Metro Prima (G Floor),"G15, METRO PRIMA SHOPPING CENTRE, JALAN KEPONG, KEPONG",101.6390626,3.2133114
mynews,convenience_store,myNEWS @ Mid-Point Shopping Complex (G Floor),"R.G.07 & S.C.07, MID POINT SHOPPING COMPLEX, JALAN PANDAN INDAH 1/25, PANDAN INDAH",101.7518008,3.132260146
mynews,convenience_store,myNEWS (Maru Kafe) @ Mid Valley Megamall (G Floor),"G(E)-006, GROUND FLOOR, MID VALLEY MEGAMALL, MID VALLEY CITY, LINGKARAN SYED PUTRA",101.677846,3.117376
mynews,convenience_store,myNEWS @ Mid Valley Megamall (LG Floor),"LG065, MID VALEY MEGAMALL, MID VALLEY CITY, LINGKARAN SYED PUTRA",101.677846,3.117402696
mynews,convenience_store,myNEWS @ Midfields Square East ,"B2-8, DATARAN NIAGA SUNGAI BESI, MIDFIELDS SQUARE EAST JALAN 11/108C OFF LEBUHRAYA SUNGAI BESI",101.700789,3.09544
mynews,convenience_store,myNEWS (Maru Kafe) @ M Vertica,"G-07, Ground Floor. Tower A, M Vertica Retial Shop, No.555, Jalan Cheras, ","",""
mynews,convenience_store,myNEWS @ Nexus Bangsar South (G Floor) ,"UNIT G-16B, GROUND FLOOR, NEXUS BANGSAR SOUTH, NO. 7, JALAN KERINCHI",101.6656176,3.1098379
mynews,convenience_store,myNEWS @ NU Sental (LG Floor) ,"LG 34, LOWER GROUND FLOOR, NU SENTAL, JALAN TUN SAMBATHAN",101.687142,3.133081
mynews,convenience_store,myNEWS @ Old Klang Road,"126 (GROUND FLOOR) JALAN MEGA MENDUNG OFF BT 5, JALAN KLANG LAMA",101.673031,3.086194
mynews,convenience_store,myNEWS @ Pacific Express Hotel (G Floor),"NO.G.02, GROUND FLOOR, PACIFIC EXPRESS HOTEL, JALAN HANG KASTUR",101.6957435,3.1466993
mynews,convenience_store,myNEWS (Maru Kafe) @ Pavilion Damansara Heights,"LOT 1.32.00, LEVEL 1 PAVILION DAMANSARA HEIGHTS JALAN BERINGIN", , 
mynews,convenience_store,myNEWS @ Pavillion KL (2M Floor) ,"LOT 2M.08.00 & 2M.09.00, LEVEL 2M, PAVILION KL, 168, JALAN BUKIT BINTANG",101.713448,3.149175
mynews,convenience_store,myNEWS @ Platinum Park (G Floor),"UNIT G-01, RETAIL 2.2, MENARA FELDA, PLATINUM PARK, NO 11, PERSIARAN KLCC",101.7191361,3.1550977
mynews,convenience_store,myNEWS @ Platinum Walk (G Floor),"NO. 36, BLOCK G, PLATINUM WALK, JALAN LANGKAWI, TAMAN DANAU KOTA",101.719749,3.205868
mynews,convenience_store,myNEWS (Maru Kafe) @ Plaza Arkadia (G Floor),B-G-15 PLAZA ARKADIA JALAN INTISARI PERDANA DESA PARK CITY,101.635309,3.186708
mynews,convenience_store,myNEWS (Maru Kafe) @ Plaza KLTS (G Floor),"NO. 39-G, PLAZA KLTS NO. 99, JALAN GOMBAK SETAPAK",101.702246,3.203926
mynews,convenience_store, myNEWS (Maru Kafe) @ Plaza OSK (G Floor) ,"GROUND FLOOR, EXIT AREA PLAZA OSK, JALAN AMPANG",101.717076,3.161181
mynews,convenience_store,myNEWS (Maru Kafe) @ Plaza Pantai (G Floor) ,"LOT NO. D1.18A, GROUND FLOOR PLAZA PANTAI, OFF JALAN PANTAI BARU",101.6677846,3.1154258
mynews,convenience_store,myNEWS @ Plaza Puchong (G Floor) ,"NO. 34 (GF), PLAZA PUCHONG JALAN PUCHONG MESRA 1",101.649875,3.064121
mynews,convenience_store,myNEWS (Maru Kafe) @ Plaza Sentral (G Floor),"1B-G-2, BLOCK 1B, PLAZA SENTRAL, JALAN SENTRAL",101.6842569,3.13161771
mynews,convenience_store,myNEWS (Maru Kafe) @ Prince Court Medical Centre (G Floor) ,"GROUND FLOOR, PRINCE COURT MEDICAL CENTRE, 39, JALAN KIA PENG",101.7218312,3.1489682
mynews,convenience_store,myNEWS @ Publika Shopping Gallery (UG Floor),"LOT NO. 8, LEVEL UG PUBLIKA SHOPPING GALLERY, NO. 1, JALAN DUTAMAS 1, SOLARIS DUTAMAS",101.666192,3.1704279
mynews,convenience_store,myNEWS @ Pudu Sentral (2nd Floor) ,"T2-9, TINGKAT 2, UTCKL @ PUDU SENTRAL, JALAN PUDU,",101.7003518,3.145441169
mynews,convenience_store,myNEWS (Maru Kafe) @ Residence Henge (G Floor),"NO. G-06, RESIDENSI HENGE NO. 9, JALAN METRO PERDANA BARAT TAMAN METROPOLITAN",101.641454,3.221125
mynews,convenience_store,myNEWS @ Residensi Rimbunan (G Floor) ,"G-3A, RESIDENSI RIMBUNAN, NO. 2, JALAN 1/132A, OFF JALAN KLANG LAMA",101.6613173,3.084150974
mynews,convenience_store,myNEWS @ Residensi UTM KL (G Floor) ,"LOT NO. 1-22, GROUND FLOOR, RESIDENSI UTM KL, NO. 8, JALAN MAKTAB",101.7216784,3.1715697
mynews,convenience_store,myNEWS (Maru Kafe) @ Scott Villa Condo (G Floor) ,"33-1-3, SCOTT VILLA CONDO JALAN SCOTT BRICKFIELDS",101.692693,3.134211
mynews,convenience_store,myNEWS (Maru Kafe) @ Season Garden Residences (G Floor),"S-35, GROUND FLOOR SEASON GARDEN RESIDENCES LOT 7, JALAN 1/27E, SEKSYEN 10, WANGSA MAJU",101.7341088,3.18804
mynews,convenience_store,myNEWS (Maru Kafe) @ Sentul Perdana,"NO. 43-0-1, JALAN 1/48A SENTUL PERDANA BANDAR BARU SENTUL",101.697631,3.181622
mynews,convenience_store,myNEWS @ Sime Darby Medical Center Desa Park City (G Floor),"LOT CPGF. 002, GROUND FLOOR, SIME DARBY MEDICAL CENTRE PARKCITY, NO. 2, JALAN INTI SARI PERDANA, DESA PARKCITY",101.6382901,3.1894857
mynews,convenience_store,myNEWS (Maru Kafe) @ Sky Awani Commercial Sentul (G Floor) ,"G-05, SKY AWANI BUSINESS COMMERCIAL, JALAN SENTUL PERDANA",101.690008,3.208881
mynews,convenience_store,myNEWS @ Sogo KL (B1 Floor),"LOT NO. B1-1, BASEMENT 1, SOGO KUALA LUMPUR, 190, JALAN TUANKU ABDUL RAHMAN",101.6953799,3.156181
mynews,convenience_store,myNEWS (Maru Kafe) @ Solaris Dutamas (G Floor) ,"A2-G2-03, SOLARIS DUTAMAS, NO. 1, JALAN DUTAMAS 1",101.6648216,3.1708229
mynews,convenience_store,myNEWS @ Stesen Pasar Seni,"K01, PLATFORM LEVEL STESEN PASAR SENI JALAN SULTAN MUHAMED",101.6956 ,3.1423
mynews,convenience_store,myNEWS @ Sunway Putra (1st Floor) ,"LOT 1-21B, FIRST FLOOR, SUNWAY PUTRA MALL, 100, JALAN PUTRA, CHOW KIT",101.6925705,3.1663873
mynews,convenience_store,myNEWS @ Sunway Velocity Mall (3 Floor) ,"UNIT NO. 3-37, THIRD FLOOR, SUNWAY VELOCITY MALL, 80, JALAN CHERAS, MALURI",101.724497,3.127778
mynews,convenience_store,myNEWS @ Sunway Velocity Mall (B1 Floor) ,"UNIT NO B-20, BASEMENT ONE, SUNWAY VELOCITY MALL, 80, JALAN CHERAS, MALURI",101.724876,3.127078
mynews,convenience_store,SUPERVALUE @ Suria Sungai Besi (LG Floor) ,"A-LG-7, CENTRAL RESIDENCE, SURIA SUNGAI BESI, NO. 366, JALAN SUNGAI BESI",101.7077472,3.1148032
mynews,convenience_store,SUPERVALUE @ Taman Bunga Raya,"5, JALAN MALINJA 2, TAMAN BUNGA RAYA",101.728862,3.212478
mynews,convenience_store,myNEWS (Maru Kafe) @ Taman Connaught,"NO. 4-G, JALAN MENARA GADING 1, TAMAN CONNAUGHT",101.733446,3.080902
mynews,convenience_store,myNEWS @ Taman Segar Cheras,"57 (GROUND FLOOR) JALAN MANIS 3 TAMAN SEGAR, CHERAS",101.743086,3.088317
mynews,convenience_store,myNEWS (Maru Kafe) @ Tengkat Tong Shin,"N0. 33, TENGKAT TONG SHIN KUALA LUMPUR",101.70782,3.146223
mynews,convenience_store,myNEWS (Maru Kafe) @ Terminal Bersepadu Selatan (3rd Floor) ,"LOT L3-5, THIRD FLOOR, TERMINAL BERSEPADU SELATAN, JALAN TERMINAL SELATAN, BANDAR TASIK SELATAN",101.7110353,3.0763807
mynews,convenience_store,myNEWS @ Tesco Extra Cheras ,"LOT 43, TESCO EXTRA CHERAS, NO. 2, JALAN MIDAH 2, TAMAN MIDAH, CHERAS",101.735,3.09929
mynews,convenience_store,myNEWS @ Tesco Extra Selayang (G Floor),"G14, TESCO EXTRA SELAYANG, NO. 1081, JALAN IPOH, MUKIN BATU",101.6737084,3.2026673
mynews,convenience_store,myNEWS @ Tesco Kepong (G Floor) ,"LOT G5, GROUND FLOOR, TESCO KEPONG, NO. 3, JALAN T1/62A, BANDAR MANJALARA, KEPONG",101.6335609,3.193524
mynews,convenience_store,myNEWS @ The Gardens Mall (P1 Floor) ,"LOT P1-K02, K03 & K04, LEVEL P1, THE GARDENS MALL, MID VALLEY CITY, LINGKARAN SYED PUTRA",101.676093,3.118859
mynews,convenience_store,myNEWS (Maru Kafe) @ The Horizon Bangsar South (G Floor) ,"GF, TOWER 7, AVENUE 5, THE HORIZON BANGSAR SOUTH, NO. 8, JALAN KERINCHI",101.6651461,3.1101103
mynews,convenience_store,myNEWS (Maru Kafe) @ The Icon (G Floor) ,"UNIT E-G-2.3, GROUND FLOOR THE ICON, NO. 1, JALAN 1/68F JALAN TUN RAZAK",101.7217779,3.1565085
mynews,convenience_store,myNEWS (Maru Kafe) @ The Palette (G Floor),SHOP 7 THE PALETTE HAB KOMERSIAL DANAU KOTA NO. 8 JALAN LANGKAWI TAMAN DANAU KOTA,101.716609,3.205677
mynews,convenience_store,myNEWS @ The Scott Garden (1st Floor),"1-17, THE SCOTT GARDEN, 289, JALAN KLANG LAMA,",101.6741272,3.0950132
mynews,convenience_store,myNEWS @ The West Side Desa Parkcity (G Floor),"NO. 1, THE WEST SIDE @ DESA PARKCITY JALAN RESIDEN UTAMA DESA PARKCITY",101.6235228,3.1850217
mynews,convenience_store,myNEWS @ Tiara Mutiara 2 (G Floor) ,"G-6, TIARA MUTIARA 2 NO. 141, JALAN PUCHONG",101.6591974,3.0747297
mynews,convenience_store,myNEWS (Maru Kafe) @ Tower 1 RHB Center (6th Floor),"LEVEL 6, TOWER ONE, RHB CENTRE, JALAN TUN RAZAK",101.7221481,3.1440977
mynews,convenience_store,myNEWS @ V Residence 2 (1st Floor),VR2 SHOP NO. 01-03A LINGKARAN SV 3 SUNWAY VELOCITY,101.725027,3.126903
mynews,convenience_store,myNEWS @ V Residence 3 (1st Floor),"V RESIDENCE 3, VR3-01-03A, LINGKARAN SV1, SUNWAY VELOCITY",101.723706,3.1283151
mynews,convenience_store,"myNEWS @ Verve, Shops Mont Kiara (G Floor)","LOT G-06, GROUND FLOOR, VERVE@SHOPS MONT KIARA, NO. 8, JALAN KIARA 5",101.6466476,3.1673696
mynews,convenience_store,myNEWS (Maru Kafe) @ Viva Shopping Mall (LG Floor),"LG-03A-1, LG-03-2 & LG-03A-B LOWER GROUND FLOOR, VIVA SHOPPING MALL NO. 85, JALAN LOKE YEW",101.718612,3.123606
mynews,convenience_store,myNEWS @ Wangsa Walk Mall (G Floor),"LOT G-71 & AG-71, GROUND FLOOR, WANGSA WALK MALL, 9, JALAN WANGSA PERDANA 1, BANDAR WANGSA MAJU",101.74256,3.199345
mynews,convenience_store,myNEWS (Maru Kafe) @ Waterfront Parkcity (G Floor),"LOT NO. GF-25, WATERFONT@PARKCITY, NO 5, PERSIARAN RESIDEN, DESA PARKCITY",101.6272812,3.1869578
mynews,convenience_store,myNEWS (Maru Kafe) @ Wisma Boustead (G Floor),"GROUND FLOOR, WISMA BOUSTEAD, 71, JALAN RAJA CHULAN",101.7086975,3.1500138
mynews,convenience_store,myNEWS @ Wisma Cosway (G Floor) ,"G7 & G8, GROUND FLOOR, WISMA COSWAY, 88, JALAN RAJA CHULAN",101.7120072,3.1510218
mynews,convenience_store,myNEWS @ Wisma UOA Damansara II (G Floor),"SUITE G-3A, GROUND FLOOR, WISMA UOA DAMANSARA II, NO. 6, CHANGKAT SEMANTAN, DAMANSARA HEIGHTS",101.6665041,3.1518233
mynews,convenience_store,myNEWS @ AEON Bandaraya Melaka (G Floor),"LOT G95, AEON BANDARAYA MELAKA SHOPPING CENTRE, NO. 2, JALAN LAGENDA, TAMAN I - LAGGENDA",102.2471274,2.2140801
mynews,convenience_store,myNEWS (Maru Kafe) @ AFamosa Outlet (G Floor),"LOT NO. 13 & 14 F&B, FREEPORT AFAMOSA OUTLET JALAN KAMUS, SIMPANG EMPAT",102.206587,2.444724
mynews,convenience_store,myNEWS (Maru Kafe) @ Bandar Satelit Sebang,"S 5, JALAN BANDAR SATELIT SEBANG 2, SEKSYEN 1, BANDAR SETELIT SEBANG, PULAU SEBANG",102.234786,2.46223
mynews,convenience_store,myNEWS (Maru Kafe) @ Bukit Beruang Melaka,"NO. 758, JALAN EMAS TAMAN KERJASAMA BUKIT BERUANG",102.2721661,2.248315959
mynews,convenience_store,myNEWS @ Dataran Pahlawan Melaka (UG Floor),"LOT NO. G-078, UPPER GROUND FLOOR, DATARAN PAHLAWAN MELAKA MEGAMALL, JALAN MERDEKA",102.252457,2.190383
mynews,convenience_store,myNEWS @ Mahkota Parade (G Floor),"LOT G35, GROUND FLOOR, MAHKOTA PARADE, NO 1, JALAN MERDEKA",102.2492493,2.1885585
mynews,convenience_store,SUPERVALUE @ Malim Jaya Melaka,"G-1, BLOCK 10 (B-10) JALAN RAHMAT 5 TAMAN MALIM JAYA",102.2340523,2.240516184
mynews,convenience_store,myNEWS @ Melaka Raya,"9 & 9A, JALAN MERDEKA MELAKA RAYA",102.258298,2.186727
mynews,convenience_store,myNEWS @ Melaka Sentral (G Floor),"70, MELAKA SENTRAL, JALAN TUN ABDUL RAZAK,",102.250115,2.221756
mynews,convenience_store,myNEWS (Maru Kafe) @ MMU Melaka,"Mxmr 006, Ground Floor, Plaza Siswa Building Multi Media University, Jalan Ayer Keroh Lama","",""
mynews,convenience_store,myNEWS (Maru Kafe) @ Pantai Hospital Melaka,"ANCHOR TENANT, BLOCK D, GF MULTI LEVEL PARKING, PANTAI HOSPITAL AYER KEROH",102.28726,2.23797
mynews,convenience_store,myNEWS (Maru Kafe) @ PLUS Ayer Keroh Overhead Bridge Restaurant ,"LOT C4, AYER KEROH OVERHEAD BRIDGE RESTAURANT NORTH-SOUTH EXPRESSWAY (NSE)",102.22163,2.39821
mynews,convenience_store,myNEWS @ PLUS R&R Ayer Keroh (Sourthbound),"LOT NO. AKHSB-C17, 18, 19, KM 210 LEBUHRAYA SIMPANG AMPAT-PAGOH KAWASAN REHAT DAN RAWAT AYER KEROH (ARAH SELATAN)",102.2215,2.3618
mynews,convenience_store,myNEWS (Maru Kafe) @ Taman Paya Rumput Utama Melaka,NO. 49 & 49-1 JALAN INANG 3 TAMAN PAYA RUMPUT UTAMA,102.216172,2.281672
mynews,convenience_store,myNEWS @ AEON Seremban 2 (1st Floor),"LOT F42, AEON SEREMBAN 2 SHOPPING CENTRE, 112, PERSIARAN S2 B1, SEREMBAN 2",101.911708,2.700542
mynews,convenience_store,myNEWS (Maru Kafe) @ Bandar Enstek,"NO. 11, JALAN TIMUR 6/1A TIMUR@ ENSTEK BANDAR ENSTEK",101.764303,2.747662
mynews,convenience_store,"SUPERVALUE @ Bandar Spring Hill, Port Dickson","E9-1 SHOP-PT702 GROUND FLOOR NO. 37G, JALAN SPRINGHILL, BANDAR SPRINGHILL","",""
mynews,convenience_store,myNEWS (Maru Kafe) @ Gerbang Seremban (G Floor) ,"NO. 2A, GROUND FLOOR, GERBANG SEREMBAN OFF JALAN SUNGAI UJONG,",101.919793,2.718091
mynews,convenience_store,myNEWS (Maru Kafe) @ KPJ Seremban Specialist Hospital (G Floor) ,"GROUND FLOOR, KPJ SEREMBAN SPECIALIST HOSPITAL, LOT 6129 & 6220, JALAN TOMAN 1, KEMAYAN SQUARE",101.921826,2.71875
mynews,convenience_store,myNEWS @ Mesa Nilal (G Floor) ,"G19A, PUSAT MEMBELI BELAH MESA, PUSAT PERNIAGAAN & RESIDENSI MESA, PERSIARAN ILMU PUTRA NILAI",101.7782858,2.824414236
mynews,convenience_store, myNEWS (Maru Kafe) @ Persiaran Pusat Bandar Putra Point ,"G02, GROUND FLOOR NO 2, PERSIARAN PUSAT BANDAR PUTRA POINT, PUTRA NILAI",101.790774,2.817654
mynews,convenience_store, myNEWS (Maru Kafe) @ Pusat Perniagaan Bunga Raya Mantin,"NO. 2 (GF), JALAN PUSAT PERNIAGAAN BUNGA RAYA 1 PUSAT PERNIAGAAN BUNGA RAYA MANTIN",101.894238,2.823389
mynews,convenience_store,myNEWS (Maru Kafe) @ Senawang 4 Seremban,"81G, JALAN TAMAN KOMERSIAL SENAWANG 4 TAMAN KOMERSIAL SENAWANG",101.9868881,2.704073358
mynews,convenience_store,myNEWS (Maru Kafe) @ Seremban 2,"NO. 218, GROUND FLOOR, JALAN S2 B10 UPTOWN AVENUE, SEREMBAN 2",101.910902,2.694738
mynews,convenience_store,myNEWS (Maru Kafe) @ Barrington Square,"G-19(GF), BARRINGTON SQUARE, JALAN GOLDEN HILLS 1, CAMERON GOLDEN HILLS",101.372517,4.4881
mynews,convenience_store,myNEWS (Maru Kafe) @ Cameron Fair (G Floor),"C-G-001 & C-G-003A CAMERON FAIR, JALAN CAMELIA TANAH RATA",101.375761,4.469921
mynews,convenience_store,myNEWS (Maru Kafe) @ Cameron Square (G Floor),"LOT G-05, CAMERON SQUARE JALAN ARANDA NOVA, GREENCOW",101.407951,4.508408
mynews,convenience_store,myNEWS @ First World Hotel (1st Floor),"LOT NO 1.8, LEVEL 1, FIRST WORLD HOTEL",101.7925377,3.4235245
mynews,convenience_store,myNEWS (Maru Kafe) @ Ion Delemen (G Floor),"LOT 7C, GROUND FLOOR, TOWER 7, JALAN ION DELEMEN 1, GENTING HIGHLANDS",101.7873906,3.4343385
mynews,convenience_store,myNEWS (Maru Kafe) @ IPOH GARDEN,"63, JALAN LAU PAK KHUAN, IPOH GARDEN",101.116,4.6088
mynews,convenience_store,myNEWS @ AEON Ipoh Klebang (G Floor) ,"LOT G-43, GROUND FLOOR, AEON MALL IPOH KLEBANG, LOT 12080, KLEBANG PERDANA",101.1228546,4.67749
mynews,convenience_store,myNEWS @ AEON Ipoh Station 18 (G Floor),"LOT GF 06, AEON IPOH STATION 18 SHOPPING CENTRE, NO.2, SUSURAN STESEN 18, STESEN 18",101.0702045,4.54608
mynews,convenience_store,myNEWS (Maru Kafe) @ AEON Kinta City (G Floor),G-39 GROUND FLOOR AEON KINTA CITY SHOPPING CENTRE JALAN TEH LEAN SWEE OFF JALAN SULTAN AZLAN SHAH BANDAR BARU MEDAN IPOH,101.118949,4.614198
mynews,convenience_store,myNEWS @ AEON Sri Manjung (G Floor),"LOT G06, GF, AEON SRI MANJUNG SHOPPING CETER, PUSAT PERNIAGAAN MANJUNG POINT 3",100.671163,4.219851
mynews,convenience_store,myNEWS @ AEON Taiping (G Floor),"LOT G21, GROUND FLOOR, AEON MALL TAIPING, LOT 8576 & 8577, JALAN KAMUNTING",100.7285192,4.8727001
mynews,convenience_store,myNEWS (Maru Kafe) @ Bandar Baru Kampar,"NO.2354, JALAN HALA TIMAH 3, TAMAN BANDAR BARU",101.143569,4.328851
mynews,convenience_store,myNEWS (SUPERVALUE) @ Bidor Business Centre,"NO. 1, GROUND FLOOR, JALAN BIDOR DMAJU BIDOR BUSINESS CENTRE",101.2861943,4.113194027
mynews,convenience_store,"myNEWS (Maru Kafe) @ Greentown Nova, Ipoh","No 1, Jalan Greentown 3, Greentown Nova","",""
mynews,convenience_store,"myNEWS (SUPERVALUE) @ Jalan Chung Thye Phin, Taiping",NO. 226 (GF) & 228 (GF) JALAN CHUNG THYE PHIN,"",""
mynews,convenience_store,"myNEWS (SUPERVALUE) @ Klebang Restu, Chemor","NO. 76 (GF), LALUAN KLEBANG RESTU 2 MEDAN KLEBANG RESTU","",""
mynews,convenience_store,SUPERVALUE @ Manhattan Condominium Ipoh,"30, Jalan Pengkalan Putra 1, Pusat Perniagaan Pengkalan Putra (Manhattan Business Center), Jalan Pasir Puteh",101.0432,4.3309
mynews,convenience_store,myNEWS (Maru Kafe) @ Pasir Putih Ipoh,"555, JALAN PASIR PUTEH, TAMAN CAMAY",101.080778,5.476207
mynews,convenience_store,myNEWS (Maru Kafe) @ Persiaran Gunung Rapat Ipoh,"294, JALAN RAJA DR NAZRIN SHAH",101.1133665,4.569726526
mynews,convenience_store,myNEWS (Maru Kafe) @ Petron Simpang Pulai,"PETRON SIMPANG PULAI LOT 336262, TAMAN PULAI JAYA JALAN PULAI-LAHAT","",""
mynews,convenience_store,myNEWS (Maru Kafe) @ PLUS R&R Tapah (Southbound) ,"TPHSB CL17, KAWASAN REHAT DAN RAWAT TAPAH (ARAH SELATAN) KM 331.6 LEBUHRAYA IPOH - BIDOR ",101.288341,4.217826
mynews,convenience_store,myNEWS (Maru Kafe) @ Taman Ipoh Timur,"33, JALAN PERAJURIT TAMAN IPOH TIMUR",101.125218,4.615081
mynews,convenience_store,myNEWS (Maru Kafe) @ Taman Jubilee Ipoh,"63, JALAN YAU TET SHIN TAMAN JUBILEE",101.084542,4.594126107
mynews,convenience_store,myNEWS (Maru Kafe) @ Taman Menglembu Perak,"75, JALAN BESAR, TAMAN MENGLEMBU",101.0451611,4.564499177
mynews,convenience_store,"myNEWS (Maru Kafe) @ Taman Ros, Teluk Intan Perak ","NO. 22 (GF), JALAN SULTAN ABDULLAH, TAMAN ROS",101.01926538748198,4.004086350929254
mynews,convenience_store,"myNEWS (SUPERVALUE)@ Taman Seri Dermawan, Perak","82, 84 & 86 (GF) Jalan Bercham, Taman Sri Dermawan",101.0752,4.3851
mynews,convenience_store,myNEWS (Maru Kafe) @ Taman Shatin Baru Ipoh,"133, JALAN PENGKALAN BART TAMAN SHATIN BARU",101.0749371,4.554977342
mynews,convenience_store,myNEWS @ Tesco Extra Ipoh (G Floor) ,"LOT G22, GROUND FLOOR, TESCO EXTRA IPOH, NO 2, LALUAN TASEK TIMUR 6, OFF JALAN KG BERCHAM, TAMAN TASEK INDRA",101.1173775,4.6266809
mynews,convenience_store,myNEWS @ Tesco Kampar (G Floor),"G01, TESCO KAMPAR, JALAN KAMPAR, TAMAN KAMPAR PERDANA",101.1538988,4.3353572
mynews,convenience_store,myNEWS @ AEON Bukit Mertajam (G Floor) ,"LOT G51, GROUND FLOOR, AEON BUKIT MERTAJAM, JALAN ROZHAN ALMA, SEBERANG PRAI TENGAH,",100.4779465,5.3203009
mynews,convenience_store,myNEWS @ Aroma Hotel (G Floor),"LOT 1, AROMA HOTEL, NO. 11 BUTTERWORTH BUSINESS CITY CENTRE JALAN RAJA UDA",100.3815011,5.4160528
mynews,convenience_store,myNEWS @ Gurney Paragon (LG Floor) ,"163D-LG-24, LOWER GROUND, GURNEY PARAGON MALL, PERSIARAN GURNEY",100.310813,5.435351
mynews,convenience_store,myNEWS (Maru Kafe) @ Icon City Bukit Mertajam,"63, JALAN ICON CITY, ICON CITY",100.4328718,5.34211758
mynews,convenience_store,myNEWS @ Jalan Magazine Georgetown,"NO. 193, JALAN MAGAZINE",100.3296345,5.4135206
mynews,convenience_store,myNEWS @ Jalan Tengah Bayan Baru ,"82, JALAN TENGAH BAYAN BARU",100.2842662,5.314612593
mynews,convenience_store,myNEWS (Maru Kafe) @ Lintang Angsana,"NO.42A (GF), LINTANG ANGSANA",100.282235,5.388887
mynews,convenience_store,myNEWS @ Mansion One (G Floor),"57-G-2, MANSION ONE, JALAN SULTAN AHMAD SHAH,",100.320524,5.427404
mynews,convenience_store,myNEWS @ Maritime Karpal Singh Drive (G Floor),"LOT 29C-2-5, MARITIME, PERSIARAN KARPAL SINGH",100.3304965,5.39797433
mynews,convenience_store,myNEWS (Maru Kafe) @ Pengkalan Weld (G Floor),NO. 49-J (GF) PENGKALAN WELD,100.338946,5.413023
mynews,convenience_store,myNEWS @ Setia SPICE Canopy (G Floor),NO. 108-B-01-12A SETIA SPICE CANOPY JALAN TUN DR AWANG,100.278877,5.329011
mynews,convenience_store,myNEWS (Maru Kafe) @ Sungai Bakap Penang ,"NO1518 (GF), JALAN BESAR",100.49787,5.218707
mynews,convenience_store,myNEWS (Maru Kafe) @ Suntech Cybercity (G Floor) ,"1-G-3A, SUNTECH@PENANG CYBERCITY LINTANG MAYANG PASIR 3",100.286172,5.325615
mynews,convenience_store,myNEWS (SUPERVALUE) @ Taman Camar Jaya,"NO 42A (GF), JALAN BUKIT PANCHOR TAMAN CAMAR JAYA","",""
mynews,convenience_store,"myNEWS (SUPERVALUE) @ Taman Merak, Simpang Ampat","No. 2 & 4 (GF), Jalan Pahboi, Taman Merak","",""
mynews,convenience_store,myNEWS @ Taman Prominence ,"NO. G-12, KONDOMINIUM PROMINENCE LORONG PERDA UTAMA 3 TAMAN PROMINENCE",100.4275135,5.365517712
mynews,convenience_store,myNEWS (Maru Kafe) @ Tanjung Point (G Floor),"LOT 7, GROUND FLOOR TANJUNG POINT, JALAN TANJUNG TOKONG TANJUNG TOKONG",100.303405,5.463244
mynews,convenience_store,myNEWS @ Tesco Tanjung Ping (G Floor) ,"LOT NO. G18 & G19, GF, TESCO TANJUNG PINANG NO. 1, JALAN SERI TANJUNG PINANG",100.3087485,5.4589372
mynews,convenience_store,"myNEWS (Maru Kafe) @ The Latitude, Tanjung Bungah ","UNIT 2-1-9, 2-1-10 & 2-1-11, PERSIARAN HALIA 3, THE LATITUDE","", 
mynews,convenience_store,myNEWS @ Udini Square (B1 Floor),"2-B1-02, UDINI SQUARE, NO. 2, LEBUH TUNKU KUDIN 3",100.3141407,5.3782648
mynews,convenience_store,myNEWS (Maru Kafe) @ University Heights,"NO.75-G-13 (GF), UNIVERSITY HEIGHTS, JALAN SG. DUA",100.302004,5.353047
mynews,convenience_store,myNEWS (Maru Kafe) @ IOI 2,"GE-208, GROUND FLOOR IOI CITY MALL 2, LEBUH IRC IOI RESORT CITY", , 
mynews,convenience_store,myNEWS (Maru Kafe) @ Menara Shaftbury (G Floor),"LOT G-17A, MENARA SHAFTBURY JALAN ALAMANDA, PRESINT 1",101.713345,2.939061
mynews,convenience_store,myNEWS @ AEON Kuching Central (G Floor) ,"G46 & G47, AEON MALL KUCHING CENTRAL, NO.88 JALAN DATUK PATINGGI HAJI AHMAD ZAIDI ADRUCE",110.3372789,1.5277742
mynews,convenience_store,myNEWS @ The Spring (Basement Floor),"B07 & B08, BF, THE SPRING SHOPPING MALL, JALAN SIMPANG TIGA",110.3580636,1.5358535
mynews,convenience_store,myNEWS (Maru Kafe) @ Menara KPMG (G Floor) ,"LOT G 03.1, GROUND FLOOR, MENARA KPMG, 8 FIRST AVENUE, BANDAR UTAMA",101.61712,3.1464429
mynews,convenience_store,myNEWS (Maru Kafe) @ 1 Utama (2nd Floor) ,"LOT S119, LEVEL 2, ONE UTAMA SHOPPING CENTRE, BANDAR UTAMA",101.6154028,3.1507602
mynews,convenience_store,myNEWS (Maru Kafe) @ Paradigm Mall (Basement Floor),"B8 & B9, ONE UTAMA SHOPPING CENTRE, BANDAR UTAMA",101.6154028,3.1507602
mynews,convenience_store,myNEWS @ One Utama Shopping Centre (LG Floor),"LG 120, ONE UTAMA SHOPPING CENTRE, BANDAR UTAMA",101.6154028,3.1507602
mynews,convenience_store,myNEWS @ 1 Utama (LG Floor) (2),"LG 317, ONE UTAMA SHOPPING CENTRE, BANDAR UTAMA",101.615069,3.151426362
mynews,convenience_store,myNEWS (Maru Kafe) @ 3 TWO Square,"UNIT C-11-1, GROUND FLOOR 3 TWO SQUARE NO. 2, JALAN 19/1",101.631979,3.111352
mynews,convenience_store,myNEWS @ AEON Anggun Rawang (G Floor),"G 43, KOMPLEKS BELI BELAH AEON ANGGUN RAWANG, NO. 1, PERSIARAN ANGGUN, TAMAN ANGGUN",101.5364743,3.3166566
mynews,convenience_store,myNEWS @ AEON Bukit Tinggi (G Floor) ,"LOT G03, AEON BUKIT TINGGI SHOPPING CENTRE, NO 1, PERSIARAN BATU NILAM, 1/KS6, BANDAR BUKIT TINGGI 2",101.444148,2.994566
mynews,convenience_store,myNEWS @ AEON Cheras Selatan (G Floor) ,"LOT G45, GROUND FLOOR, AEON CHERAS SELATAN, ARAS SATURDAYU, LEBUH TUN HUSSIEN ONN",101.765066,3.033169
mynews,convenience_store,myNEWS @ AEON Shah Alam (G Floor) ,"LOT G57, AEON MALL SHAH ALAM, NO. 1, JALAN AKUATIK 13/64, SEKSYEN 13",101.5479076,3.0765271
mynews,convenience_store,myNEWS (Maru Kafe) @ Alam Sanjung (G Floor),"G-12, ALAM SANJUNG, NO. 2 JALAN BUDIMAN 22/3 SEKSYEN 22",101.553809,3.06835
mynews,convenience_store,myNEWS @ Alamanda Putrajaya (LG Floor) ,"LOT LG 69, LOWER GROUND FLOOR, ALAMANDA PUTRAJAYA SHOPPING CENTRE, JALAN ALAMANDA, PRECINCT 1",101.710614,2.939968
mynews,convenience_store,myNEWS (Maru Kafe) @ Amcorp Mall (G Floor),"LOT G-29, AMCORP MALL 18 JALAN PERSIARAN BARAT, PJS 52",101.646638,3.104671
mynews,convenience_store,myNEWS (Maru Kafe) @ Ara Damansara Medical Centre,"Rotunda, Ground Floor, Ara Damansara Ctr Lot 2, Jalan Lapangan Terbang Subang Seksyen U2","",""
mynews,convenience_store,myNEWS (Maru Kafe) @ Ardence Labs (3rd Floor),"L3A-1, ARDENCE LABS PERSIARAN SETIA ALAM ECO ARDENCE",101.480739,3.095408
mynews,convenience_store,myNEWS @ Atria Shopping Gallery (Concourse),"C13A, CONCOURSE FLOOR, ATRIA SHOPPING GALLERY, JALAN SS22/23, DAMANSARA JAYA,",101.616584,3.127175
mynews,convenience_store,myNEWS @ Aurora Residence (G Floor),"A-G-3, GROUND FLOOR AURORA RESIDENCE LAKE SIDE CITY",101.598954,2.995601
mynews,convenience_store,myNEWS (Maru Kafe) @ Axis Business Park,"Ground Floor, Block C of Axis Business Park No.10, Jalan Bersatu 13/4 Petaling Jaya","", 
mynews,convenience_store,myNEWS @ Balakong,"NO. 5-G, JALAN SIMFONI 1 BALAKONG",101.751897,3.026398
mynews,convenience_store,myNEWS (Maru Kafe) @ Bandar Baru Selayang,NO. 39 (GROUND FLOOR) JALAN 2/16 BANDAR BARU SELAYANG,101.6691709,3.243498466
mynews,convenience_store,myNEWS @ Bandar Mahkota Cheras (G Floor),"NO. 53, JALAN TEMENGGONG 21/9, BANDAR MAHKOTA CHERAS",101.7883303,3.0541311
mynews,convenience_store,myNEWS (Maru Kafe) @ Bandar Puching Jaya,"12, JALAN KENARI 5 BANDAR PUCHONG JAYA",101.6214482,3.0475348
mynews,convenience_store,myNEWS @ Bandar Puteri Puchong,"G-12, JALAN PUTERI 4/9, BANDAR PUTERI",101.61301,3.016001
mynews,convenience_store,myNEWS (Maru Kafe) @ Bandar Seri Putra,"NO. 16 (GF), JALAN SERI PUTRA 1/4 BANDAR SERI PUTRA",101.79056,2.885419
mynews,convenience_store,myNEWS (Maru Kafe) @ Bandar Sg Long,"NO. 35 (GROUND FLOOR) JALAN SL 1/3, BANDAR SG LONG",101.793218,3.039605
mynews,convenience_store,myNEWS @ Bangi Avenue (G Floor),"36, JALAN BANGI AVENUE 1/8, TAMAN BANGI AVENUE",101.7919972,2.900615
mynews,convenience_store,myNEWS @ Bangi Gateway (Basement Floor) ,"BASEMENT K-1, BANGI GATEWAY, PERSIARAN PEKELILING, SEKSYEN 15",101.7654663,2.9328002
mynews,convenience_store,myNEWS @ Centerpoint (G Floor),"LOT G30, GROUND FLOOR CENTREPOINT, NO. 3, LEBUH BANDAR UTAMA, BANDAR UTAMA,",101.611079,3.141007
mynews,convenience_store,myNEWS (Maru Kafe) @ CentralWalk i-City (G Floor),"NO. B-UG-07 UPPER GROUND FLOOR LEVEL I-SUITE, CENTRALWALK",101.481588,3.065109
mynews,convenience_store,myNEWS (Maru Kafe) @ Centro Mall (G Floor),"G110, GROUND FLOOR, CENTRO MALL, NO 8, JALAN BATU TIGA LAMA",101.462752,3.052845
mynews,convenience_store,myNEWS (Maru Kafe) @ Cova Square Kota Damansara (G Floor) ,"NO. 15, GROUND FLOOR COVA SQUARE KOTA DAMANSARA",101.5766654,3.146668322
mynews,convenience_store,myNEWS @ Da Men Mall (LG Floor) ,"LOT NO. LG-08, LOWER GROUND FLOOR, DAMEN USJ 1, PERSIARAN KEWAJIPAN, USJ 1",101.592361,3.058457
mynews,convenience_store,myNEWS (Maru Kafe) @ Dataran C180 ,"A-12-G, JALAN C180/1, DATARAN C180,",101.7661684,3.0351781
mynews,convenience_store,myNEWS @ Dataran Sunway,"NO. 30-1, JALAN PJU 5/8, DATARAN SUNWAY, KOTA DAMANSARA,",101.5935789,3.1500825
mynews,convenience_store,myNEWS (Maru Kafe) @ Denai Alam Shah Alam,"NO. 27-G, JALAN ELEKTRON D U16/D DENAI ALAM",101.512496,3.163124
mynews,convenience_store,myNEWS @ DPULZE (P1 Floor),"P-03A, DPULZE, LINGKARAN CYBER POINT TIMUR CYBER 12",101.6509366,2.9225023
mynews,convenience_store,myNEWS (SUPERVALUE) @ Eco Majestic Semenyih,"NO. 2-1, JALAN ECO MAJESTIC 10/1B, ECO MAJESTIC","",""
mynews,convenience_store,myNEWS (Maru Kafe) @ Elements Persiara Putra Permai (G Floor),"06-G, 3 ELEMENTS PERSIARAN PUTRA PERMAI SELESA PUSAT BANDAR PUTRA PERMAI",101.667383,2.983026
mynews,convenience_store,myNEWS (Maru Kafe) @ Empire Damansara (G Floor),"NO. G09, HERITAGE LANE, EMPIRE DAMANSARA, JALAN PJU 8/8A DAMANSARA PERDANA",101.611928,3.16665
mynews,convenience_store,myNEWS @ Empire Shopping Gallery (B1 Floor),"LOT P01, EMPIRE SHOPPING GALLERY, JALAN SS16/1, SS16",101.583019,3.081712
mynews,convenience_store,myNEWS @ Evolve Concept Mall (G Floor) ,"LOT EV-G-24, GROUND FLOOR, EVOLVE CONCEPT MALL, JALAN PJU 1A/4, ARA DAMANSARA",101.5867705,3.110669
mynews,convenience_store,myNEWS @ Fortune Perdana (G Floor) ,"NO. G-6, FORTUNE PERDANA NO. 1 JLN METRO PERDANA BARAT KEPONG TAMAN USAHAWAN KEPONG",101.644077,3.21792
mynews,convenience_store,myNEWS @ Gamuda Walk (G Floor) ,"LOT G-23, GROUND FLOOR, GAMUDA WALK, 45, JALAN ANGGERIK VANILLA, KOTA KEMUNING, SEKSYEN 21",101.53376,3.000726
mynews,convenience_store,myNEWS (Maru Kafe) @ Gateway KLIA2 (2nd Floor),"L2-6, LEVEL 2, GATEWAY@KLIA2, TERMINAL KLIA2, KL INTERNATIONAL AIRPORT, JALAN KLIA 2/1 ,",101.685228,2.743258131
mynews,convenience_store,myNEWS @ Giant Batu Caves (Basement Floor),"B28, GIANT HYPERMARKET BATU CAVES, LOT 10243, BATU CAVES, BANDAR SELAYANG, DAERAH GOMBAK,",101.694167,3.235426
mynews,convenience_store,myNEWS @ Giant Hypermarket Kinrara (G Floor) ,"LOT G3, GIANT HYPERMARKET KINRARA, LOT 449, JALAN BK5A/1, BANDAR KINRARA",101.646127,3.050333
mynews,convenience_store,myNEWS @ Giant Kota Damansara (1st Floor),"F-48, GIANT HYPERMARKET KOTA DAMANSARA, NO. 16, JALAN PJU 5/1, KOTA DAMANSARA PJU 5",101.5967674,3.1561288
mynews,convenience_store,myNEWS (Maru Kafe) @ GM Klang Wholesale City (G Floor) ,"UNIT A-G-12, GROUND FLOOR, BLOCK A, GM KLANG WHOLESALE CITY, JALAN KASUARINA 1, BANDAR BOTANIC CAPITAL",101.4509394,2.9909486
mynews,convenience_store,myNEWS (Maru Kafe) @GSC 1 Utama,"EK-5, Lot EZ402A, 4th Floor, One Utama Shopping Centre, Bandar Utama","",""
mynews,convenience_store,myNEWS @ H20 Residences (G Floor),"G-03A, GROUND FLOOR BLOCK D, H2O RESIDENCES @ ARA DAMANSARA NO. 1, JALAN PJU 1A/3",101.577039,3.116208
mynews,convenience_store,myNEWS (Maru Kafe) @ Hillpark Residence (G Floor),"G-1 (GF), HILLPARK RESIDENCE JALAN 1/2, BANDAR TEKNOLOGI KAJANG",101.8273009,2.970839458
mynews,convenience_store,myNEWS @ I Residence Shop (G Floor) ,"LOT G-9, I RESID, I RESIDENCE SHOP, PERSIARAN SURIAN, KOTA DAMANSARA",101.582329,3.150602
mynews,convenience_store,myNEWS @ IOI City Mall (B3 Floor),"LOT B3-1 & 2, BASEMENT 3, IOI CITY MALL LEBUH IRC, IOI RESORT CITY",101.7133055,2.9703556
mynews,convenience_store,myNEWS @ IOI City Mall (LG Floor),"LOT LG 24, LOWER GROUND FLOOR, IOI CITY MALL, LEBUH IRC, IOI RESORT CITY",101.7133055,2.9703556
mynews,convenience_store,myNEWS @ IOI Puchong Mall (G Floor) (1) ,"LOT EG11B, GROUND FLOOR, IOI PUCHONG MALL, 9, JALAN PUCHONG, BANDAR PUCHONG JAYA",101.618449,3.045361
mynews,convenience_store,myNEWS @ IOI Puchong Mall (G Floor) (2) ,"LOT G00B8A, GROUND FLOOR, IOI PUCHONG MALL, 9, JALAN PUCHONG, BANDAR PUCHONG JAYA",101.6182253,3.0456191
mynews,convenience_store,myNEWS (Maru Kafe) @ IOI Resort City (G Floor),"A-G-07 CONEZION PERSIARAN IRC 3 IOI RESORT CITY, PUTRAJAYA",101.7206328,2.9655122
mynews,convenience_store,myNEWS @ Jalan Rodat Bandar Bukit Raja,NO. 3 (GROUND FLOOR) JALAN RODAT 2/KU2 BANDAR BUKIT RAJA,101.442409,3.087052
mynews,convenience_store,myNEWS @ J-Avenue Cheras,"NO. 23A, JALAN J-AVENUE, J-AVENUE,",101.7644004,3.0339899
mynews,convenience_store,myNEWS (Maru Kafe) @ Jaya One (G Floor),"D-57-G, THE SUITE, BLOCK D, JAYA ONE, JALAN UNIVERSITI",101.635416,3.118731
mynews,convenience_store,myNEWS (Maru Kafe) @ KL Esplanade,"G008, Ground Floor, KL Esplanade Mall, Bandar Bestari",,
mynews,convenience_store,myNEWS (Maru Kafe) @ KLIA 2 Gate L,"LOT NO. S3-2-A11, TERMINAL KLIA2, JALAN KLIA2",,
mynews,convenience_store,myNEWS (Maru Kafe) @ Koi Kinrara (G Floor),"SHOP 5-1, GROUND FLOOR NO. 8, KOI KINRARA JALAN PIPIT, BNUKIT TANDANG",101.622643,3.071698
mynews,convenience_store,SUPERVALUE @ Koi Prima (G Floor),"B-L1-10, BLOCK B, KOI PRIMA SUITE JALAN PINGGIRAN MAS TAMAN MAS LANGAT",101.576648,2.975755
mynews,convenience_store,myNEWS (Maru Kafe) @ KPJ Rawang,"Ground Floor (GF), KPJ Rawang","",""
mynews,convenience_store,myNEWS (Maru Kafe) @ KPJ Selangor Specialist Hospital (G Floor),"KPJ SELANGOR SPECIALIST HOSPITAL SHOP LOT ON GROUND FLOOR OF INPATIENT BLOCK LOT 1, JALAN SINGA 20/1, SEKSYEN 20",101.5417504,3.061309215
mynews,convenience_store,myNEWS @ KWSP Damansara Fairway (G Floor) ,"LOT NO. G.02, GF, BANGUNAN KWSP@DAMANSARA FAIRWAY, 6A, PERSIARAN TROPICANA, TROPICANA GOLF & COUNTRY RESORT",101.5952683,3.1299483
mynews,convenience_store,myNEWS @ Landmark Residence 2 (G Floor),"B-1-10, LANDMARK RESIDENCE 2, JALAN LANDMARK RESIDENCES",101.773031,3.035806
mynews,convenience_store,myNEWS (Maru Kafe) @ Leisure Square Commerce Square,"B3-103 (GF) LEISURE COMMERCE SQUARE JALAN PJS 8/9, BANDAR SUNWAY",101.6127006,3.081866124
mynews,convenience_store,myNEWS @ LRT Alam Megah,"LOT C02 & C03, CONCOURSE LEVEL OF LRT ALAM MEGAH STATION, KAWASAN JLN BERANANG 27/14A DAN TMN BUNGA NEGARA SEC 27 ALAM MEGAH",101.572087,3.023161
mynews,convenience_store,myNEWS @ LRT Ara Damansara ,"C02 & C03, STESEN LRT ARA DAMANSARA, 1017, JALAN PEMAJU U1/15, HICOM - GLENMARIE INDUSTRIAL PARK",101.586514,3.1083974
mynews,convenience_store,myNEWS @ LRT Bandar Puteri,"NC01, STESEN LRT BANDAR PUTERI, JALAN PUCHONG, BANDAR PUTERI",101.612855,3.017111
mynews,convenience_store,myNEWS @ LRT Kinrara BK5,"LOT C03, CONCOURSE LEVEL OF LRT KINRARA BK5 DI ATAS LOT 45621 DAN SEBAHAGIAN LEBUHRAYA BUKIT JALIL DAN JALAN KINRARA 2",101.644209,3.050521
mynews,convenience_store,myNEWS (Maru Kafe) @ LRT Lembah Subang ,"LOT C01 $ C02, CONCOURSE LEVEL LRT LEMBAH SUBANG DI ATAS SEBAHAGIAN LOT 32453, JLN LEMBAH SUBANG, PJU 1A/46, TAMAN PUTRA DAMAI ARA JAYA",101.591255,3.112256
mynews,convenience_store,myNEWS @ LRT Puchong Prima,"LOT C01, CONCOURSE LEVEL OF LRT PUCHONG PRIMA DI ATAS LOT 64517, 64518, 65072 DAN SEBAHAGIAN PERSIARAN PUCHONG PERMAI, TMN PUCHONG PRIMA",101.596689,2.999827
mynews,convenience_store,myNEWS @ LRT Pusat Bandar Puchong,"LOT C03, CONCOURSE LEVEL OF LRT PUSAT BDR PUCHONG DI ATAS LOT 831 DAN SEBAHAGIAN LEBUHRAYA PUCHONG TAMAN PERINDUSTRIAN PUCHONG",101.61607,3.03336
mynews,convenience_store,myNEWS @ LRT SS15 ,STREET LEVEL OF LRT SS 15 STATION PESIARAN JENGKA SS 15,101.585974,3.076
mynews,convenience_store,myNEWS @ LRT Taman Bahagia,"STESEN LRT TAMAN BAHAGIA, SEKSYEN SS2, JALAN SS2/3",101.6127874,3.1107989
mynews,convenience_store,myNEWS (Maru Kafe) @ LRT Taman Jaya,"TAMAN JAYA STATION, JALAN PERSIARAN BARAT",101.6453124,3.1040405
mynews,convenience_store,myNEWS @ LRT Taman Paramount,"STESEN LRT TAMAN PARAMOUNT, JALAN 21/1, TAMAN PARAMOUNT SEKSYEN 22",101.623132,3.104563
mynews,convenience_store,myNEWS @ LRT Terminal Putra Gombak ,"STESEN LRT TERMINAL PUTRA GOMBAK, JALAN TERMINAL PUTRA, TAMAN MELATI",101.7242156,3.2310537
mynews,convenience_store,myNEWS (Maru Kafe) @ Management & Science University (MSU) U-Plaza,"A0202, U-PLAZA, MANAGEMENT & SCIENCE UNIVERSITY (MSU) UNIVERSITY DRIVE OFF PERSIARAN OLAHRAGA","",""
mynews,convenience_store,myNEWS @ Menara Mitraland (G Floor),"D-G-02, LEVEL G, MENARA MITRALAND, NO. 13A, JALAN PJU 5/1, KOTA DAMANSARA, PJU 5",101.595854,3.154833
mynews,convenience_store,myNEWS @ Menara Paragon (G Floor) ,"NO. GF-12, MENARA PARAGON PERSIARAN BESTARI, CYBER 11",101.637115,2.924355
mynews,convenience_store,myNEWS @ Menara PKNS PJ (G Floor) ,"GALLERY 1, GF, MENARA PKNS PETALING JAYA, NO. 17, JALAN YONG SHOOK LIN",101.642759,3.0999689
mynews,convenience_store,myNEWS (Maru Kafe) @ Menara U2 Shah Alam (G Floor),"G-10, MENARA U2 NO. 1, JALAN BOLING PADANG 13/62 SEKSYEN 13",101.550124,3.075363
mynews,convenience_store,myNEWS @ Mitsui Outlet Park KLIA (G Floor) ,"LOT G-47, GROUND FLOOR, MITSUI OUTLET PARK KLIA, PERSIARAN KOMERSIAL, KLIA",101.676584,2.779259
mynews,convenience_store,myNEWS @ Oasis Village (G Floor) ,"LOUNGE 2, GROUND FLOOR, OASIS VILLAGE, NO 2, JALAN PJU 1A/7A, OASIS SQUARE, OASIS DAMANSARA",101.574914,3.1148184
mynews,convenience_store,myNEWS (Maru Kafe) @ One City USJ 25 (G Floor),"LOT B-11, GROUND FLOOR, GARDEN SHOPPE ONE CITY, JALAN USJ 25/1A",101.579844,3.021866
mynews,convenience_store,myNEWS (Maru Kafe) @ One South Seri Kembangan (G Floor),"G-1, ONE SOUTH, JALAN OS TAMAN SERDANG PERDANA SEKSYEN 6",101.706049,3.04363
mynews,convenience_store,myNEWS @ Opera Clubhouse Symphony Hills (G Floor) ,"LOT 1, BLOCK 1, OPERA CLUBHOUSE SYMPHONY HILLS, PERSIARAN SIMFONI, CYBER 9, CYBERJAYA",101.6398781,2.9158549
mynews,convenience_store,myNEWS @ Pacific Place Commercial Center (1st Floor),"D-01-07, BLOCK D, PACIFIC PLACE COMMERCIAL CENTRE, JALAN PJU 1A/4, ARA DAMANSARA",101.5856208,3.1105107
mynews,convenience_store,myNEWS @ Paradigm Mall (LG Floor),"LG 36(P), LOWER GROUND FLOOR PARADIGM MALL, NO. 1, JALAN SS7/26A, KELANA JAYA",101.59551,3.105249
mynews,convenience_store,SUPERVALUE @ Pearl Avenue (G Floor),"PA-S-10 (GF), PEARL AVENUE, JALAN PASIR EMAS SG CHUA, KAJANG",101.780868,2.986427
mynews,convenience_store, myNEWS (Maru Kafe) @ Pekan Sungai Pelek,"LOT 93-5, JALAN BESAR PEKAN SUNGAI PELEK",101.7147836,2.641372054
mynews,convenience_store,myNEWS (Maru Kafe) @ Phileo Damansara 1 (G Floor)," UNIT 105, BLOCK A, PHILEO DAMANSARA 1, PUSAT DAGANGAN PHILEO DAMANSARA, NO. 9, JALAN 16/11,",101.64337,3.127714
mynews,convenience_store,myNEWS @ PJ 33 (G Floor) ,"UNIT PG-05B, PJ 33, NO. 3, JALAN PROFESSOR KHOO KAY, SEKSYEN 13",101.63728,3.110256
mynews,convenience_store, myNEWS (Maru Kafe) @ PJ Centerstage (G Floor),"UNIT G-03, GROUND FLOOR, PJ CENTRESTAGE, NO. 1, JALAN 13/1, SEKSYEN 13",101.638982,3.1112552
mynews,convenience_store,myNEWS @ PJ8 Service Suite (2nd Floor),"UNIT L-02-02, LEVEL 2, BLOCK D, PJ8, JALAN BARAT, PJS 8,",101.639865,3.101612
mynews,convenience_store,myNEWS @ PJS 11/28 Bandar Sunway ,"NO. 15, JALAN PJS 11/28, BANDAR SUNWAY",101.6101883,3.0726521
mynews,convenience_store,myNEWS (Maru Kafe) @ PJS 11/9 Bandar Sunway,"9, JALAN PJS 11/9, BANDAR SUNWAY",101.60302,3.068552
mynews,convenience_store, myNEWS (Maru Kafe) @ PJU 7/71 Mutiara Damansara,"NO. 3-1, JALAN PJU 7/7A MUTIARA DAMANSARA",101.604941,3.158104
mynews,convenience_store,myNEWS (Maru Kafe) @ Plaza Azalea (G Floor),G-11 PLAZA AZALEA NO.6 PERSIARAN BANDARAYA SEKSYEN 14,101.522373,3.07237
mynews,convenience_store,myNEWS @ Plaza Bangi Perdana (G Floor) ,"LOT G-09, PLAZA BANGI PERDANA, JALAN GERBANG WAWASAN 1, BANDAR BARU BANGI",101.7649804,2.9316712
mynews,convenience_store,myNEWS (Maru Kafe) @ Plaza Shah Alam (G Floor) ,"G30, GROUND FLOOR, PLAZA SHAH ALAM, NO. 2, JALAN TENGKU AMPUAN ZABEDAH E9/E, SEKSYEN 9",101.523198,3.084675
mynews,convenience_store,myNEWS (Maru Kafe) @ PLUS R&R Dengkil (Northbound) ,"DGLNB-OL 20, KM 23.5 LEBUHRAYA UTARA - SELATAN KAWASAN REHAT DAN RAWAT DENGKIL ARAH UTARA",101.61012,2.908856
mynews,convenience_store,myNEWS @ PLUS R&R Dengkil (Southbound),"DGLNB-OL20, KM 23.1 LEBUHRAYA UTARA-SELATAN KAWASAN REHAT DAN RAWAT DENGKIL ARAH SELATAN",101.610045,2.908888
mynews,convenience_store,myNEWS (Maru Kafe) @ PLUS R&R Rawang (Northbound),"RWGNB-OL05, KM 440.0 LEBUHRAYA UTARA-SELATAN KAWASAN REHAT DAN RAWAT RAWANG ARAH UTARA",101.558172,3.330292
mynews,convenience_store,myNEWS @ Prima Sri Gombak,"NO. 90-G, JALAN PRIMA SG 3 PRIMA SRI GOMBAK",101.700384,3.237512
mynews,convenience_store,myNEWS (Maru Kafe) @ QLIQ Damansara Hotel (LG Floor),"UNIT A-LG-04, QLIQ DAMANSARA HOTEL, EMPIRE DAMANSARA, JALAN PJU 8/8, DAMANSARA PERDANA",101.611798,3.1660835
mynews,convenience_store,myNEWS (Maru Kafe) @ R&R Sungai Buloh (Northbound) ," S-02-NB, S-04-NB, S-06-NB, S-08-NB, SUNGAI BULOH OVERHEAD BRIDGE RESTAURANT, KM 458.4 UTARA - SELATAN HIGHWAY, ",101.5874658,3.18776098
mynews,convenience_store,myNEWS @ REDQ (4th Floor) ,"LEVEL 4, REDQ JALAN PEKELILING 5, ANGAN TERBANG ANTARABANGSA KUALA LUMPUR 2",101.6806928,2.7423068
mynews,convenience_store,myNEWS @ Residensi Damai Meriah (1),"P1-2-23-A, P1-2-23-B RESIDENSI DAMAI MERIAH NO. 2, JALAN PJU 10/1A, DAMANSARA DAMAI",101.597501,3.198145
mynews,convenience_store,myNEWS @ Residensi Damai Meriah (2),"RESIDENSI DAMAI MERIAH NO. 2, JALAN PJU 10/1A, DAMANSARA DAMAI",101.597501,3.198145
mynews,convenience_store,myNEWS (Maru Kafe) @ Savanna Lifestle Retail (G Floor) ,A-G-18 SAVANNA LIFESTYLE RETAIL JALAN BBLS 2 BANDAR BARU LEMBAH SELATAN,101.764336,2.90303
mynews,convenience_store,myNEWS (Maru Kafe) @ Saville Kajang (G Floor) ,G-15 SAVILLE KAJANG JALAN REKO,101.789387,2.97215
mynews,convenience_store,myNEWS @ Seksyen 13 Shah Alam,"NO. 25, JALAN SNUKER 13/28, SEKSYEN 13",101.5454332,3.0886055
mynews,convenience_store,myNEWS @ Seksyen U13 Setia Alam,"LOT E-16, NO. 1, SEKSYEN U13 JALAN SETIA DAGANG AL U13AL, SETIA ALAM",101.469088,3.105689
mynews,convenience_store,myNEWS (Maru Kafe) @ Seksyen U3 Shah Alam,NO. 29C (GF) JALAN DINAR G U3/G SEKSYEN U3,101.544598,3.148924
mynews,convenience_store,myNEWS (Maru Kafe) @ Selayang Baru ,"16A, JALAN 29 SELAYANG BARU",101.6677077,3.251804521
mynews,convenience_store,myNEWS @ Setia City Mall (2nd Floor) ,"LOT L2-07, SETIA CITY MALL, NO. 7, PERSIARAN SETIA DAGANG, BANDAR SETIA ALAM, SEKSYEN U13",101.460918,3.108257
mynews,convenience_store,myNEWS (Maru Kafe) @ Setia City Mall (LG Floor),"LOT LG64, SETIA CITY MALL, NO. 7, PERSIARAN SETIA DAGANG, BANDAR SETIA ALAM, SEKSYEN U13",101.4602433,3.1090222
mynews,convenience_store,myNEWS (Maru Kafe) @ Setiawalk (G Floor),"G-09-G, BLOCK G, SETIAWALK, PERSIARAN WAWASAN, PUSAT BANDAR PUCHONG,",101.616601,3.031179
mynews,convenience_store,myNEWS @ Seventeen Mall (1st Floor) ,"L1-08, LEVEL 1, SEVENTEEN MALL SECTION 17",101.63488,3.12878
mynews,convenience_store, myNEWS (Maru Kafe) @ Shaftbury Square ,"P1-23, SHAFTBURY SQUARE, PERSIARAN MULTIMEDIA, CYBER 6",101.6612916,2.9234714
mynews,convenience_store,myNEWS (Maru Kafe) @ Silk Residence (G Floor),KPG-13 SILK RESIDENCE JALAN SUTERA LEBUHRAYA SILK,101.757924,3.029998
mynews,convenience_store,myNEWS (Maru Kafe) @ Silk Sky Balakong (1st Floor) ,L1-15 SILK SKY JALAN KB 2/15 KAMPUNG BAHARU BALAKONG,101.750673,3.027209
mynews,convenience_store,myNEWS (Maru Kafe) @ Skypark Terminal (G Floor),"LOT NO. G5, SKYPARK TERMINAL, LAPANGAN TERBANG SULTAN ABDUL AZIZ SHAH",101.5543995,3.1328029
mynews,convenience_store,myNEWS (Maru Kafe) @ Sky-Pod Square (G Floor) ,"G-13, SKY-POD SQUARE PERSIARAN PUCHONG JAYA SELATAN BANDAR PUCHONG JAYA",101.62018,3.043228
mynews,convenience_store,myNEWS @ Sri Acappela Commercial Annexe (G Floor),"SUITE MR1-01-03B, SRI ACAPPELA COMMERCIAL ANNEXE, NO. 1, JALAN LOMPAT TINGGI 13/33, SEKSYEN 13",101.548186,3.088499
mynews,convenience_store,myNEWS @ Sri Kota Specialist Medical Center (3rd Floor),"LEVEL 3 FOYER, SRI KOTA SPECIALIST MEDICAL CENTRE, JALAN MOHET",101.445577,3.040323
mynews,convenience_store,myNEWS (Maru Kafe) @ SS 21/39 Damansara Utama,"GROUND FLOOR, NO. 64 JALAN SS21/39, DAMANSARA UTAMA",101.621435,3.135386
mynews,convenience_store,myNEWS @ SS15 Subang Jaya,"51, GROUND FLOOR, JALAN SS15/8A",101.587832,3.074518
mynews,convenience_store,myNEWS (Maru Kafe) @ SS15/4 Subang Jaya,"NO. 38, JALAN SS15/4",101.587894,3.075464
mynews,convenience_store,myNEWS (Maru Kafe) @ SS2 Damansara Utama ,NO. 40. JALAN SS2/61,101.6779883,3.242876
mynews,convenience_store,myNEWS (Maru Kafe) @ SS20/11 Damansara Kim,"NO. 43 (GF), JALAN SS20/11 DAMANSARA KIM",101.627165,3.134706
mynews,convenience_store,myNEWS @ SS21/60 Damansara Utama ,"57-G, JALAN SS21/60, DAMANSARA UTAMA",101.621487,3.135307
mynews,convenience_store,myNEWS @ Studio 14 (G Floor),"SHOP 3, STUDIO 14, NO. 16 (PRESINT 3.3), PERSIARAN PERBANDARAN, SEKSYEN 14",101.5233463,3.0730941
mynews,convenience_store,myNEWS @ Subang Jaya Medical Center (B1 Floor) ,"SJB 1.001-002, B1, SUBANG JAYA MEDICAL CENTRE, JALAN SS12/1A",101.593608,3.078656
mynews,convenience_store,myNEWS (Maru Kafe) @ Sungai Besar Sentral ,NO. 44 (GF) JLN BUNGA LOCENG KUNING SUNGAI BESAR SENTRAL,100.985683,3.672727
mynews,convenience_store,myNEWS @ Sunway Pyramid (CP2 Floor),"CP 2.03, SUNWAY PYRAMID SHOPPING MALL, NO 3, JALAN PJS 11/15, BANDAR SUNWAY",101.6068951,3.0721369
mynews,convenience_store,myNEWS (Maru Kafe) @ Sunway Pyramid (LG2 Floor) ,"LG 2.103 & LG 2.113, LOWER GROUND TWO SUNWAY PYRAMID, 3, JALAN PJS 11/15 BANDAR SUNWAY",101.605868,3.072776
mynews,convenience_store,myNEWS @ Sunwaymas Commercial Center ,"32-1, JALAN PJU 1/3A SUNWAYMAS COMMERCIAL CENTER",101.598991,3.120785
mynews,convenience_store, myNEWS (Maru Kafe) @ Suria Jelutong 1 (G Floor),"R8, SURIA JELUTONG 1, JALAN BAZAR U8/99 BUKIT JELUTONG, SEKSYEN U8",101.539082,3.097728
mynews,convenience_store,myNEWS (Maru Kafe) @ Syopz Mall (G Floor) ,"LOT G-3, GROUND FLOOR, THE BOARD WALK SYOPZ MALL, NO. 2, JALAN TAYLORS",101.61586,3.063838
mynews,convenience_store,myNEWS (Maru Kafe) @ Taman Saujana Utama 3,"NO. 70 (GF), JALAN BIDARA 6/3 TAMAN SAUJANA UTAMA 3",101.487503,3.202735
mynews,convenience_store,myNEWS (Maru Kafe) @ Tamarind Squre (G Floor),"UNIT D2-03-10, TAMARIND SQUARE PERSIARAN MULTIMEDIA",101.6370824,2.9201054
mynews,convenience_store,myNEWS (Maru Kafe) @ Terminal S17 Shah Alam ,"NO. S1, TERMINAL SEKSYEN 17 JALAN JENULUNG 17/21",101.504143,3.047241
mynews,convenience_store,myNEWS @ Tesco Ara Damansara (1st Floor) ,"F-16, FIRST FLOOR, TESCO ARA DAMANSARA, NO.1, JALAN PJU 1A/3A, ARA DAMANSARA, PJU 1A",101.57627,3.11881
mynews,convenience_store,myNEWS @ Tesco Klang (1st Floor) ,"LOT NO. F9, 1ST FLOOR, TESCO KLANG, NO. 3, JALAN BATU NILAM 6/KS6, BANDAR BUKIT TINGGI",101.441079,3.005881
mynews,convenience_store,myNEWS @ Tesco Mutiara Damansara (1st Floor) ,"LOT NO. F13A, 1ST FLOOR, TESCO MUTIARA DAMANSARA, 8 JALAN PJU 7/4, MUTIARA DAMANSARA",101.6131689,3.1596532
mynews,convenience_store,myNEWS @ Tesco Puchong (1st Floor),"LOT NO.3, 1ST FLOOR, TESCO PUCHONG, 148-149, JALAN BANDAR 3, OFF JALAN PUCHONG, PUSAT BANDAR PUCHONG",101.6158754,3.034845
mynews,convenience_store,myNEWS @ Tesco Rawang (G Floor) ,"LOT G12, TESCO RAWANG, NO. 1, JALAN RAWANG",101.5978486,3.302869
mynews,convenience_store,myNEWS @ Tesco Shah Alam (1st Floor),"LOT 20, 1ST FLOOR, TESCO SHAH ALAM, NO. 3, JALAN AEROBIK 13/43, SEKSYEN 13",101.5387217,3.071783
mynews,convenience_store,myNEWS @ Tesco Shah Alam (G Floor),"LOT G7, GROUND FLOOR, TESCO SHAH ALAM, NO. 2, JALAN SETIA PRIMA SU13/3, SEKSYEN 13, SETIA ALAM",101.4446807,3.1070029
mynews,convenience_store,myNEWS @ The Curve (B1 Floor) ,"KIOSK NO. K-B1-2-D, BASEMENT 1, THE CURVE, NO. 6, JALAN PJU 7/3, MUTIARA DAMANSARA",101.612005,3.157922
mynews,convenience_store,myNEWS @ The Curve (G Floor) ,"LOT G99A, GROUND FLOOR, THE CURVE, NO. 6, JALAN PJU 7/3, MUTIARA DAMANSARA",101.6114672,3.1577361
mynews,convenience_store,myNEWS @ The Main Place (LG Floor) ,"LOT NO. LG-07, LOWER GROUND FLOOR, THE MAIN PLACE, JALAN USJ 21/10, PERSIARAN KEWAJIPAN",101.581156,3.026183
mynews,convenience_store,myNEWS @ The Pinnacle (Mezzanine Floor),"LOT M-02, MEZZANINE FLOOR, PERSIARAN LAGOON, BANDAR SUNWAY",101.608983,3.072498
mynews,convenience_store,myNEWS (Maru Kafe) @ The Place Cyberjaya (G Floor),"D-GF-05, THE PLACE JALAN TEKNOKRAT 1/1 CYBER 3",101.661869,2.937059
mynews,convenience_store,myNEWS (Maru Kafe) @ The University of Nottingham Malaysia,"HA02, BLOCK H, JALAN BROGA THE UNIVERSITY OF NOTTINGHAM MALAYSIA CAMPUS SEMENYIH",101.87453,2.945071
mynews,convenience_store,myNEWS (Maru Kafe) @ The Village Square Club (G Floor),"VS-G-02, THE VILLAGE SQUARE VALENCIA CLUB ELITIS GAPURA SENJA VALENCIA",101.585575,3.211398
mynews,convenience_store,"myNEWS (Maru Kafe) @ Trefoil, Setia City (1st Floor)","RS-1-5 BLOCK C, TREFOIL@SETIA CITY, NO. 2, JALAN SETIA DAGANG AH U13/AH, SEKSYEN U13, SETIA ALAM",101.460639,3.111487
mynews,convenience_store,myNEWS @ Tropicana Avenue (G Floor),"LOT 23A, TROPICANA AVENUE, PERSIARAN TROPICANA",101.595329,3.1367633
mynews,convenience_store,myNEWS @ Tropicana City Mall (LG Floor) ,"LOT LG-08, LG, TROPICANA CITY MALL, NO. 3, JALAN SS 20/27",101.627043,3.130799
mynews,convenience_store,myNEWS @ University of Cyberjaya (UG Floor),"CYBERJAYA UNIVERSITY COLLEGE OF MEDICAL SCIENCES R2-UG TOWER BLOCK, PERSIARAN BESTARI CYBER 11","",""
mynews,convenience_store,myNEWS (Maru Kafe) @ U-Plaza MSU,"S0210, U-Plaza, Management & Science University (MSU) University Drive Off Persiaran Olahraga, Section 13","",""
mynews,convenience_store,myNEWS @ USJ Sentral 3 ,"G-2A, JALAN USJ SENTRAL 3, PERSIARAN SUBANG 1",101.595229,3.057571
mynews,convenience_store,myNEWS (Maru Kafe) @ Utropolis Marketplace (G Floor),"G-B5, GROUND FLOOR, UTROPOLIS MARKETPLACE, JALAN KONTRAKTOR U1/14, SEKSYEN U1",101.5599696,3.0903666
mynews,convenience_store,"myNEWS (Maru Kafe) @ Village Shop, The Club (G Floor)","G01 & G02, VILLAGE SHOP@THE CLUB, NO. 9, PERSIARAN BUKIT UTAMA, BANDAR UTAMA",101.603251,3.150989
mynews,convenience_store,myNEWS (Maru Kafe) @ Vista Alam (LG Floor),"B11-LG, VISTA ALAM, JALAN IKTISAS 14/1, SEKSYEN 14",101.5242267,3.0707144
mynews,convenience_store,"myNEWS @ Xiamen University Malaysia, Sunsuria","BLOCK D6, UNIT G01, GROUND FLOOR XIAMEN UNIVERSITY MALAYSIA JALAN SUNSURIA, BANDAR SUNSURIA",101.7066,2.8341 
mynews,convenience_store,SUPERVALUE @ You Vista (G Floor),"VG-3A, YOU VISTA, JALAN YOU CITY,",101.7628122,3.0739197
mynews,convenience_store,myNEWS HQ,"LOT NO. 3, JALAN TEKNOLOGI 3/1 TAMAN SAINS SELANGOR 1 SEKSYEN 3, PJU 5, KOTA DAMANSARA",101.572559,3.162047
mynews,convenience_store,myNEWS (Maru Kafe) @ 28 Boulevard (G Floor),"G-13, 28 BOULEVARD, JALAN PERDANA 3/10 PANDAN PERDANA",101.744385,3.118582
mynews,convenience_store,myNEWS (Maru Kafe) @ Dedaun SG Besi (G Floor),"A-G-03, DEDAUN SG BESI JALAN HANG TUAH 2 TAMAN SALAK SELATAN",101.695163,3.084842
mynews,convenience_store,myNEWS (Maru Kafe) @ D'sara Sentral (G Floor),"LOT R-G-6, D'SARA SENTRAL SUNGAI BULOH SENTRAL, JALAN WELFARE KAMPUNG BARU SUNGAI BULOH, SEKSYEN U19",101.577653,3.199392
mynews,convenience_store,myNEWS (Maru Kafe) @ Pangsapuri Khidmat Melawati (G Floor),"G-9, PANGSAPURI KHIDMAT MELAWATI NO. 2, JALAN KOLAM AIR, DESA MELAWATI 53100 WILAYAH PERSEKUTUAN",101.73894,3.217158
mynews,convenience_store,myNEWS (Maru Kafe) @ Residensi 357 Setapak (G Floor) ,"01-3A, RESIDENSI 357 SETAPAK LORONG 2/230 SETAPAK",101.71426,3.199035
mynews,convenience_store,myNEWS (Maru Kafe) @ Taman Sri Hartamas,"31, JALAN SRI HARTAMAS 7 TAMAN SRI HARTAMAS",101.649875,3.157729
mynews,convenience_store,myNEWS (Maru Kafe) @ Wisma MCA (G Floor) ,"LOT G-07, GROUND FLOOR WISMA MCA NO. 163, JALAN AMPANG",101.716886,3.16007
