feature_name,feature_tag,name,Address,Latitude,Longitude,Location,Nearest(poi)
99speedmart,convenience_store,99SpeedMart @Banting,"A1-0(Tingkat Bawah), Jalan Wisma, Bangunan Wisma Banting, 42700 Banting, Selangor Darul Ehsan.",2.815001,101.503224,Banting,"['Nasi Kukus Ayam&Puyuh Goreng Berempah', 'MA Nasi Kukus Ayam Berempah', 'Nasi Kukus Banting']"
99speedmart,convenience_store,99SpeedMart @Telok Gong,"Pt 8926, Jalan Telok Gong, Kampung Telok Gong, 42000 Pelabuhan Klang, Selangor Darul Ehsan.",2.963484,101.39252,Telok Gong,"['唯美雲吞面 Teluk Gong', 'Gudang Bernas', 'Sri Mayurri']"
99speedmart,convenience_store,99SpeedMart @Pekan Meru 1,"9366-9368, Jalan Besar, Pekan Meru, 41050 Klang, Selangor Darul Ehsan.",3.131721,101.440178,Pekan Meru 1,"['Syarikat Motor Huat Heng', 'Restoran Salero Bistro', 'Gerai Kuih-Muih Tepi Petronas']"
99speedmart,convenience_store,99SpeedMart @Klang Utama 1,"2, Jalan Sungai Puloh 13, Taman Klang Utama, 42100 Klang, Selangor Darul Ehsan.",3.078498,101.420492,Klang Utama 1,"['Restaurant Ah Lek 雅烈', 'Klinik Keluarga & Surgeri Damai', 'TS Curry House']"
99speedmart,convenience_store,99SpeedMart @Alam Megah 1,"No.1, Jalan Pulau Kempas 28/3, Seksyen 28, 40400 Shah Alam, Selangor Darul Ehsan.",3.007263,101.569053,Alam Megah 1,"['Guardian', 'BundleBrew Vape', 'Guardian Farmasi']"
99speedmart,convenience_store,99SpeedMart @Bukit Kapar,"39-41, Jalan Bukit Kapar, Pekan Kapar , 42200 Kapar, Selangor Darul Ehsan.",3.139873,101.378777,Bukit Kapar,"['溢香肉骨茶', 'BHPetrol Taman Kapar']"
99speedmart,convenience_store,99SpeedMart @Port Klang 1,"118 (Grd. Floor), Jalan Tengku Bandar, 42000 Pelabuhan Klang, Selangor Darul Ehsan.",3.006454,101.399734,Port Klang 1,"['Big Tree Bak Kutt Teh', '巴生港口大树头肉骨茶', 'Teguh Cemerlang (M) Sdn Bhd']"
99speedmart,convenience_store,99SpeedMart @Sri Andalas 1,"2, Jalan Seri Sarawak 19, Taman Sri Andalas,  42100 Klang, Selangor Darul Ehsan.",3.015448,101.442109,Sri Andalas 1,"['Perniagaan Pakaian Tee (Kak Any)', 'newplace']"
99speedmart,convenience_store,99SpeedMart @Taman Desawan,"Block A, No 4671(Grd Floor),  Wisma AMI, Jalan Gambus 2, Tmn. Desawan, 41200 Klang, Selangor Darul Ehsan.",3.00189,101.443006,Taman Desawan,"['Bali Massage', 'JKTV', 'Iyer Mamak']"
99speedmart,convenience_store,99SpeedMart @Sentosa,"41-43, Jalan Datuk Yusuf Shahbuddin 28, Taman Sentosa, 41200 Klang, Selangor Darul Ehsan.",3.007574,101.463954,Sentosa,"['佳香炒鱼', 'Man Xiang Yuan Seafood Restaurant']"
99speedmart,convenience_store,99SpeedMart @Kampung Jawa,"7695-7697, Jalan Teluk Batu 1, Bt.4 1/2 Jalan Kebun, 41000 Klang, Selangor Darul Ehsan.",3.012256,101.488039,Kampung Jawa,"['T.N Machinery Hardware Sdn Bhd', 'DiGi Gold Dealer- E Touch Mobile']"
99speedmart,convenience_store,99SpeedMart @Eng Ann,"6-8, Lorong Kasawari 4, Taman Eng Ann , 41150 Klang, Selangor Darul Ehsan.",3.056552,101.459297,Eng Ann,"['Eng Ann Coffee Shop', 'Mamak Taman Eng Ann', 'Prawn Mee House @ Tmn. Rashna']"
99speedmart,convenience_store,99SpeedMart @Kota Kemuning 1,"No.29, Jalan C, 31/C Kota Kemuning, Seksyen 31, 40460 Shah Alam, Selangor Darul Ehsan.",2.990099,101.547348,Kota Kemuning 1,"['Elken Stokist Kota Kemuning', 'Kedai Dobi Morning Glory', 'Bunley Electrical And Air-Conditioning Service']"
99speedmart,convenience_store,99SpeedMart @Pandamaran Jaya,"NO. 2 & 4 (Grd Floor), Jalan Lengkok Pandamaran 63, 42000 Pelabuhan Klang, Selangor Darul Ehsan.",3.004204,101.423796,Pandamaran Jaya,"['Pasaraya Aladdin', 'Pasar Malam Pandamaran Jaya']"
99speedmart,convenience_store,99SpeedMart @Sri Muda 1,"No.61 & 63, Jalan Makmur 25/64, Seksyen 25, Taman Sri Muda, 40400 Shah Alam, Selangor Darul Ehsan.",3.032366,101.537349,Sri Muda 1,"['S.I Home Shelter', 'Hotel Sri Muda', 'Ameer Corner']"
99speedmart,convenience_store,99SpeedMart @Sri Setia,"601-602, Jalan SS9A/13,  Sunga Way, 47300 Petaling Jaya.,  Selangor Darul Ehsan.",3.086137,101.621409,Sri Setia,"['BSN Sungai Way', 'Y.S.Chong Motor Trading Sdn. Bhd']"
99speedmart,convenience_store,99SpeedMart @Jalan Meru,"155(G), Wisma Harp Soon, Jalan Meru, 41050 Klang, Selangor Darul Ehsan.",3.062675,101.451926,Jalan Meru,"['7-11 Jalan Meru', 'Mindajaya Tuition Centre']"
99speedmart,convenience_store,99SpeedMart @Desa Mentari,"No.1, Jalan PJS 6/5F, Desa Mentari, 46000 Petaling Jaya, Selangor Darul Ehsan.",3.081091,101.618984,Desa Mentari,"['Dobi Queen Desa Mentari', 'Restaurant Chong Mak Kok', 'Jayamurugan Vadivelu & Partners']"
99speedmart,convenience_store,99SpeedMart @Klang Town,"64 & 66 (Grd Floor), Jalan Pasar, 41400 Klang, Selangor Darul Ehsan.",3.050022,101.443761,Klang Town,"['Goldcourse Hotel Ballroom', 'Pan Digital Business System', 'Cafe Sri Emas']"
99speedmart,convenience_store,99SpeedMart @Subang Perdana,"30, Jalan Dinar DU3/D,  Taman Subang Perdana,  Seksyen U3, 40150 Shah Alam, Selangor Darul Ehsan",3.148144,101.545168,Subang Perdana,"['7-Eleven Seksyen U3 Subang Perdana', 'Welly Motor', 'Aarom Music Studio']"
99speedmart,convenience_store,99SpeedMart @Kapar Indah,"18 (G), Jalan Sungai Kapar Indah 3, Sungai Kapar Indah, 42209 Klang, Selangor Darul Ehsan.",3.095436,101.383399,Kapar Indah,"['Pasaraya Big Supermart', 'Car Wash SKI']"
99speedmart,convenience_store,99SpeedMart @Rantau Panjang,"5559 & 5561(G), Jalan Rantau Panjang KU/4, Rantau Panjang, 41200 Klang, Selangor Darul Ehsan.",3.070694,101.412364,Rantau Panjang,"['Klinik Alam Medik', 'Burger King']"
99speedmart,convenience_store,99SpeedMart @Bandar Puteri,"No. 39(G), Lorong Sanggul 1A, Bandar Puteri , 42000 Klang, Selangor Darul Ehsan.",2.988106,101.467792,Bandar Puteri,"['Futurewax Car Wash & Polish', 'Swaadh', 'E-mage']"
99speedmart,convenience_store,99SpeedMart @Pekan Kapar,"86 & 88, Jalan Mokhtar 1, Jalan Kapar, 42200 Klang, Selangor Darul Ehsan.",3.137013,101.372586,Pekan Kapar,"['Bazaar Ramadhan Pekan Kapar', ""Kedai Makan D'Lempeng"", 'Econsave Pekan Kapar']"
99speedmart,convenience_store,99SpeedMart @Subang U5 (1),"15-17(Ground Floor), Jalan Uranus AG U5/AG,  Section U5, 40150 Shah Alam,  Selangor Darul Ehsan.",3.167383,101.533664,Subang U5 (1),"['Cutter Barbershop & Skatestore', 'Boon Thai Motor Enterprise', 'Restoran Malabar Corner']"
99speedmart,convenience_store,99SpeedMart @Sekinchan,"46 & 47 (G), Jalan Mentari Besar 1,  Sekinchan Business Centre,  45400 Sekinchan, Selangor Darul Ehsan.",3.507081,101.102659,Sekinchan,"['Southern Cafe', 'Hong Leong Bank Sekinchan']"
99speedmart,convenience_store,99SpeedMart @Pasir Penambang,"202 & 203, Pekan Pasir Penambang,  45400 Kuala Selangor,  Selangor Darul Ehsan.",3.350335,101.252121,Pasir Penambang,"['Coconut Stall', 'Pasar Malam Pasir Penambang', '强记鸡饭 @Pasir Penambang']"
99speedmart,convenience_store,99SpeedMart @Taman Rasnah,"129 & 131, Jalan Batu Tiga Lama, Berkeley Town Centre , 41300 Klang, Selangor Darul Ehsan.",3.053713,101.467172,Taman Rasnah,"['Har Mee House', 'Restoran Apollo \ue33f', 'Tmn Rashna Prawn Mee']"
99speedmart,convenience_store,99SpeedMart @Bayu Perdana 1,"280-282, Persiaran Pegaga, Taman Bayu Perdana , 41200 Klang, Selangor Darul Ehsan.",3.017184,101.432065,Bayu Perdana 1,"['Klinik Cinta Sayang', 'GreatSound Auto Accessories', 'Siong Seng Auto Accessories Sdn. Bhd.']"
99speedmart,convenience_store,99SpeedMart @Teluk Pulai,"No. 61 & 63 (Grd Floor), Jalan Teluk Pulai, Kaw 7, 41100 Klang, Selangor Darul Ehsan.",3.042212,101.428569,Teluk Pulai,"['KK Supermart', 'Restoran Rezeki Al-Mubarak']"
99speedmart,convenience_store,99SpeedMart @Tanjong Karang,"15 & 17 (GRound Floor), Jalan PB 1/1, Pusat Bandar Tanjong Karang, 45500 Tanjong Karang, Selangor Darul Ehsan.",3.425065,101.176812,Tanjong Karang,"[""John's Hair Salon"", 'Pizza Hut Tanjung Karang']"
99speedmart,convenience_store,99SpeedMart @Bandar Botanik 1,"No.46 & 48 (Ground Floor), Jalan Jasmin 1/KS6, Bandar Botanik, 41200 Klang, Selangor Darul Ehsan.",2.98681,101.443514,Bandar Botanik 1,"['Botanic Corner Restaurant', 'Friends Seafood Restaurant']"
99speedmart,convenience_store,99SpeedMart @Kampung Sungai Udang,"No. 29 & 31 (Ground Floor), Jalan Udan Putih 21 KS 3, Kampung Sg. Udang, 41250 Klang, Selangor Darul Ehsan.",3.039289,101.413480,Kampung Sungai Udang,"['Lizaz Beauty Spa & Gym', 'Nifara Steak Cafe', 'Masjid Sungai Udang']"
99speedmart,convenience_store,99SpeedMart @Pandamaran,"No. 153 & 155 (G), Jalan Chan Ah Choo, Pandamaran, 42000 Pelabuhan Klang, Selangor Darul Ehsan.",3.010263,101.418375,Pandamaran,"['Poliklinik & Surgeri Damai', '新村海鲜饭店']"
99speedmart,convenience_store,99SpeedMart @Kampung Sungai Lang,"No.40-42(Ground Floor), Jalan Bersatu Dua, Taman Bersatu, Sungai Lang, 42700 Banting, Selangor Darul Ehsan.",2.790454,101.510214,Kampung Sungai Lang,"['Pusat Angkasa Negara', 'newplace']"
99speedmart,convenience_store,99SpeedMart @USJ 10 Taipan,"No.53(G),Jalan USJ 10/1F,47620 Subang Jaya, Selangor Darul Ehsan.",3.047633,101.583213,USJ 10 Taipan,"['Magic Boo Spa Equipment', 'Chase Up Hair Studio', 'Posé Dance Academy']"
99speedmart,convenience_store,99SpeedMart @Taman Medan,"No.11 & 12 (Ground Floor), Jalan Medan 8, Taman Medan, 46000 Petaling Jaya, Selangor Darul Ehsan.",3.075284,101.635453,Taman Medan,"['Saaka Nilai', 'Farmasi Zora', 'Saaka Nilai']"
99speedmart,convenience_store,99SpeedMart @Sasaran,"No: 3 & 4 (Ground Floor), Jalan Muara 2,  Taman Muara Estec, Sungai Buloh,  45800 Jeram, Selangor Darul Ehsan.",3.260963,101.305529,Sasaran,"['Pos Office Sungai Buloh', 'Pasar Sungai Buloh']"
99speedmart,convenience_store,99SpeedMart @Sungai Buloh,"No.41&43(G),Jalan Kati Eu 19/E, Sek. U19 Tmn Medan Mas ,47000 Sungai buloh, Selangor Darul Ehsan.",3.19483,101.56724,Sungai Buloh,"['Poliklinik Famili Dan Medi-Kulit', 'Poslaju Sungai Buloh', '万发海鲜饭店']"
99speedmart,convenience_store,99SpeedMart @Puchong Prima,"E01-09 & E01-10,Jalan Puchong Prima 5/3,Taman Puchong Prima,47100 Puchong,Selangor Darul Ehsan.",3.000063,101.595059,Puchong Prima,"['Hong Leong Bank@Puchong Prima', 'Rio Production']"
99speedmart,convenience_store,99SpeedMart @Shah Alam Sek 23,"No.89 & 91 (Ground Floor), Jalan Pelabur B 23/B, 40300 Shah Alam, Selangor Darul Ehsan.",3.046647,101.526414,Shah Alam Sek 23,"['Klinik Nadi Iman', 'Iron Lab Gym', 'RED RHINO SHAH ALAM SECURITY DOOR']"
99speedmart,convenience_store,99SpeedMart @Jenjarom,"No.23 & 25 & 27 (Ground Floor),Jalan Bacang 17,Sungai Jarom,42600 Jenjarom, Selangor Darul Ehsan.",2.872043,101.494678,Jenjarom,"['Pearlfect Dental Clinic', '新湘子楼酒家', 'MINNIEQ HOUSE']"
99speedmart,convenience_store,99SpeedMart @Bandar Baru Klang,"No. 32A (G), Lorong Tiara 1B , Bandar Baru Klang, 41150 Klang, Selangor Darul Ehsan.",3.063328,101.468909,Bandar Baru Klang,"['Klinik Bandaran', ""V'Arts Beauty House""]"
99speedmart,convenience_store,99SpeedMart @Bukit Jelutong,"No: 15 & 17 (Ground Floor),  Jalan Pelapik B U8/B,  Bukit Jelutong, Seksyen U8,40150 Shah Alam, Selangor Darul Ehsan.",3.114462,101.526779,Bukit Jelutong,"['Burger King', 'Smart Reader']"
99speedmart,convenience_store,99SpeedMart @Subang Jaya SS19,"NO. 55, Jalan SS19/6,  46500 Subang Jaya,  Selangor Darul Ehsan.",3.065781,101.579352,Subang Jaya SS19,"['Twan Auto Service Sdn Bhd', 'Kedai Gunting Rambut Famous', 'Easy By RHB']"
99speedmart,convenience_store,99SpeedMart @Setia Alam 1,"No. 9-1-2 & 7-1-1,  Jalan Setia Prima R U13/R,  Setia Alam, Sek U13,40170 Shah Alam, Selangor Darul Ehsan.",3.10087,101.444787,Setia Alam 1,"['Bank Simpanan Nasional', 'Bank Simpanan Nasional (BSN)', 'Klinik Mediviron Setia Alam']"
99speedmart,convenience_store,99SpeedMart @Dataran Sunway,"No. 8 & 10 (Ground Floor),  Jalan PJU 5/10,  47810 Petaling Jaya,Selangor Darul Ehsan.",3.151507,101.592967,Dataran Sunway,"['銘记粥品 Ming Kee Porridge Kota Damansara', 'Ikuzo Ramen', 'Happy Feet Reflexology']"
99speedmart,convenience_store,99SpeedMart @Old Town,"No.28, Jalan Pasar 1/21, 46000 Petaling Jaya, Selangor Darul Ehsan.",3.083887,101.645869,Old Town,"['Playground At Jalan 2/30A', 'HHLim Window Tint Specialist (Titan)', 'Kedai Lam Loong']"
99speedmart,convenience_store,99SpeedMart @Bukit Tinggi 2,"No.15 & 17 (G) ,Lorong Batu Nilam 34C ,Bandar Bukit Tinggi  41200 Klang, Selangor Darul Ehsan.",2.99912,101.431494,Bukit Tinggi 2,"['Burger King', 'Shell']"
99speedmart,convenience_store,99SpeedMart @Sri Manja,"No.11 & 13 (Ground Floor), Jalan PJS 3/48, Taman Sri Manja, 46000 Petaling Jaya, Selangor Darul Ehsan.",3.073388,101.64823,Sri Manja,"['UE Image Studio', 'Sri Manja Square', '19號茶餐室PJ 分行 One Nite Restaurant PJ Branch']"
99speedmart,convenience_store,99SpeedMart @Sultan Suleiman 1,"No. 107 (G) Lintang Sultan Mohamad 1B, Pusat Perdagangan Bandar Sultan Suleiman 42000 Pelabuhan Klang, Selangor Darul Ehsan.",3.018489,101.370201,Sultan Suleiman 1,"['Restoran Robiah De Cafe', 'Restoran NZ Corner']"
99speedmart,convenience_store,99SpeedMart @Centro Klang,"G 119 (G) ,Centro Mall ,No: 8 Jalan Batu Tiga Lama, 41300 Klang, Selangor Darul Ehsan.",3.051168,101.462943,Centro Klang,"[""D'serai"", 'SB Chettinad Curry House', 'Nan Yang Cottage']"
99speedmart,convenience_store,99SpeedMart @Puchong Indah,"No.23 & 25(Ground Floor),Jalan Indah 3/1,Taman Puchong Indah,47100 Puchong,Selangor Darul Ehsan.",3.012507,101.603579,Puchong Indah,"['Kedai Ani Sup Utara', 'Cleanpro Express - Puchong Indah', 'Nasi Kandar Seri Belanga']"
99speedmart,convenience_store,99SpeedMart @Ijok,"No: 10 & 12 (Groung Floor),  Jalan Ijok Utama 1,  Taman Ijok Utama,45600 Ijok, Batang Berjuntai,Selangor Darul Ehsan.",3.313769,101.411745,Ijok,"['Klinik Kapar', 'KFC', 'KFC Ijok']"
99speedmart,convenience_store,99SpeedMart @Puchong Kinrara,"No.4 & 6 & 8 (Ground Floor),Jalan Kinrara 4/5,Taman Kinrara 4,47100 Puchong ,Selangor Darul Ehsan.",3.064742,101.637556,Puchong Kinrara,"['MyMydin Taman Kinrara 4', 'Poliklinik Aramedic']"
99speedmart,convenience_store,99SpeedMart @Damai Perdana,"18 & 20(G),Jalan Damai Perdana 1/8A,Bandar Damai Perdana,56000 Cheras,Selangor Darul Ehsan",3.046931,101.739481,Damai Perdana,"['OK Mixed Rice & Cafe', 'Restoran Ali Food Corner']"
99speedmart,convenience_store,99SpeedMart @Sungai Long 1,"No.15 & 17 (G), Jalan SL 1/3 ,Bandar Sungai Long, 43200 Kajang, Selangor Darul Ehsan.",3.040519,101.793392,Sungai Long 1,"['Don-Fuku 丼福', 'Machi Noodle 妈子面猪肉粉', 'Guardian Pharmacy']"
99speedmart,convenience_store,99SpeedMart @Shah Alam Sek 7 (1),"No: QG 43 & QG 45 (Ground Floor),  Jalan Plumbum U7/U,  Seksyen 7, 40000 Shah Alam,Selangor Darul Ehsan.",3.067217,101.490044,Shah Alam Sek 7 (1),"['Otai Burger Stall', 'Abichail Barbershop']"
99speedmart,convenience_store,99SpeedMart @Alam Jaya,"32 & 34(G), Jalan Alam Jaya 19, Taman Alam Jaya, 43200 Cheras, Selangor.",3.079837,101.765122,Alam Jaya,"['鼎丰海鲜饭店', 'Restaurant Seafood L&H']"
99speedmart,convenience_store,99SpeedMart @Rawang,"No.55 (G) , Jalan Bandar Rawang 3, 48000 Rawang, Selangor Darul Ehsan.",3.323698,101.577689,Rawang,"['Multicare Pharmacy Rawang', 'Room 18', 'Q5 Pool']"
99speedmart,convenience_store,99SpeedMart @Batang Berjuntai,"NO: 26 & 28 (Ground Floor),  Jalan Berjuntai 4,  45600 Batang Berjuntai, Selangor Darul Ehsan.",3.379125,101.410371,Batang Berjuntai,"['Restoran Wak Rom', 'Farmasi Materia Medica', 'Pejabat Post Batang Berjuntai']"
99speedmart,convenience_store,99SpeedMart @Taman Banting Indah,"No: 202, 204 & 206.(Ground Floor) Jalan Morib,Taman Banting Indah,42700 Banting,Selangor Darul Ehsan.",2.805874,101.49497,Taman Banting Indah,"['Kein Seng Tyre Battery Services', 'Madam Kopi-o', 'Pak Li Kopitiam']"
99speedmart,convenience_store,99SpeedMart @Jalan Istana,"No. 2 & 4 (G), Lorong Tingkat / KS 01, Klang Bandar Diraja, 41000 Klang, Selangor Darul Ehsan.",3.040465,101.448418,Jalan Istana,"[""Smiley's Bistro"", 'AIA Klang']"
99speedmart,convenience_store,99SpeedMart @Pandan Mewah,"No. B4-G-01, Block B, Hata Square, Jalan Mewah 1/1, 68000 Pandan Mewah, Selangor Darul Ehsan.",3.126268,101.763631,Pandan Mewah,"['Cosway', 'Poliklinik Hata Mewah', 'SSN9 Masakan Kampung']"
99speedmart,convenience_store,99SpeedMart @Telok Panglima Garang,"No.43,75 & 77 (Ground Floor),Jalan Besar,Pekan Telok,42500 Telok Panglima Garang,Selangor Darul Ehsan.",2.908646,101.467041,Telok Panglima Garang,"['Kutiq Andaman', 'newplace']"
99speedmart,convenience_store,99SpeedMart @Bandar Bukit Raja 1,"No.1 & 3, Jalan Zapin 1 , 41050 Bandar Bukit Raja Klang, Selangor Darul Ehsan.",3.07822,101.44066,Bandar Bukit Raja 1,"['Ramly Burger Stall', 'Sime Darby Project Office']"
99speedmart,convenience_store,99SpeedMart @Bayu Tinggi,"No.48 & 50 (G), Jalan Bayu Tinggi 8/KS 6, Batu Unjur, 41200 Klang, Selangor Darul Ehsan.",3.012406,101.428987,Bayu Tinggi,"['555 杂菜饭', 'Restoran Tou Yen 桃园海鲜饭店']"
99speedmart,convenience_store,99SpeedMart @Kayu Ara 1,"No: 8 & 9 (Ground Floor),  Pelangi One Avenue, Jalan PJU 6/A,  47400 Petaling Jaya, Selangor Darul Ehsan.",3.139445,101.614328,Kayu Ara 1,"['Cosway Farmasi', 'One Avenue (Dataran Pelangi Utama)', 'Despley']"
99speedmart,convenience_store,99SpeedMart @Taman Setia Rawang,"No.33 & 35 (G), Jalan Setia Rawang 1, Taman Setia, 48000 Rawang, Selangor Darul Ehsan.",3.303294,101.598813,Taman Setia Rawang,"['7 Eleven', 'Penjual & Servis Motor Gemuk', 'Restoran Keng Kee']"
99speedmart,convenience_store,99SpeedMart @Taman Jati Rawang,"No.37&39 (G), Jalan 1 B, Batu 17 Taman Jati 48000 Rawang Selangor.",3.307444,101.585758,Taman Jati Rawang,"['Restoran TTE Foodland', 'Restaurant 1288', 'Maybank (Pusat Pembiayaan Automobil)']"
99speedmart,convenience_store,99SpeedMart @Sungai Sembilang,"No: 7 & 9 (Ground Floor),  Jalan Kenari 1, Taman Kenari,  Sungai Sembilang, 45800 Jeram, Selangor Darul Ehsan.",3.191807,101.314538,Sungai Sembilang,"['Ninety Nine Speedmart Sg. Sembilang', 'Kedai Kopi Shin Lok (新乐茶餐室)', 'Masjid An Naim']"
99speedmart,convenience_store,99SpeedMart @Subang Jaya SS15,"NO: 3 & 5 (Ground Floor),  Jalan SS15/8A,  47500 Subang Jaya,Selangor Darul Ehsan.",3.074159,101.58742,Subang Jaya SS15,"['Lim Mesra Trading', 'Spacialist (Nails.Waxing)', 'Restoran Silva Tandoori Corner']"
99speedmart,convenience_store,99SpeedMart @Nzx Ara Jaya,"A-G-3A & A-G-5, Block A,  No:2, Jalan PJU 1A/41B,  Pusat Dagangan NZX, Ara Jaya,47301 Petaling Jaya,  Selangor Darul Ehsan.",3.114698,101.588697,Nzx Ara Jaya,"['TS Global Network Sdn Bhd', 'NORTHLAB SEAMS (M)SDN. BHD', 'Psychoacoustic Sound & Lights Sdn Bhd']"
99speedmart,convenience_store,99SpeedMart @TTDI Jaya,"No: 2 (Ground Floor),  Jalan U2/D, TTDI Jaya,  40150 Shah Alam,Selangor Darul Ehsan.",3.098554,101.555942,TTDI Jaya,"['OSI Technology Sdn Bhd', 'Kedai Gunting Rambut Pyramid', 'Klinik Mediviron TTDI Jaya']"
99speedmart,convenience_store,99SpeedMart @Bandar Pinggiran Subang 1,"No: 19 (Ground Floor),  Jalan Bulan BV U5/BV,  Bandar Pinggiran Subang,Seksyen U5, 40150 Shah Alam,  Selangor Darul Ehsan.",3.160324,101.547981,Bandar Pinggiran Subang 1,"['Kedai Runcit Anuar Bin Abdullah', 'Unisex Saloon @Subang 2', '7 Eleven Bandar Pinggiran Subang']"
99speedmart,convenience_store,99SpeedMart @Kuala Selangor 1,"No: 7 & 9 (Ground Floor),  Jalan Raja Abdullah,  45000 Kuala Selangor, Selangor Darul Ehsan.",3.340439,101.250404,Kuala Selangor 1,"['Sin Ban Ann', 'Restoran Rahmaniah', 'Restoran Rahmaniyah Pekan Kuala Selangor']"
99speedmart,convenience_store,99SpeedMart @USJ 1,"No.34,Jalan USJ 1/6C,USJ1 Subang,47620 Subang Jaya,Selangor Darul Ehsan.",3.048608,101.601336,USJ 1,"[""Subang Avenue's Corner"", 'Zam Seat Service', 'Wado Sakura Motorsport']"
99speedmart,convenience_store,99SpeedMart @Taman Medan Jaya,"J-G-7 & J-G-8 (Ground Floor), Block J, No.2A , Jalan PJS 2/1, Apartment Taman Medan Jaya, 46000 Petaling Jaya, Selangor Darul Ehsan.",3.083094,101.627728,Taman Medan Jaya,"['Pasaraya KK', 'Klinik TTDI', 'Klinik Famili TTDI']"
99speedmart,convenience_store,99SpeedMart @Sungai Jati,"No.35, 37 & 39 (G), Jalan Mohd Tahir 8, Off Jalan Sungai Jati ,41000 Klang, Selangor Darul Ehsan.",3.013359,101.460047,Sungai Jati,"['Cdm Autoparts Sdn Bhd', 'MK Bicycle Shop', 'Restoran Sri Meena ( Nasi Daun Pisang )']"
99speedmart,convenience_store,99SpeedMart @Tanjong Sepat,"No.5,7 & 9(Ground Floor),Pusat Perniagaan Tanjong,Lorong pasar 1,Jalan Besar,Tanjong Sepat,42800 Kuala Langat,Selangor Darul Ehsan.",2.661451,101.558239,Tanjong Sepat,"['Sixty9 Restaurant', 'Poliklinik Idaman']"
99speedmart,convenience_store,99SpeedMart @Alam Megah 2,"No.10, 12 & 14 (Ground Floor), Jalan Labu 28/23, Seksyen 28, 40400 Shah Alam, Selangor Darul Ehsan.",3.004777,101.561081,Alam Megah 2,"['Klinik Lourdes', 'Restoran Minang Megah', 'Klinik Alam Megah - Ahmad Shah']"
99speedmart,convenience_store,99SpeedMart @Bandar Mahkota Cheras 1,"21(G),Jalan Temenggung 5/9, Sek.9,Bandar Mahkota Cheras,43200 Cheras,Selangor.",3.052063,101.788978,Bandar Mahkota Cheras 1,"['Asean Puppy Pet Shop', '肥婆板面', 'Nasi Lemak Famous Cafe']"
99speedmart,convenience_store,99SpeedMart @Pinggiran Batu Caves 1,"NO: 29, 31 & 33 (Ground Floor),  Jalan PGN 1A/1, Pinggiran Batu Caves,  68100 Batu Caves,Selangor Darul Ehsan.",3.250551,101.692242,Pinggiran Batu Caves 1,"['Damai Bistro', 'Azhan LP Enterprise', 'Klinik Hasniah & Elani']"
99speedmart,convenience_store,99SpeedMart @USJ 16,"No.5,Jalan USJ 16/2G,47630 Subang Jaya,Selangor Darul Ehsan.",3.032173,101.577432,USJ 16,"['Kedai Gunting Rambut Murugan USJ16', 'Auto Spa Clean & Shine', 'Pasar Segar']"
99speedmart,convenience_store,99SpeedMart @Bukit Tinggi 1,"No.35 & 37(Ground Floor), Jalan Batu Nilam 4, Bandar Bukit Tinggi, 41200 Klang, Selangor Darul Ehsan.",3.007681,101.435682,Bukit Tinggi 1,"['Fortune Noodles House', 'Restoran Pelita']"
99speedmart,convenience_store,99SpeedMart @Taman Saujana Puchong,"No.29(Ground Floor),Jalan SP 3/9,Taman Saujana Puchong,47100 Puchong,Selangor Darul Ehsan.",2.989949,101.640076,Taman Saujana Puchong,"['Monster Burger', 'Ikan Bakar Meletop', 'Restoran Al-Awwal Maju']"
99speedmart,convenience_store,99SpeedMart @Taman Sentosa Perdana,"No. 2(G), Jalan Temenggung 15/ KS 7, Off Sg. Jati,Taman Sentosa Perdana, 41200 Klang, Selangor Darul Ehsan.",3.005452,101.483254,Taman Sentosa Perdana,"['Sentosa Specialist Hospital', 'Diamond Shine Car Centre']"
99speedmart,convenience_store,99SpeedMart @Taman Wawasan Puchong,"No.40, 42 & 44,Jalan Wawasan 5/2,Pusat Bandar Puchong,47100 Puchong,Selangor Darul Ehsan.",3.025059,101.628329,Taman Wawasan Puchong,"['Kopitiam Kaki Bukit', '开心小厨 Kai Xin Little Kitchen', 'Restoran Hee Lin 囍臨海鮮餐館']"
99speedmart,convenience_store,99SpeedMart @Sunway MAS,"No: 22-1 & 22A-1 (Ground Floor),  Jalan PJU 1/3A,  SunwayMas Commercial Centre,47301 Petaling Jaya,  Selangor Darul Ehsan.",3.120547,101.599018,Sunway MAS,"['Restoran Hua Shen (华绅风味食馆)', 'Restoran Heong Hong Kee 香红饭店', '冼都阿叶福建面']"
99speedmart,convenience_store,99SpeedMart @Taman Putra Perdana,"No.2,Jalan Putra Perdana 2/3,Taman Putra Perdana,47100 Puchong,Selangor Darul Ehsan.",2.947262,101.618597,Taman Putra Perdana,"['Klinik 1Malaysia', 'Burger Oblong', 'Cosway @ Taman Putra Perdana']"
99speedmart,convenience_store,99SpeedMart @Bandar Puchong Jaya,"No.16(Ground Floor),Jalan Tempua 2A,Bandar Puchong Jaya,47100 Puchong,Selangor Darul Ehsan.",3.042169,101.623909,Bandar Puchong Jaya,"['Amazon Cyber Cafe', 'Poliklinik Cahaya', 'Era Tuition Centre']"
99speedmart,convenience_store,99SpeedMart @Sri Andalas 2,"No. 1(G), Jalan Sri Damak 17, Kawasan 2 Taman Sri Andalas, 41200 Klang, Selangor Darul Ehsan.",3.021695,101.450949,Sri Andalas 2,"['Restoran Sriga', 'Mode House Hair Salon']"
99speedmart,convenience_store,99SpeedMart @Shah Alam Sek 27,"No.35 & 37 (Ground Floor), Jalan Teras Jernang 27/8, Taman Bunga Negara, Seksyen 27, 40400 Shah Alam, Selangor Darul Ehsan.",3.022537,101.567283,Shah Alam Sek 27,"['Kedai Murah Murah', 'Restoran Al Hamsy']"
99speedmart,convenience_store,99SpeedMart @Taman Kajang Indah,"No.1 (G) ,Jalan Kajang Indah 1, Taman Kajang Indah, Sungai Chua, 43000 Kajang, Selangor Darul Ehsan.",2.98367,101.779584,Taman Kajang Indah,"['Sato Auto Accessories Sdn Bhd', 'Fruit Stall Sg.chua', 'Gerai Buah']"
99speedmart,convenience_store,99SpeedMart @Subang Jaya SS17,"NO: 7 & 9 (Ground Floor), Wisma Dicor, Jalan SS17/1A, 47500 Subang Jaya,Selangor Darul Ehsan.",3.079152,101.580552,Subang Jaya SS17,"['Trumer', 'Syamaltra Sdn Bhd', 'Healing Rooms']"
99speedmart,convenience_store,99SpeedMart @Dataran Mentari,"No.12A (Ground Floor), Jalan PJS 8/11, Dataran Mentari, 46150 Petaling Jaya, Selangor Darul Ehsan.",3.077941,101.610476,Dataran Mentari,"['Restoran Nariza Tomyam & Seafood', 'Nariza Tom Yam', 'PennyLane Studio']"
99speedmart,convenience_store,99SpeedMart @Taman Meru Indah,"No: 39A,Jalan Meru Indah 1, Taman Meru Indah, 42200 Kapar  Klang, Selangor Darul Ehsan.",3.13591,101.41874,Taman Meru Indah,"['Klinik Keluarga Adibah Meru', 'Restoran Bukan Kopitiam', 'KK Supermart Meru Indah']"
99speedmart,convenience_store,"99SpeedMart @Jalan Pekan Baru, Meru","L6-1-13, Jalan Pekan Baru 35, Off Jalan Meru ,41050 Klang Selangor Darul Ehsan.",3.064228,101.45567,"Jalan Pekan Baru, Meru","['Circus Klang Parade', 'Taman Rasnah Restaurant']"
99speedmart,convenience_store,99SpeedMart @Taman Bukit Kinrara,"No: 2 & 4, Jalan TBK 1/6,Taman Bukit Kinrara,47170 Puchong,Selangor Darul Ehsan.",3.041194,101.636097,Taman Bukit Kinrara,"['CleanPro Express', 'Klinik New Medik', 'Barradik Gym']"
99speedmart,convenience_store,"99SpeedMart @Jalan Kapar, Klang","No. 14 & 16 (Ground Floor), Jalan Kapar, 41000 Klang, Selangor Darul Ehsan.",3.05052,101.448456,"Jalan Kapar, Klang","['Celcom MTS Communication S/B', 'ALC College (HQ)']"
99speedmart,convenience_store,99SpeedMart @Jalan Besar Pekan Kapar,"No. 258 & 260 (Ground Floor), Jalan Besar / KU 13,Pekan Kapar, 42200 Kapar, Selangor Darul Ehsan.",3.139038,101.370181,Jalan Besar Pekan Kapar,"['Namena Beauty & Boutique', 'Familymart']"
99speedmart,convenience_store,"99SpeedMart @PJ, Sec 11","No: 17, Jalan 11/2,  Section 11,  46200 Petaling Jaya,Selangor Darul Ehsan.",3.110809,101.645495,"PJ, Sec 11","[""Khadijah's Kitchen"", 'Klinik Haiwan & Surgeri Dhillon', 'K & F Lane Cafe']"
99speedmart,convenience_store,"99SpeedMart @PJ, SS6","No: B-G-01 (Ground Floor),  Dataran Glomac,  Jalan SS 6/20, Kelana Jaya,47301 Petaling Jaya,  Selangor Darul Ehsan.",3.102217,101.600273,"PJ, SS6","['Mahajaya Tuition Centre', 'Ravi Hair Saloon', 'Master Burger KJ']"
99speedmart,convenience_store,99SpeedMart @Sunway PJS 9,"No.UG23, Jalan PJS 9/1A, Bandar Sunway, 46150 Petaling Jaya, Selangor Darul Ehsan.",3.060832,101.610133,Sunway PJS 9,"['MOKMEK Kelantan Food Etc.', 'Aroma Sense Beauty & Body Sanctuary', 'Cleanpro Express @ Lagoon Perdana']"
99speedmart,convenience_store,"99SpeedMart @Kota Damansara, Sek 8","No: 32 (Ground Floor),  Jalan Pekaka 8/4,  Seksyen 8, Kota Damansara,47810 Petaling Jaya,  Selangor Darul Ehsan.",3.175728,101.575436,"Kota Damansara, Sek 8","['Rpm Engineers Sdn Bhd', 'Kedai Serbanika 2Mart']"
99speedmart,convenience_store,"99SpeedMart @Bangi, Sek 7","No: 62 (G) ,Jalan 7/7 B, Section 7, 43650 Bandar Baru Bangi, Selangor Darul Ehsan.",2.97122,101.772963,"Bangi, Sek 7","['Smart Hotel@Bangi Sect 7', 'Otai Burger Section 7 Bangi', 'Free-fliers']"
99speedmart,convenience_store,99SpeedMart @Bukit Rahman Putra,"No: 7 & 9 (Ground Floor),  Jalan BRP 6/12,  Bukit Rahman Putra,47000 Shah Alam,  Selangor Darul Ehsan.",3.227564,101.558109,Bukit Rahman Putra,"['渔人厅 Fresherman Seafood Restaurant & Cafe', 'Farmasi Vitacare', 'Wei Sheng Hardware']"
99speedmart,convenience_store,99SpeedMart @Taman Raja Uda,"No: 7 (G), Lorong Orkid 2B, Off Jalan Lengkongan, Taman Raja Uda, 42000 Pelabuhan Klang, Selangor Darul Ehsan.",3.010841,101.405844,Taman Raja Uda,"['Klinik Aminah', ""Haja's Cafe""]"
99speedmart,convenience_store,99SpeedMart @Taman Kajang Mewah,"No.15,Jalan Kajang Mewah 3,Taman Kajang Mewah,Sungai Chua,43000 Kajang, Selangor Darul Ehsan.",2.975967,101.780303,Taman Kajang Mewah,"['Poliklinik Damai Emergency', 'Klinik Premier', 'Sup Meletup']"
99speedmart,convenience_store,99SpeedMart @Taman Petaling Utama,"No.71-G & 72-G, Jalan PJS 1/50, Old Klang Road, 46150 Petaling Jaya, Selangor Darul Ehsan.",3.079055,101.651235,Taman Petaling Utama,"['Pathway Experience Sdn. Bhd.', 'Klinik Lana', 'Displaymax']"
99speedmart,convenience_store,99SpeedMart @Taman Wangsa Ukay,"Lower Gorund Of No.1, Jalan Wangsa 11, Bukit Antarabangsa, 68000 Ampang, Selangor Darul Ehsan.",3.191636,101.771334,Taman Wangsa Ukay,"['Restoran Krua Amani', 'Nasrah Cafe Masakan Thai & Melayu', 'Klinik Izham @ Bukit Antarabangsa']"
99speedmart,convenience_store,99SpeedMart @Shah Alam Sek 20,"No.12 & 14 (Ground Floor), Jalan Singa D/20 D, Seksyen 20, 40000 Shah Alam, Selangor Darul Ehsan.",3.055454,101.541692,Shah Alam Sek 20,"['Bubblelab Laundry Arcade', 'LIDO Saloon Gunting Rambut', 'Farmasi Ultra Medic']"
99speedmart,convenience_store,"99SpeedMart @PJ, New Town","No: 22 (Ground Floor),  Jalan 52/18,  46200 Petaling Jaya,Selangor Darul Ehsan.",3.098843,101.64527,"PJ, New Town","['State Proheal Dental Specialist Clinic', '7-11 PJ State', 'Jabatan Penguatkuasaan & Keselamatan MBPJ']"
99speedmart,convenience_store,99SpeedMart @Kampung Tasik Tambahan,"No. 14-1(Ground Floor), Jalan 3/2, Kampung Tasik Tambahan, 68000 Ampang, Selangor Darul Ehsan.",3.128903,101.776173,Kampung Tasik Tambahan,"[""Paul's Corner"", 'KT Cash & Carry', 'Dreamcar Trade Sdn Bhd']"
99speedmart,convenience_store,99SpeedMart @Taman Sri Kemuning,"No.2 (Ground Floor), Jalan Sungai Pelubung 32/R, Taman Sri Kemuning, Seksyen 32, 40200 Shah Alam, Selangor Darul Ehsan.",3.01638,101.529463,Taman Sri Kemuning,"['JPN Auto Sport', 'Klinik Dan Surgeri Alpha Medic']"
99speedmart,convenience_store,99SpeedMart @Happy Garden,"No. 2548 & 2550 (G), Persiaran Raja Muda Musa, 41100 Klang, Selangor Darul Ehsan.",3.029173,101.429417,Happy Garden,"['Klinik Pergigian Fernadez And Lim Dental Surgery', 'Klinik Pergigian Fernandez', 'Ah Chai Car Wash']"
99speedmart,convenience_store,99SpeedMart @Taman Impian Ehsan,"No.1 (G),Jalan Impian,Taman Impian Ehsan,43300 Seri Kembangan,Selangor Darul Ehsan.",3.023537,101.750509,Taman Impian Ehsan,"['Klinik Impian Sdn Bhd', 'Grandix Auto Service', 'Restoran Sri Murni Tom Yam & Seafood']"
99speedmart,convenience_store,99SpeedMart @Sungai Besar 1,"No: 27 & 29 (Ground Floor), Jalan SBBC 7, Sungai Besar Business Centre,45300 Sungai Besar, Selangor Darul Ehsan.",3.673577,100.98888,Sungai Besar 1,"['Maju Edar Sg Besar', 'Maju Edar', 'Cool Blog']"
99speedmart,convenience_store,99SpeedMart @Plaza Serdang Raya,"Unit G-18,G-18A,G-18B,G-19,G-19A,G-19B&G-19C,Plaza Serdang Raya,Taman Serdang Raja,43300 Sri Kembangan, Selangor Darul Ehsan.",3.042897,101.704204,Plaza Serdang Raya,"['愛心園素食 Loving Garden Vegetarian Restaurant', '7-Elevan Serdang Raya', 'Twinwork Electrical&Hardware']"
99speedmart,convenience_store,99SpeedMart @Pandan Utama,"SA13-G & SA14-G, Lorong Pertama 5, Pandan Utama, 68000 Ampang, Selangor Darul Ehsan.",3.141855,101.747458,Pandan Utama,"['FJ Fishmart', 'Restoran Cahaya Tajira 2', 'Alat Tulis Cekal']"
99speedmart,convenience_store,99SpeedMart @Sri Muda 2,"No.2 (Ground Floor), Jalan D 25/D, Taman Perindustrian Axis, Seksyen 25, 40400 Shah Alam, Selangor Darul Ehsan.",3.026028,101.542666,Sri Muda 2,"['Pusat Tayar Sky River', 'NSK Supermarket', 'Royal Comfort Hotel']"
99speedmart,convenience_store,99SpeedMart @Taman Dato Hormat,"No.450, Jalan Senai, Taman Dato Hormat, 46000 Petaling Jaya, Selangor Darul Ehsan.",3.076731,101.604327,Taman Dato Hormat,"['阿峰（乾）肉骨茶', 'Syarikat Motor Y.K Chong', '祥来烧腊饭店']"
99speedmart,convenience_store,99SpeedMart @Bandar Puchong Utama 1,"No.101(Ground Floor),Jalan BPU 2,Bandar Puchong Utama,47100 Puchong,Selangor Darul Ehsan.",2.995799,101.621855,Bandar Puchong Utama 1,"['Bitter Sweet Corner Bakery', 'newplace']"
99speedmart,convenience_store,99SpeedMart @Merdeka Place,"A-2-G & A-3-G, Merdeka Place, Jalan MPL 1, Off Jalan Merdeka, Kampung Baru Ampang, 68000 Ampang, Selangor Darul Ehsan.",3.139145,101.764187,Merdeka Place,"[""D'Olive Hotel"", '安邦龙凤茶餐室']"
99speedmart,convenience_store,99SpeedMart @Bandar Putera,"No:1, Jalan Kebun Nenas 1A/KS 7, Bandar Putera, Jalan Kebun, 42200 Klang, Selangor Darul Ehsan.",2.996506,101.490752,Bandar Putera,"['Pasar Malam Bandar Putra Klang', 'Restoran De Shazwan', 'UC Blasting & Painting']"
99speedmart,convenience_store,99SpeedMart @Pinggiran USJ,"No.3 & 5(Ground Floor),Jalan Pinggiran USJ 1/9,Pinggiran USJ,47610 Subang Jaya,Selangor Darul Ehsan.",3.050161,101.555597,Pinggiran USJ,"['7-11 Pinggiran USJ', '7-Eleven', 'T&T Fresh Market & Distributor']"
99speedmart,convenience_store,99SpeedMart @Bandar Botanik 2,"No:8 & 10(G), Jalan Palma Raya, Bandar Botanik, 41200 Klang ,Selangor Darul Ehsan.",2.987918,101.428725,Bandar Botanik 2,"['Professional Auto Grooming Solution', 'Teck Hing Hardware Trading', 'ASC Auto Service Centre Sdn Bhd']"
99speedmart,convenience_store,99SpeedMart @Taman Putra Prima,"No.32,Jalan PP 2/2,Taman Putra Prima,47100 Puchong,Selangor Darul Ehsan.",2.977092,101.591517,Taman Putra Prima,"['安咖啡海南茶室 Restaurant Onn Coffee', 'Ssl Barber Shop']"
99speedmart,convenience_store,99SpeedMart @Putra Permai,"No:4 & 6(G), Jalan BPP 8/4, Permai Place, Bandar Putra Permai, 43300 Seri Kembangan, Selangor Darul Ehsan.",2.987185,101.664899,Putra Permai,"['Snooker Putra Permai', 'Dandy Laundry']"
99speedmart,convenience_store,99SpeedMart @Taman Mayang Jaya,"No: 21 &23 (Ground Floor),  Jalan SS26/8,  Taman Mayang Jaya,47301 Petaling Jaya,  Selangor Darul Ehsan.",3.117741,101.604864,Taman Mayang Jaya,"['The Alphabet Press', 'Wheel Speed Automobile Tyre Sdn Bhd']"
99speedmart,convenience_store,99SpeedMart @Jalan Kristal,"No: 23 & 25,  Jalan Kristal AS 7/AS,  Seksyen 7,40000 Shah Alam,  Selangor Darul Ehsan.",3.075959,101.488992,Jalan Kristal,"['Rumah Mak Ayam', 'Restoran Kuali Nabil', 'Poliklinik An Nisa']"
99speedmart,convenience_store,99SpeedMart @Cova Square,"No: G.09, Cova Square,  Jalan Teknologi,  Kota Damansara PJU 5,47810 Petaling Jaya,  Selangor Darul Ehsan.",3.147801,101.575371,Cova Square,"['The Daily Press Coffee', 'SUBWAY', 'Jawbreaker Cyber Cafe']"
99speedmart,convenience_store,99SpeedMart @Taman Makmur,"No: 35 & 27 (Ground Floor), Jalan Makmur 1, Taman Makmur, 45500 Tanjong Karang, Selangor Darul Ehsan.",3.41843,101.186568,Taman Makmur,"['Klinik Sri Jaya', 'BHP Tanjung Karang']"
99speedmart,convenience_store,99SpeedMart @Sri Andalas 3,"No:3A & 5A,Slot Sri Sarawak 36,Taman Sri Andalas, 41200 Klang, Selangor Darul Ehsan.",3.015304,101.449244,Sri Andalas 3,"['Poliklinik Kumar', 'Restaurant Klang Steak House', 'Perodua Taman Sri Andalas']"
99speedmart,convenience_store,99SpeedMart @Pusat Bandar Latania,"No: 6 & 8(G), Jalan Nagasari E 36/E, Pusat Bandar Latania, Seksyen 36,40470 Shah Alam, Selangor Darul Ehsan.",3.021684,101.482619,Pusat Bandar Latania,"['MyMYDIN', 'Farmasi Ideal']"
99speedmart,convenience_store,99SpeedMart @Pendamar Indah,"No:36 & 38(G), Solok Pendamar Indah 1, Pendamar Indah, 42000 Port Klang, Selangor Darul Ehsan.",2.988224,101.419675,Pendamar Indah,"['MyMydin Tmn Pendamar Indah', 'OldTown White Coffee']"
99speedmart,convenience_store,99SpeedMart @Bandar Baru Sungai Buloh,"No: 2375 & 2376,  Jalan 1A/1,  Bandar Baru Sungai Buloh,47000 Sungai Buloh,  Selangor Darul Ehsan.",3.210382,101.564716,Bandar Baru Sungai Buloh,"['V Focus Vision Optics', 'Cheng Eng Auto Accessories', 'Sharp V Optical Centre']"
99speedmart,convenience_store,99SpeedMart @Dataran Selayang,"No:1-G & 2-G, Jalan Dataran Selayang 1, Dataran Selayang, 68100 Batu Caves, Selangor Darul Ehsan.",3.237794,101.673669,Dataran Selayang,"['Spa Car Wash', 'Batu Caves Tyre And Services S/B', ""D'great Sunset""]"
99speedmart,convenience_store,99SpeedMart @Taman Gasing Indah,"No.433 & 436 (Ground Floor), Jalan 5/46, Taman Gasing Indah, 46000 Petaling Jaya, Selangor Darul Ehsan.",3.087037,101.662968,Taman Gasing Indah,"['Ecomach Auto & Tyre Service Centre', 'SUARAM (Suara Rakyat)', 'Gasing Veterinary Hospital']"
99speedmart,convenience_store,99SpeedMart @Shah Alam Sek 34,"No.67 & 69 (Ground Floor), Jalan B/34B, Seksyen 34, 40460 Shah Alam, Selangor Darul Ehsan.",3.003909,101.500999,Shah Alam Sek 34,"['Grahawoods (M) Sdn. Bhd.', 'Tomyam Mohd Noor', 'Restoran Tom Yam Mohd Noor']"
99speedmart,convenience_store,99SpeedMart @Taman Puncak Jalil,"No:129 & 131(G), Jalan PUJ 3/9, Taman Puncak Jalil, Bandar Putra Permai, 43300 Seri Kembangan, Selangor Darul Ehsan.",3.021855,101.677391,Taman Puncak Jalil,"['Butik Ibu Dan Bayi Gugu', 'Klinik Perdana PUJ3', 'Pyhsiocare']"
99speedmart,convenience_store,"99SpeedMart @PJ, SS5","No: 12 & 14 (Ground Floor),  Jalan SS 5A/9,  47301 Petaling Jaya,Selangor Darul Ehsan.",3.095522,101.605851,"PJ, SS5","['Klinik Dr Amir Abbas', 'Aditri Restaurant']"
99speedmart,convenience_store,99SpeedMart @Jalan Taming Permai,"No.1-2 & 3-2, Jalan Taming Permai 1, Taman Taming Jaya, 43300 Seri Kembangan, Selangor Darul Ehsan.",3.024137,101.730489,Jalan Taming Permai,"['Honda( Tanjung Balai Auto Sdn Bhd )', 'Scout Training Centre', 'Tanjung Balai (M) Sdn Bhd']"
99speedmart,convenience_store,99SpeedMart @Shah Alam Sek 15,"No.32-G & 34-G, Jalan Pahat G 15/G, Seksyen 15, 40200 Shah Alam, Selangor Darul Ehsan.",3.06366,101.525878,Shah Alam Sek 15,"['Dataran Otomobil Seksyen 15', 'Restoran Nasi Kandar Subur Seksyen 15', 'Restoran Subur']"
99speedmart,convenience_store,99SpeedMart @Port Klang 2,"No.38 & 40 (Ground Floor), Jalan Sungai Aur, 42000 Pelabuhan Klang, Selangor Darul Ehsan.",2.999463,101.396617,Port Klang 2,"['Pak Lee Cendol', 'Harbour Point', 'First Family Optic']"
99speedmart,convenience_store,"99SpeedMart @PJ, SS2","No: 7 & 9 (Ground Floor),Jalan SS2/55,47300 Petaling Jaya,Selangor Darul Ehsan.",3.117012,101.621343,"PJ, SS2","['Klinik Bajan', 'Titan Badminton Shop', 'SBL Bookshop']"
99speedmart,convenience_store,99SpeedMart @Putra Walk,"D-G-6, D-G-7 & D-G-8, Block D, Jalan PP 25, Taman Pinggiran Putra, Bandar Putra Permai, Seksyen 2, 43300 Seri Kembangan, Selangor Darul Ehsan.",2.991417,101.676158,Putra Walk,"['Cakes De Lemari', 'CakesdeLemari', 'Ole Ole Manis']"
99speedmart,convenience_store,"99SpeedMart @PJ, Sea Park","No:2 (Ground Floor),  Jalan 21/18,  46300 Petaling Jaya,Selangor Darul Ehsan.",3.108817,101.623705,"PJ, Sea Park","['Klinik Dr Amir Abbas', 'Mediveron', 'Mascana']"
99speedmart,convenience_store,"99SpeedMart @Jln Cecawi 6/33, Kota Damansara","No: 1 & 3 (Ground Floor),  Jalan Cecawi 6/33, Seksyen 6,  Kota Damansara,47810 Petaling Jaya,  Selangor Darul Ehsan.",3.161663,101.581947,"Jln Cecawi 6/33, Kota Damansara","['Sifoo Pets Kota Damansara', 'Nasi Kerabu Golok', 'Hlc Tyre & Auto Services Sdn Bhd']"
99speedmart,convenience_store,99SpeedMart @Taman Cahaya,"No.5 & 7(Ground Floor), Jalan Cahaya 14, Taman Cahaya, 68000 Ampang, Selangor Darul Ehsan.",3.145165,101.759264,Taman Cahaya,"['Boncafe Malaysia', 'Dagang Snow Car Wash', 'Restoran Al Nasrin']"
99speedmart,convenience_store,99SpeedMart @Bandar Puchong Utama 2,"No.15 & 17 (Ground Floor),Jalan PU 7/3,   Pusat Bandar Puchong Utama,  47140 Puchong,  Selangor Darul Ehsan.",2.991995,101.616806,Bandar Puchong Utama 2,"['Hedkandee Hair Studio', 'M Cut Hair Studio', 'Restoran Kawanku']"
99speedmart,convenience_store,99SpeedMart @Kota Kemuning 2,"No.2 (Ground Floor), Jalan Anggerik Vanilla AD 31/AD, Kota Kemuning, Seksyen 31, 40460 Shah Alam, Selangor Darul Ehsan.",3.005602,101.535128,Kota Kemuning 2,"['Balloon Buzz', 'Cravings Coffee House Kota Kemuning']"
99speedmart,convenience_store,99SpeedMart @Taman Klang Jaya,"No.32A & 34A(Ground Floor), Jalan Serunai 1, Taman Klang Jaya, 42100 Klang, Selangor Darul Ehsan.",3.009277,101.442281,Taman Klang Jaya,"['Good Wood Tyre Services Sdn Bhd', 'Goodwood Tyre Service', 'Fit Car Service Centre']"
99speedmart,convenience_store,99SpeedMart @Bandar Baru Selayang,"NO. 4 & 6 (Ground Floor),  Jalan 2/8,  Bandar Baru Selayang,68100 Batu Caves,  Selangor Darul Ehsan.",3.256036,101.656149,Bandar Baru Selayang,"['Klinik SP Care', 'Klinik Pergigian Raihan', 'Bank Simpanan Nasional']"
99speedmart,convenience_store,"99SpeedMart @Bangi, Sek 3","No: 3-A & 5-A, Jalan 3/69,  Seksyen 3, Bandar Baru Bangi,  43650 Kajang,Selangor Darul Ehsan.",2.938316,101.774864,"Bangi, Sek 3","['Farmasi Najah', ""Domino's Pizza""]"
99speedmart,convenience_store,99SpeedMart @Taman Kinrara Sek 3,"No: 24 & 25 (Ground Floor),  Jalan KS 3A, Seksyen 3,  Taman Kinrara,47190 Puchong,  Selangor Darul Ehsan.",3.060634,101.642396,Taman Kinrara Sek 3,"['Opensoft Technologies', 'Mh Delima Sdn. Bhd.', 'BEST AUTO WINDSCREEN SPECIALIST']"
99speedmart,convenience_store,99SpeedMart @Taman Assam Jawa,"No: 11 B & 13 B (Ground Floor),  Jalan 1, Taman Assam Jawa,  45700 Bukit Rotan,Selangor Darul Ehsan.",3.301023,101.288102,Taman Assam Jawa,"['Restoran Kassim Maju', 'Warung Mee Kari', 'Assam Jawa']"
99speedmart,convenience_store,99SpeedMart @Kampung Baru Subang,"No: 28(Lot 563)& No: 30(Lot 564)(GF),Jalan Lebuh Raya,Pekan Kampung Baru Subang,Seksyen U6,  40150 Shah Alam,Selangor Darul Ehsan.",3.144491,101.536769,Kampung Baru Subang,"['Salon Ying Ying', 'Welcome Inn Seafood Restaurant', 'Klinik Subang& Surgery Pmv']"
99speedmart,convenience_store,99SpeedMart @Sungai Jarom,"No: 52 (Ground Floor),  Jalan Langsat 5, Taman Sejahtera,  42600 Sungai Jarom,Selangor Darul Ehsan.",2.879426,101.496869,Sungai Jarom,"['Double 8 Convenience Store', 'Mydin Jenjarom', 'MyMydin @ Sungai Jarom']"
99speedmart,convenience_store,99SpeedMart @Subang U5 (2),"No: 1 & 1A (Ground & 1st Floor),  Jalan B U5/B (PS),  Seksyen U5, 40150 Shah Alam,Selangor Darul Ehsan.",3.178974,101.536113,Subang U5 (2),"['Klinik Pergigian Famili', 'Pasar Mini Aziki', '\ue30fPoliklinik Mutiara\ue30f']"
99speedmart,convenience_store,99SpeedMart @Taman Damai Utama,"No: 46 & 46-1 (Ground & 1st Floor),  Jalan Damai Utama 2,  Taman Damai Utama,47180 Puchong,  Selangor Darul Ehsan.",3.034541,101.665181,Taman Damai Utama,"['Restoran Kedai Makan Ahmad', 'Ipoh Curry Noodle House', 'Joe Burger Damai']"
99speedmart,convenience_store,99SpeedMart @Pekan Sungai Pelek,"No: 77 & 78 (Ground Floor),  Jalan Besar, Pekan Sungai Pelek,  43950 Sungai Pelek,Selangor Darul Ehsan.",2.642562,101.716799,Pekan Sungai Pelek,"['Zam Burger Kulaan', 'Klinik Singam', 'Softcare Pharmacy']"
99speedmart,convenience_store,99SpeedMart @PJCC,"No: 6 & 8 (Ground Floor),  Block B, Jalan PJS 5/30,  Pusat Dagangan PJS, PJS 5, 46000 Petaling Jaya,Selangor Darul Ehsan.",3.078938,101.626602,PJCC,"['Pusat Dagangan Petaling Jaya Selatan', 'Level Hub', 'Ar Rahnu X Change PJCC']"
99speedmart,convenience_store,99SpeedMart @Selayang Baru,"No: 5 & 5A (Ground Floor),  Jalan 29, Selayang Baru,  68100 Batu Caves, Selangor Darul Ehsan.",3.250991,101.666599,Selayang Baru,"['7-11 Selayang Baru', 'Kedai Tayar Dunlop']"
99speedmart,convenience_store,99SpeedMart @Dengkil,"No: 3 & 5 (Ground Floor),  Jalan Deluxe 3,  Pusat Perdagangan Deluxe,43800 Dengkil,  Selangor Darul Ehsan.",2.864049,101.676271,Dengkil,"['Cosway Dengkil.', '龙溪家乡海南包']"
99speedmart,convenience_store,99SpeedMart @Taman Sementa Utama,"No: 1 & 3 (Ground Floor),  Jalan Sementa 1,  Taman Sementa Utama,Batu 7, Jalan Kapar,  42100 Klang,Selangor Darul Ehsan.",3.093679,101.378314,Taman Sementa Utama,"['Coconut Shake BlurryFace', 'Simpang Tiga Burger', 'Snow Car Wash Sementa']"
99speedmart,convenience_store,99SpeedMart @MasGenuine Square,"No: 15 & 16 (Ground Floor),  MasGenuine Square,  Jalan Melati,48050 Kuang,Selangor Darul Ehsan.",3.236091,101.541415,MasGenuine Square,"['Nasi Ayam Aroma', 'Berjaya Maju Hardware Ent.', 'Azbi Centre Pakar Aircond Kereta']"
99speedmart,convenience_store,99SpeedMart @Bandar Puncak Alam 1,"No: 41 & 43 (Ground Floor),  Lorong AZ-Zaharah B 10/B,  Seksyen 10, Bandar Puncak Alam,42300 Bandar Puncak Alam,Selangor Darul Ehsan.",3.23262,101.413978,Bandar Puncak Alam 1,"['Klinik Dr. Roziana', 'Farmasi Puncak Alam']"
99speedmart,convenience_store,99SpeedMart @Taman Mulia Banting,"No: 39 & 41 (Ground Floor),  Jalan Mulia, Taman Mulia,  42700 Banting,Selangor Darul Ehsan.",2.812132,101.490485,Taman Mulia Banting,"['Bubblelab Laundry Arcade', 'Pasaraya Jazco', 'Restoran Rashid Tom Yam & Seafood']"
99speedmart,convenience_store,"99SpeedMart @Kota Damansara, Sek 4","No: 17 & 19 (Ground Floor),  Jalan Camar 4/2,  Kota Damansara Seksyen 4,47810 Petaling Jaya,Selangor Darul Ehsan.",3.153532,101.579706,"Kota Damansara, Sek 4","['Nasi Ayam Kukus Seri Yasmin', 'Future Tech Tyre Auto Services Sdn Bhd', 'Klinik Nadia']"
99speedmart,convenience_store,99SpeedMart @Taman Sri Watan,"No: 2 (Ground Floor),  Jalan Watan 6,  Taman Sri Watan,68000 Ampang,  Selangor Darul Ehsan.",3.139648,101.773271,Taman Sri Watan,"['Fong Ling Hair Design Saloon', 'Kedai Makanan Mee Sri Watan', '华登高佬板面']"
99speedmart,convenience_store,99SpeedMart @Taman Kajang Prima,"N0: 17 & 18 (Ground Floor),  Jalan KP 1/4,Taman Kajang Prima,43000 Kajang,Selangor Darul Ehsan.",2.982717,101.815645,Taman Kajang Prima,"['Carazon Hair & Beauty', 'RM2 素食店', 'GD Express (GDEx)']"
99speedmart,convenience_store,99SpeedMart @Taman Raja Nong,"No: 3212 & 3214 & 3216 (Ground Floor),  Jalan Kota Raja,  Taman Raja Nong,41000 Klang,  Selangor Darul Ehsan.",3.027855,101.463737,Taman Raja Nong,"['AR Burger', 'CleanPro Express Self Service Laundry', 'Pusat Tuisyen Impak Maksima']"
99speedmart,convenience_store,99SpeedMart @Klang Utama 2,"No: 3 & 5 (Ground Floor),  Solok Sungai Keramat 10C,  Taman Klang Utama,42100 Klang,  Selangor Darul Ehsan.",3.084176,101.411703,Klang Utama 2,"['Restoran Kau Shen', 'Soon Kee Seafood Restaurant']"
99speedmart,convenience_store,99SpeedMart @Bandar Country Homes,"No: 26 & 28 (Ground Floor),  Jalan Pusat BCH 1/3,  Bandar Country Homes,48000 Rawang,  Selangor Darul Ehsan.",3.325061,101.52524,Bandar Country Homes,"['Klinik Mediviron', 'SP Venture Hotel']"
99speedmart,convenience_store,99SpeedMart @Taman Kajang Sentral,"No: 103 & 105 (Ground Floor),  Jalan TKS 1,  Taman Kajang Sentral,43000 Kajang,Selangor Darul Ehsan.",2.977263,101.796395,Taman Kajang Sentral,"[""Restoran RBZ's Corner"", 'Anjung Jelita Spa & Beauty Centre']"
99speedmart,convenience_store,99SpeedMart @Taman Pandan Cahaya,"No: 34B-G & 35A-G,  Jalan Pandan Cahaya 2/2,  Pandan Cahaya, Taman Pandan Cahaya,  68000 Ampang, Selangor Darul Ehsan.",3.138411,101.757205,Taman Pandan Cahaya,"[""It's Hair Art"", 'YOO BROTHERS AUTO SERVICE CENTRE', 'LaundryBar']"
99speedmart,convenience_store,"99SpeedMart @PJ, SS3","No: 11A & 15 (Ground Floor),  Jalan SS3/29,  47300 Petaling Jaya,  Selangor Darul Ehsan.",3.095586,101.611035,"PJ, SS3","['Restoran Hup Soon', 'Chuan & Cycle Kedai Motor']"
99speedmart,convenience_store,99SpeedMart @Pekan Sabak Bernam,"Lot 619(PT 1799) & 620(PT 1800) GF,Jalan Raja Chulan,Taman Mutiara 2,Seksyen 5,Pekan Sabak Bernam,45200 Sabak Bernam, Selangor Darul Ehsan.",3.767984,100.98255,Pekan Sabak Bernam,"['7 Eleven', 'Zon Jimat Rm2 Sabak Bernam']"
99speedmart,convenience_store,99SpeedMart @Taman Serdang Perdana,"No: 19-1 & 51-1 (Ground Floor),Jalan SP 2/1,Taman Serdang Perdana,43300 Seri Kembangan,Selangor Darul Ehsan.",3.032033,101.708118,Taman Serdang Perdana,"['华阳养生馆', 'Family Lane Pharmacy']"
99speedmart,convenience_store,"99SpeedMart @Sunway, PJS  7","No: 3 (GF) & 5 (G & 1ST F),  Jalan PJS 7/13,Bandar Sunway,46150 Petaling Jaya,Selangor Darul Ehsan.",3.072767,101.61612,"Sunway, PJS  7","['Dobi KK (Self Service)', 'Sunvay Cycles']"
99speedmart,convenience_store,99SpeedMart @Prima Selayang,"No: 16 (Ground Floor),Prima Selayang, Jalan PS 6,KM 15, Jalan Rawang,68100 Batu Caves,Selangor Darul Ehsan.",3.24888,101.647856,Prima Selayang,"['Waters Mineral Water', 'Perabot Cafe Murah']"
99speedmart,convenience_store,99SpeedMart @Desa Coalfields,"No: 60 (Ground Floor),  Block B, Jalan DC 4/3,  Desa Coalfields,47000 Sungai Buloh,  Selangor Darul Ehsan.",3.234162,101.490108,Desa Coalfields,"['Klinik Desa Coalfields', 'Pasaraya Best']"
99speedmart,convenience_store,99SpeedMart @Bandar Puncak Alam 2,"No: 27 & 29 (Ground Floor),  Lorong Naluri Sukma B 8/B,Seksyen 8,Bandar Puncak Alam,42300 Kuala Selangor,Selangor Darul Ehsan.",3.229171,101.426466,Bandar Puncak Alam 2,"['Laundry Professor', 'Aqlan Hakim Bookstore', 'Klinik Ikhwan Puncak Alam']"
99speedmart,convenience_store,99SpeedMart @Taman Sri Sentosa,"No: 16 & 18 (Ground Floor),Jalan Dato Dagang 31,Taman Sentosa,41200 Klang,  Selangor Darul Ehsan.",2.996613,101.474272,Taman Sri Sentosa,"['吧生天后聖母殿', 'Pondok Polis', '7-Eleven']"
99speedmart,convenience_store,99SpeedMart @Pusat Hentian Kajang,"No: 17 & 19 (Ground Floor),  Jalan Hentian 3,  Off Jalan Reko,Pusat Hentian Kajang,43000 Kajang,Selangor Darul Ehsan.",2.958106,101.791365,Pusat Hentian Kajang,"['Pecel Lele Lakulanjaya', 'One Stop Printing']"
99speedmart,convenience_store,99SpeedMart @Putra Heights,"No: 53 (Ground & 1st Floor),Jalan Putra Mahkota 7/4A,Putra Heights,47650 Subang Jaya,Selangor Darul Ehsan.",2.993817,101.570598,Putra Heights,"['Laurea Curtains House', 'The First Hair Studio', 'Shazua D Corner']"
99speedmart,convenience_store,99SpeedMart @Bandar Sunway Semenyih,"No: 12A, Jalan Semenyih 3/1,  Bandar Sunway Semenyih,  43000 Semenyih,Selangor Darul Ehsan.",2.969988,101.843132,Bandar Sunway Semenyih,"['Burger CiliPadi', 'Surau Raudhatul Jannah', 'Bandar Sunway Semenyih']"
99speedmart,convenience_store,99SpeedMart @Batang Kali 1,"No: 55 & 57 (Ground Floor),Jalan Mahagoni 7/1,  Seksyen 4,Bandar Utama Batang Kali,44300 Batang Kali,Selangor Darul Ehsan.",3.460219,101.659132,Batang Kali 1,"['Pizza Hut Delivery (PHD)', 'Krabi Seafood']"
99speedmart,convenience_store,99SpeedMart @Bandar Teknologi Kajang,"No: 22 & 24 (Ground Floor),Jalan 1/2,Seksyen 1, Bandar Teknologi Kajang,43500 Semenyih,Selangor Darul Ehsan.",2.972431,101.828154,Bandar Teknologi Kajang,"['Klinik Mediviron', 'Mamak Bistro', 'Halina Collection']"
99speedmart,convenience_store,99SpeedMart @Taman Bukit Kuda,"No: 15 & 17 (Ground Floor),Lintang Perak / KU 1,Taman Bukit Kuda,41300 Klang,  Selangor Darul Ehsan.",3.046058,101.461882,Taman Bukit Kuda,"['Gentlemen Hair Cut 2', 'One Stop Snow Wash Centre', '天聖宮 @ Klang']"
99speedmart,convenience_store,99SpeedMart @Shah Alam Sek 26,"No: 2 (Ground Floor),Jalan Hujung Permatang Dua,  26/25B,Seksyen 26,40400 Shah Alam,  Selangor Darul Ehsan.",3.032419,101.570081,Shah Alam Sek 26,"['Alina Traditional Cake House', 'Bukit Saga Car Wash & Polish Wax']"
99speedmart,convenience_store,99SpeedMart @Taman Tun Perak,"No: 1-1(G), Jalan Tun Perak 1, Taman Tun Perak, 43200 Cheras, Selangor.",3.063596,101.757172,Taman Tun Perak,"['Bangkok On Top Restaurant & Bar', 'Lee Chong Wei Sport Center&Academy', 'Sixty 6 Hair Studio']"
99speedmart,convenience_store,99SpeedMart @Semenyih Sentral,"No: 19 & 21 (Ground Floor),Jalan Semenyih Sentral 1,Semenyih Sentral,43500 Semenyih,Selangor Darul Ehsan.",2.945473,101.844537,Semenyih Sentral,"['Otai Burger Semenyih Sentral', 'AmBank Semenyih', 'Hong Leong Bank Semenyih Sentral']"
99speedmart,convenience_store,99SpeedMart @Taman Kosas,"No: 24 & 26 (Ground Floor),Jalan Kosas 1/4,Taman Kosas,68000 Ampang,Selangor Darul Ehsan.",3.146397,101.770862,Taman Kosas,"[""Kedai Gunting Abdoel's"", ""Abdoel's Barber Shop"", ""Abdoel's Gunting Rambut""]"
99speedmart,convenience_store,99SpeedMart @Pusat Bandar Puchong 1,"No: 1 (Ground Floor),Jalan Bandar Sembilan,Pusat Bandar Puchong,47100 Puchong,Selangor Darul Ehsan.",3.032923,101.614006,Pusat Bandar Puchong 1,"['陈秀莲鱼头(蒲种)', '100号茶餐室', 'Restoran Kepala Ikan Jalan Lima']"
99speedmart,convenience_store,99SpeedMart @Kuala Selangor 2,"No: 71 & 73 (Gound Floor),Jalan Medan Niaga 2,45000 Kuala Selangor,Selangor Darul Ehsan.",3.321502,101.269734,Kuala Selangor 2,"['Hakim Auto Garage', 'Mak Engku Steamboat & Grill', 'Mykōri Dessert Café']"
99speedmart,convenience_store,99SpeedMart @Bandar Tasik Kesuma,"No: 20 (Ground Floor),Jalan Kesuma 3/3,Bandar Tasik Kesuma,43700 Beranang,Selangor Darul Ehsan.",2.906203,101.863343,Bandar Tasik Kesuma,"['Restoran Ar - Rahman', 'Pasar Malam Bandar Tasik Kesuma', 'Restoran Perindu']"
99speedmart,convenience_store,99SpeedMart @Taman Bukit Serdang 1,"No: 7 & 9 (Ground Floor),Serdang Square,  Jalan BS 5/26A,Taman Bukit Serdang,43300 Seri Kembangan,Selangor Darul Ehsan.",3.022627,101.696275,Taman Bukit Serdang 1,"['Half Hill Mamak', 'Mamak Stall Next To Balai Polis', '5彩板面']"
99speedmart,convenience_store,99SpeedMart @Taman Puchong Permai,"No: 1 (Ground Floor),Jalan Puchong Permai 2,Taman Puchong Permai,47100 Puchong,Selangor Darul Ehsan.",3.008463,101.599361,Taman Puchong Permai,"['Burger Najib & Ila', 'Klinik Pergigian Zainal', 'Klinik Zuraidah']"
99speedmart,convenience_store,99SpeedMart @Bandar Bukit Raja 2,"No: 1 (Ground Floor),Jalan Makyong 5B/KU5,Bandar Bukit Raja,41050 Klang,Selangor Darul Ehsan.",3.090379,101.430542,Bandar Bukit Raja 2,"['Bubblelab Laundry Arcade', 'B Quik Auto Services & Repair', 'Retrons Sdn Bhd']"
99speedmart,convenience_store,99SpeedMart @Taman Universiti Indah,"No: 1 & 3 (Ground Floor),Jalan Indah 2/4,Taman Universiti Indah,43300 Seri Kembangan,Selangor Darul Ehsan.",3.00527,101.693207,Taman Universiti Indah,"['Restoran Hi-View', '皇城茶室']"
99speedmart,convenience_store,99SpeedMart @Taman Banting Baru,"No: 22 (Ground Floor),Jalan BB 1/2,Taman Banting Baru,42700 Banting,Selangor Darul Ehsan.",2.818787,101.455928,Taman Banting Baru,"['Laundry Hub-Banting Baru', 'Zuhan Komputer']"
99speedmart,convenience_store,99SpeedMart @USJ 8,"No: 1, Jalan USJ 8/2B,47630 Subang Jaya,Selangor Darul Ehsan.",3.043711,101.590446,USJ 8,"['Restoran Khalifah', 'Rash Two Sam Barber Salon', '7-11']"
99speedmart,convenience_store,99SpeedMart @Taman Seri Serdang,"No: 3360 & 3361 (Ground Floor),Jalan 18/31,Taman Seri Serdang,43300 Seri Kembangan,Selangor Darul Ehsan.",3.009936,101.714488,Taman Seri Serdang,"['Sala Tomyam Seafood', 'Eco Synergy Solutions Sdn Bhd', 'Wing Automobile Service Center']"
99speedmart,convenience_store,99SpeedMart @Flora Damansara,"No: C-G-K09, C-G-K10 & C-G-K11,Block C, Flora Damansara,No: 1, Jalan PJU 8/9,Bandar Damansara Perdana,47820 Petaling Jaya,Selangor Darul Ehsan.",3.17711,101.617708,Flora Damansara,"['Laundry DIY 24H', 'Selera Pantai Timur', 'Royal Burger Ramly']"
99speedmart,convenience_store,99SpeedMart @Alam Avenue,"No: B-3A & B-5 (Ground Floor),Jalan Serai Wangi G 16/G,  Alam Avenue,Seksyen 16,40200 Shah Alam,Selangor Darul Ehsan.",3.05743,101.491065,Alam Avenue,"['Cimb Group', 'Watson']"
99speedmart,convenience_store,99SpeedMart @Saujana Utama,"No: 23 & 25 (Ground Floor),Jalan Bidara 9/3,Saujan Utama 3,47000 Sungai Buloh,Selangor Darul Ehsan.",3.202519,101.484314,Saujana Utama,"['Adan Laundry', 'The Score Tuition Centre', 'Khalah Foto Enterprise']"
99speedmart,convenience_store,99SpeedMart @Bandar Parklands,"No: 11 & 13 (Ground Floor),Jalan JED 3/KS 9,Bandar Parklands,Pandamaran,41200 Klang,Selangor Darul Ehsan.",2.972934,101.460968,Bandar Parklands,"['HLS Hardware & Trading', 'Klinik Haiwan Gembira', ""D'chettys Corner (Parklands)""]"
99speedmart,convenience_store,99SpeedMart @Damansara Jaya,"No: 69 & 71 (Ground Floor),Jalan SS 22/19,Damansara Jaya,47400 Petaling Jaya,Selangor Darul Ehsan.",3.128411,101.616227,Damansara Jaya,"['Hin Kee Hong Kong Dim Sum', 'Deathstar Shisha', 'Restoran New Peng Wah 新槟华家乡饭店']"
99speedmart,convenience_store,99SpeedMart @Taman Desa Permai,"No: 22 & 26 (Ground Floor),Jalan Meranti Putih,Taman Desa permai 2,41050 Klang,Selangor Darul ehsan.",3.147629,101.438095,Taman Desa Permai,"['Restoran Firdaus', 'Speedmart Taman Desa Permai', 'Klinik Mediviron']"
99speedmart,convenience_store,99SpeedMart @Taman Saujana Impian,"No: 21 & 22 (Ground Floor),Jalan Impian Makmur 3/B,Taman Saujana Impian,43000 Kajang,Selangor Darul Ehsan.",3.01899,101.79148,Taman Saujana Impian,"['QA Auto Service', 'Maryna Packaging Stuff']"
99speedmart,convenience_store,99SpeedMart @Bandar Baru Salak Tinggi,"No: 31 & 33 (Ground Floor),Jalan ST 1C/6,Medan 88,Bandar Baru Salak Tinggi,43900 Sepang,Selangor Darul Ehsan.",2.81186,101.73766,Bandar Baru Salak Tinggi,"['Roi Roi Restaurant', '来来海鲜饭店', 'Dah Datty Tomyam & Seafood']"
99speedmart,convenience_store,99SpeedMart @Taman Damai Mewah,"No: 3A & 5 (Ground Floor),Jalan Damai Mewah 1A,Taman Damai Mewah,43000 Kajang,Selangor Darul Ehsan.",2.98657,101.81002,Taman Damai Mewah,"['Kp Khoo Enterprise', 'Coping and Wainscoting Supplier', 'WoodMalaysia']"
99speedmart,convenience_store,99SpeedMart @Subang Permai,"No: 1 (Ground Floor),  Jalan F U6/F,Pusat Perdagangan Subang Permai,40150 Shah Alam,Selangor Darul Ehsan.",3.13917,101.52603,Subang Permai,"['Penguin Laundry', 'Klinik Medi-I', 'Restoran Lotus Curry House']"
99speedmart,convenience_store,"99SpeedMart @PJ, Sec 17 (1)","No: 614 (Ground Floor),Jalan 17/10,Seksyen 17,Happy Garden,46400 Petaling Jaya,Selangor Darul Ehsan.",3.12222,101.63547,"PJ, Sec 17 (1)","['十七区九香自制云吞面', 'SS17 Wan Tan Mee Shop', 'Restoran K. Intan']"
99speedmart,convenience_store,99SpeedMart @Bandar Botanik 3,"No: 27 & 29 (GF),Jalan Mahogani 5/KS 7,Bandar Botanik,41200 Klang,Selangor Darul Ehsan.",2.99615,101.44536,Bandar Botanik 3,"['Moon Walker Dance Studio(Botanic)', 'Alloy Kitchen', 'Klang Music Centre']"
99speedmart,convenience_store,99SpeedMart @Kota Warisan,"No: 36 & 38 (GF),Jalan Warisan Megah 1/4,Kota Warisan,43900 Sepang,Selangor Darul Ehsan.",2.82468,101.70502,Kota Warisan,"['7-Eleven (7-11)', ""Adam's Barber Shop"", 'YLMART Kota Warisan']"
99speedmart,convenience_store,"99SpeedMart @Bangi, Sek 8","No: 36 (GF),Jalan Medan Pusat 2C,43650 Bandar Baru Bangi,Selangor Darul Ehsan.",2.96305,101.75349,"Bangi, Sek 8","['Rhb Bank Islamic', 'Restoran Cina Muslim Mohd Chan Abdullah', 'Lawa-Lawalah']"
99speedmart,convenience_store,99SpeedMart @Bayu Perdana 2,"No: 312 (GF),Jalan Batu Unjur 7,Taman Bayu Perdana,41200 Klang,Selangor Darul Ehsan.",3.01619,101.42795,Bayu Perdana 2,"['Cleanpro Express @ Bayu Perdana', 'SenHeng', 'Kedai Ubat Dan Runcit Kang Lai Seng']"
99speedmart,convenience_store,99SpeedMart @Southern Park,"No: 95 (GF),Jalan Rengas,Taman Selatan,41200 Klang,Selangor Darul Ehsan.",3.029087,101.440821,Southern Park,"['Restaurant Southern Park', 'Wisma Teng Cheng', 'S.E.Lee Book Centre']"
99speedmart,convenience_store,99SpeedMart @Bukit Teratai,"No: 80 & 82 (GF),Jalan Teratai 1/2,Taman Bukit Teratai,68000 Ampang,Selangor Darul Ehsan.",3.11083,101.76540,Bukit Teratai,"['Jentayu Spa', 'Restoran One Nite 19号茶餐室', 'Prima Fresh Mart']"
99speedmart,convenience_store,99SpeedMart @Subang Bestari,"No: 43 & 45 (GF),Jalan Nova N U5/N,Subang Bestari,40150 Shah Alam,Selangor Darul Ehsan.",3.17694,101.54838,Subang Bestari,"['Ikhwan Delight Cafe', 'Papa Burger']"
99speedmart,convenience_store,99SpeedMart @Banting Sungai Emas,"No: 28 & 30 & 32 (GF),Jalan Emas 7,Bandar Sungai Emas,Sungai Manggis,42700 Banting,Selangor Darul Ehsan.",2.82416,101.53461,Banting Sungai Emas,"['Vision 2020', 'KJ Computer Sales & Services']"
99speedmart,convenience_store,99SpeedMart @Taman Sri Gombak 1,"No: 1 & 3 (GF),Jalan Sg 3/12,Taman Seri Gombak,68100 Batu Caves,Selangor Darul Ehsan.",3.24146,101.70454,Taman Sri Gombak 1,"['E TYRE SERVICE SDN BHD', 'Funfair @ Sri Gombak']"
99speedmart,convenience_store,99SpeedMart @Bandar Pinggiran Subang 2,"No: 2 (GF),Jalan Matahari U5/AB,Seksyen U5,Bdr Pinggiran Subang,40150 Shah Alam,Selangor Darul Ehsan.",3.16606,101.54167,Bandar Pinggiran Subang 2,"['Macha Snow Carwash', 'NIQ Engineering Sdn Bhd']"
99speedmart,convenience_store,99SpeedMart @Cheras Kampung Baru Cina,"No: 124(G), Kg Baru Cina, Batu 9, 43200 Cheras, Selangor Darul Ehsan.",3.07087,101.76809,Cheras Kampung Baru Cina,"['合记\ue332云吞面 0173776157', 'MyEG Service Sdn Bhd']"
99speedmart,convenience_store,99SpeedMart @Taman Majlis Jaya,"No: 5 & 7 (GF),Jalan Majlis Jaya Jaya 3,Taman Majlis Jaya,43000 Kajang,Selangor Darul Ehsan.",2.99035,101.77655,Taman Majlis Jaya,"['Klinik Pakar Ortopedik Liew', 'Restoran Nasi Kandar Mazlina Maju', 'KFC']"
99speedmart,convenience_store,99SpeedMart @Bandar Tasik Puteri 1,"No: 7 & 9 (GF),Jalan Hijau 5/1,Bandar Tasik Puteri,Kundang,48020 Rawang,Selangor Darul Ehsan.",3.28142,101.46513,Bandar Tasik Puteri 1,"['Restoran Intan Seafood', 'Pasar Malam GVP']"
99speedmart,convenience_store,99SpeedMart @Taman Anggerik Villa,"No: 7 & 9 (GF),Jalan Anggerik Perdana 2,Taman Anggerik Perdana,43500 Semenyih,Selangor Darul Ehsan.",2.97364,101.82417,Taman Anggerik Villa,"['Restoran Al Atlal', 'ASM FAF Bistro', 'Clavier Music Studio']"
99speedmart,convenience_store,99SpeedMart @Taman Bukit Mewah 1,"No: 31 & 33 (GF),Jalan Bukit Mewah 10A,Taman Bukit Mewah,43000 Kajang,Selangor Darul Ehsan.",2.99093,101.79869,Taman Bukit Mewah 1,"['Tea Cottage', 'Mayzg Beauty Saloon', 'Restoren Dilmi Tom Yam 2']"
99speedmart,convenience_store,99SpeedMart @Taman Koperasi Cuepac,"No: 2 (GF),Jalan Cuepac 2A,Taman Koperasi Cuepac,Batu 12,Jalan Cheras,43000 Kajang,Selangor Darul Ehsan.",3.02971,101.77442,Taman Koperasi Cuepac,"[""Joe's Gym"", 'Nasi Lemak Balai Raya']"
99speedmart,convenience_store,99SpeedMart @Bandar Rinching,"No: 30 & 32 & 34 (GF),Jalan 4/1, Sek 4,Bandar Rinching,43500 Semenyih,Selangor Darul Ehsan.",2.93236,101.84930,Bandar Rinching,"['Aroma Lengkuas', 'Surau Al-Makmur']"
99speedmart,convenience_store,99SpeedMart @Permai Square,"No: 1 & 3 (GF),Jalan BPP 5/7,Pusat Bandar Putra Permai,43300 Seri Kembangan,Selangor Darul Ehsan.",2.98159,101.66522,Permai Square,"['Awesome Fitness Gym', 'Madness In Machine']"
99speedmart,convenience_store,99SpeedMart @Kajang Utama 1,"No: 45 & 47 (GF),Jalan Seksyen 1/19,Taman Kajang Utama,43000 Kajang,Selangor Darul Ehsan.",2.97608,101.79479,Kajang Utama 1,"['Speedmart Taman Kajang Utama', 'RESTORA ILA Tmn Kajang Utama', 'New Pro-Car-Care Sdn Bhd - Wakil Servis Proton']"
99speedmart,convenience_store,99SpeedMart @Taman Pasir Emas,"No: 2 & 3 (GF),Jalan Pasir Emas 4,Taman Pasir Emas,Sg. Chua,43000 Kajang,Selangor Darul Ehsan.",2.98316,101.78461,Taman Pasir Emas,"['Hakim TomYam Seafood', 'Nurul-Iman Seafood']"
99speedmart,convenience_store,99SpeedMart @Zest Point,"ZP-G-1,Jalan Lebuh Raya,Bukit Jalil,47180 Puchong,Selangor Darul Ehsan.",3.05262,101.65310,Zest Point,"['Jelly Bunny', 'Messrs S L Goon & Partners']"
99speedmart,convenience_store,99SpeedMart @Kajang Perdana,"No: 29 (GF & 1st Floor),Perdana Avenue,Jalan Kajang Perdana 3,Kajang Perdana,43000 Kajang,Selangor Darul Ehsan.",2.99215,101.81751,Kajang Perdana,"['Butik Shadhila', 'newplace']"
99speedmart,convenience_store,99SpeedMart @Taman Bukit Cantik,"No: 16 (GF),Jalan Satu,Taman Cantik,Sungai Jelok,43000 Kajang,Selangor Darul Ehsan.",2.99202,101.80275,Taman Bukit Cantik,"['Poliklinik Sg Jelok', 'K & N Hair Salon', 'Ramly Burger Stall Sg.Jelok']"
99speedmart,convenience_store,99SpeedMart @Bandar Sungai Buaya,"No: 21 & 23 (GF),Jalan Kenangsari 2A,Bandar Sungai Buaya,48010 Rawang,Selangor Darul Ehsan.",3.37339,101.53279,Bandar Sungai Buaya,"['Oden Bistro', 'BIRI BIRI', ""Z'yan Restaurant""]"
99speedmart,convenience_store,99SpeedMart @Damansara Perdana,"No: 1 & 3 (GF),Jalan PJU 8/3B,Bandar Damansara Perdana,Bukit Lanjan,47820 Petaling Jaya,Selangor Darul Ehsan.",3.16465,101.60761,Damansara Perdana,"['PH Hardware Trading', 'Nasi Ayam Kampung Publika', 'Restoran Al Awwal Maju']"
99speedmart,convenience_store,99SpeedMart @Puchong Bdr Puteri 1,"No: 7 & 9 (GF),Jalan Puteri 2/7,Bandar Puteri,47100 Puchong,Selangor Darul Ehsan.",3.02305,101.61848,Puchong Bdr Puteri 1,"['Loving Hut Cafe 爱家', 'Vary Beauty']"
99speedmart,convenience_store,99SpeedMart @Taman Sri Batu Caves,"No: 108 & 110 (GF),Jalan SBC 3,Batu-Taman Sri Batu Caves,68100 Batu Caves,Selangor Darul Ehsan.",3.23370,101.68674,Taman Sri Batu Caves,"['AG Jaya Autowork', 'Benz Station Auto Sdn. Bhd.', 'Kok Ghee Motor Workshop']"
99speedmart,convenience_store,99SpeedMart @Taman Mutiara Subang,"No: 1 (GF),Jalan Mutiara Subang 1,Taman Mutiara Subang,47500 Subang Jaya,Selangor Darul Ehsan.",3.07470,101.56018,Taman Mutiara Subang,"['7 Eleven', 'Pasar Malam Bt 3']"
99speedmart,convenience_store,99SpeedMart @Puchong Bdr Puteri 2,"No: 31 (GF & Mezzanine Floor),Jalan Puteri 7/7,Bandar Puteri,47100 Puchong,Selangor Darul Ehsan.",3.02626,101.62407,Puchong Bdr Puteri 2,"['RESTORAN AL AFIFFAH MAJU', 'Rimba Pets', 'Balai Polis Bandar Putri']"
99speedmart,convenience_store,99SpeedMart @Sungai Long 2,"No: 46 (GF),Jalan Sungai Long 11/9,Bandar Sungai Long,43000 Kajang,Selangor Darul Ehsan.",3.05435,101.80414,Sungai Long 2,"['金昇茶室', 'Poliklinik Sungai Long']"
99speedmart,convenience_store,99SpeedMart @Taman Seri Tiram Utama,"No: 22 & 24 (GF),Jalan Tiram Utama 1,Taman Seri Tiram Utama,45500 Tanjung Karang,Selangor Darul Ehsan.",3.42815,101.24443,Taman Seri Tiram Utama,"['P.mini Tiram Setia', 'SRJK (C) Ming Tee']"
99speedmart,convenience_store,99SpeedMart @Taman Putra Kajang,"No: 1 (GF),Jalan Putra 3,Taman Putra Kajang,43000 Kajang,Selangor Darul Ehsan.",2.97783,101.77300,Taman Putra Kajang,"['HK Tech Autoworks', 'Bikers Lover Spa & Accessories']"
99speedmart,convenience_store,99SpeedMart @Taman Pandamaran Permai,"No: 66 & 68 (GF),Jalan Permai 1B/KS09,Taman Pendamaran Permai,42000 Pelabuhan Klang,Selangor Darul Ehsan",2.98657,101.41465,Taman Pandamaran Permai,"['Pusat Khidmat Rakyat N46 Dun Pelabuhan Klang', 'Klinik Utara']"
99speedmart,convenience_store,99SpeedMart @Shah Alam Sek 16,"No: 13 & 15 (GF),Jalan Cetak 16/3,Seksyen 16,40200 Shah Alam,Selangor Darul Ehsan.",3.05818,101.50706,Shah Alam Sek 16,"['The Studio', 'Maju Motor Racing']"
99speedmart,convenience_store,99SpeedMart @Kg Baru Seri Kembangan,"No: 1260 (GF),Jalan SK 10/4,43300 Seri Kembangan,Selangor Darul Ehsan.",3.02321,101.70523,Kg Baru Seri Kembangan,"['德珍冷氣酒家', 'Restoran Tuck Chan']"
99speedmart,convenience_store,99SpeedMart @Pekan Pandamaran,"No: 316-B, Lorong Amarasegera,Pandamaran,42000 Pelabuhan Klang,Selangor Darul Ehsan.",3.00763,101.41401,Pekan Pandamaran,"['JBI Nasi Lemak Berlauk Pandamaran', '7-11', 'Pandamaran Chinese Methodist Church']"
99speedmart,convenience_store,99SpeedMart @Taman Bukit Segar,"No: 22-A & 22A-A (GF),Jalan BS9,Taman Bukit Segar,68000 Ampang,Selangor Darul Ehsan.",3.09387,101.75382,Taman Bukit Segar,"['Tai Heng Steamboat Restaurant', 'Restoran Madeena Maju Bistro', 'Mochu Locco Zakka Café']"
99speedmart,convenience_store,99SpeedMart @PJ Kg Baiduri,"No: 23, Jalan 235A,46100 Petaling Jaya,Selangor Darul Ehsan.",3.09209,101.62621,PJ Kg Baiduri,"['Halal Souq', 'Puspakom Pjct']"
99speedmart,convenience_store,99SpeedMart @Taman Kinrara Sek 5,"No: 11 (GF),Jalan BK 5/12A,Bandar Kinrara,47100 Puchong,Selangor Darul Ehsan.",3.03764,101.64690,Taman Kinrara Sek 5,"['Carwash BK5', 'Restoran YY', 'Restaurant BK']"
99speedmart,convenience_store,99SpeedMart @Kemuning Utama,"No: 2 & 4 (GF),Jalan Kemuning Indah S32/S,Seksyen 32,40460 Shah Alam,Selangor Darul Ehsan.",3.00847,101.52462,Kemuning Utama,"['Taste For Thought', 'Johan Speaking Academy', 'Restoran Madhina Maju']"
99speedmart,convenience_store,99SpeedMart @Prima Samudera,"NO: 2 & 3 (GF),  PRIMA SAMUDERA,  JALAN SAMUDERA UTARA 11,68100 BATU CAVES,  SELANGOR DARUL EHSAN.",3.23375,101.69522,Prima Samudera,"['KLINIK TROPIKA', 'Health Lane Family Pharmacy', 'TMPoint Prima Samudera (TM Authorised Dealer)']"
99speedmart,convenience_store,99SpeedMart @Berjaya Park,"No: 15 & 17 (GF),Jalan Sg Damansara 32/B,Berjaya Park,Seksyen 32,40460 Shah Alam, Selangor Darul Ehsan.",2.98686,101.51601,Berjaya Park,"['7 Eleven Berjaya Park', 'Nasi Lemak Abg Gemok']"
99speedmart,convenience_store,99SpeedMart @Taman Chi Liung,"No: 36 & 38 (GF),Leboh Setaka,Taman Chi Liung,42100 Klang,Selangor Darul Ehsan.",3.02357,101.43288,Taman Chi Liung,"['Long Farm Meat @ Taman Chi Liung', 'Happy Land Kopitiam']"
99speedmart,convenience_store,"99SpeedMart @PJ, Sec 14","No: 17 (GF),Jalan 14/20,Seksyen 14,46100 Petaling Jaya,Selangor Darul Ehsan.",3.10954,101.63629,"PJ, Sec 14","['Klinik Pergigian Loo & Foo', 'Healthland', 'Singwa Watch']"
99speedmart,convenience_store,99SpeedMart @Pekan Sepang,"Lot 1 & 2 (GF),Jalan Besar Pekan Sepang,43900 Sepang,Selangor Darul Ehsan.",2.69057,101.75110,Pekan Sepang,"['Balai Bomba Sepang', 'Pejabat Pos Sepang', '大源茶室']"
99speedmart,convenience_store,99SpeedMart @Taman Saujana Putra,"No: 18 & 20 (GF),Jalan SPU 2,Taman Saujana Putra,42610 Jenjarom,Selangor Daul Ehsan.",2.95167,101.58237,Taman Saujana Putra,"[""Domino's Pizza"", '7-Eleven', ""D'Binjai Vape House""]"
99speedmart,convenience_store,99SpeedMart @Shah Alam Sek 24,"No: 1 (GF),Jalan Kangkung Puteri 24/7,Seksyen 24,42450 Shah Alam,Selangor Darul Ehsan.",3.04299,101.52301,Shah Alam Sek 24,"['Kedai Dobi CleanPro Express', 'Restoran Aida Tomyam Seksyen 24']"
99speedmart,convenience_store,99SpeedMart @Putera Avenue,"No: 21 & 23 (GF),Jalan Kebun Nenas 4A/KS 8,Bandar Putera 2,41200 Klang,Selangor Darul Ehsan.",2.97911,101.50132,Putera Avenue,"['Az-Zain Bandar Putera 2', 'Habib Restoran Makanan Laut', 'Splash Carwash Bandar Putera 2']"
99speedmart,convenience_store,99SpeedMart @Klang Sentral,"No: 26 & 28 (GF),Jalan Klang Sentral 3/KU 5,Taman Klang Sentral,41050 Klang,Selangor Darul Ehsan.",3.11081,101.43823,Klang Sentral,"['Sugu Restaurant', 'Bintang Bistro']"
99speedmart,convenience_store,99SpeedMart @Dataran C180,"No: 28 & 29(G), Dataran C180, 43200 Cheras, Selangor Darul Ehsan.",3.03593,101.76571,Dataran C180,"['Real Korea C180', 'Super Junior Family Karaoke', 'K-PORK Korean Restaurant']"
99speedmart,convenience_store,99SpeedMart @Pekan Meru 2,"No: 17 & 19 (GF),Jalan Jelutong 1/KU8,Pekan Meru,41050 Klang,Selangor Darul Ehsan.",3.13591,101.44172,Pekan Meru 2,"['Pusat Pakaian Harian', 'Jutawan Snooker Centre', 'Warung Wak Basir']"
99speedmart,convenience_store,99SpeedMart @Taman Cheras Prima,"B-G-18, B-G-19 & B-G-20,Blok B,Jalan Cheras Prima 3,Taman Cheras Prima,43000 Kajang,Selangor Darul Ehsan.",3.01222,101.76677,Taman Cheras Prima,"['Poliklinik Putra Care', 'Riana Burger Taman Cheras Prima']"
99speedmart,convenience_store,99SpeedMart @Taman Selayang Jaya,"No: 19 & 21 (GF),Jalan SJ 17,Taman Selayang Jaya,68100 Batu Caves,Selangor Darul Ehsan.",3.23838,101.65019,Taman Selayang Jaya,"['Orange Cybercafe', 'Poliklinik Dr. Wong & Surgeri']"
99speedmart,convenience_store,99SpeedMart @Taman Bukit Mewah 2,"No: 3A & 5 (GF),Bangunan Avenue 26,Jalan Bukit Mewah 41,Taman bukit Mewah,43000 Kajang,Selangor Darul Ehsan.",2.98159,101.80241,Taman Bukit Mewah 2,"['Kien Wah Fishball Noodle 建华鱼丸粉', 'Restaurant Hwa Hee', 'Genio Vision Enterprise']"
99speedmart,convenience_store,99SpeedMart @Medan Seri Pekan Banting,"A-G-17 & A-G-19,Jalan Seri Pekan,Medan Seri Pekan,42700 Banting,Selangor Darul Ehsan.",2.80943,101.50220,Medan Seri Pekan Banting,"['Setia RM2', 'Restoran AMSYAR BISTRO', 'LaundryBar']"
99speedmart,convenience_store,99SpeedMart @Dataran Villa Putra,"No: 27 & 29 (GF),Jalan Dataran Villa Putra 1,Dataran Villa Putra,47000 Sungai Buloh,Selangor Darul Ehsan.",3.22670,101.56698,Dataran Villa Putra,"['Laksa Hut', 'Restoran Imm Aroi']"
99speedmart,convenience_store,99SpeedMart @Kuala Selangor 3,"No: 80 & 82 (GF),Jalan Melati 3/1,Bandar Melati,45000 Kuala Selangor,Selangor Darul Ehsan.",3.33107,101.25601,Kuala Selangor 3,"['MyEG Service', 'Shell Kuala Selangor (KL-Klang Bound)']"
99speedmart,convenience_store,99SpeedMart @Taman Ukay Perdana,"No: 1 (GF),Jalan U/P 1/6,Taman Ukay Perdana,68000 Ampang,Selangor Darul Ehsan.",3.20433,101.77824,Taman Ukay Perdana,"['LaundryBar Ukay Perdana', 'Reez Laundry @ Ukay Perdana']"
99speedmart,convenience_store,99SpeedMart @Bandar Tasik Puteri 2,"67-G-A & 67-G-B & 67-1-B,Jalan 7A/3,Bandar Tasik Puteri,48020 Rawang,Selangor Darul Ehsan.",3.28420,101.47287,Bandar Tasik Puteri 2,"['Hot Burger', 'Ar Rahnu X Change Bandar Tasik Puteri', 'Rakyat Xcess']"
99speedmart,convenience_store,99SpeedMart @Sungai Besar 2,"No: 34 (GF),Jalan TP1,Taman Perdana,45300 Sungai Besar,Selangor Darul Ehsan.",3.66475,100.98774,Sungai Besar 2,"['Pasar Awam Sungai Besar', 'First Mart', 'Bazar Ramadhan Stadium Sungai Besar']"
99speedmart,convenience_store,99SpeedMart @Shah Alam Sek 13,"No: 2 (GF),Jalan Bola Tampar 13/14,Seksyen 14,40000 Shah Alam,Selangor Darul Ehsan.",3.08329,101.54008,Shah Alam Sek 13,"['Efs Shah Alam', 'NM13 Sdn Bhd', 'Al Kauthar EDUQIDS']"
99speedmart,convenience_store,99SpeedMart @Kelana Jaya,"No: 5-G-1,Jalan PJU 1A/4A,Kelana Jaya,47301 Petaling Jaya,Selangor Darul Ehsan.",3.11095,101.59024,Kelana Jaya,"['Surau As-Samad', 'Hentian Bas RapidKL Lembah Subang LRT Station']"
99speedmart,convenience_store,"99SpeedMart @PJ, SS25","No: 43 & 45 (GF),Jalan SS 25/2,Taman Bukit Emas,47301 Petaling Jaya,Selangor Darul Ehsan.",3.11322,101.60546,"PJ, SS25","['Powercomp Distribution', 'Fun N Cheers', 'Restoran Hoowan 鸿运海鲜饭店']"
99speedmart,convenience_store,99SpeedMart @Bandar Seri Putra,"No: 5 & 6 (GF),Jalan Seri Putra 1/1,Bandar Seri Putra,Bangi,43000 Kajang,Selangor Darul Ehsan.",2.88662,101.79049,Bandar Seri Putra,"['Brainy Bunch Islamic Montessori', 'Night Market Bandar Seri Putra']"
99speedmart,convenience_store,99SpeedMart @Taman Rawang Mutiara,"No: C6 & C7 (GF),Jalan Rawang Mutiara 2,Taman Rawang Mutiara,48000 Rawang,Selangor Darul Khusus.",3.32715,101.57973,Taman Rawang Mutiara,"['珍珠坊茶餐室', '傳統亞姑板麵', 'Restoran Billion 億家饮食馆']"
99speedmart,convenience_store,99SpeedMart @Taman Sri Gombak 2,"No: 37 & 39 (GF),Jalan Sg 8/7,Taman Sri Gombak,68100 Batu Caves,Selangor Darul Ehsan.",3.24856,101.70613,Taman Sri Gombak 2,"['Wash Studio', 'Car Wash SG 8/6']"
99speedmart,convenience_store,99SpeedMart @KP Seri Kembangan 1,"No: 2B & 2C (GF),Jalan Raya 2,Kawasan Perusahaan Seri Kembangan,43300 Seri Kembangan,Selangor Darul Ehsan.",3.01908,101.71221,KP Seri Kembangan 1,"['Alynn Veterinary Clinic', ""Kafe Kak Yang D'saji""]"
99speedmart,convenience_store,99SpeedMart @Shah Alam Sek 9,"No: 23 & 25 (GF),Jalan 9/B,Seksyen 9,40100 Shah Alam,Selangor Darul Ehsan.",3.08198,101.52708,Shah Alam Sek 9,"['Redcap Pharmacy', 'Butik Tateh']"
99speedmart,convenience_store,"99SpeedMart @PJ, Sec 17 (2)","No: 1081 (GF),Jalan 17/27,46400 Petaling Jaya,Selangor Darul Ehsan.",3.12888,101.63444,"PJ, Sec 17 (2)","['Say Huat Restaurant (發中發飲食中心)', 'Thai Fried Rice', 'Joo Fatt Trading']"
99speedmart,convenience_store,"99SpeedMart @PJ, Sec 22","No: 22 (GF),Jalan 22/49,46300 Petaling Jaya,Selangor Darul Ehsan.",3.09898,101.62479,"PJ, Sec 22","['Sri Nyonya', 'ATS Curry House', 'Nasi Kandar Kubor']"
99speedmart,convenience_store,99SpeedMart @Taman Bidara,"No: 29 (GF),Jalan Bidara 1,Taman Bidara,68100 Batu Caves,Selangor Darul Ehsan.",3.24143,101.64367,Taman Bidara,"['Klinik Bidara', 'Burger Bidara', 'Restoran Pin Kee Seafood']"
99speedmart,convenience_store,99SpeedMart @Taman Perkasa,"No: 16 & 17 (GF),Jalan Perkasa 1/2,Taman Perkasa,43100 Hulu Langat,Selangor Darul Ehsan.",3.10242,101.79873,Taman Perkasa,"['Nik Sada Tomyam', 'Planet Tom Yam', 'Planet Tomyam']"
99speedmart,convenience_store,99SpeedMart @Kota Kemuning 3,"No: 31 (GF),Jalan AU 31/AU,Kota Kemuning,Seksyen 31,40460 Shah Alam,Selangor Darul Ehsan.",2.99341,101.53033,Kota Kemuning 3,"['Pusat Tuisyen Menara Jaya', 'Restoran Tian Kee']"
99speedmart,convenience_store,99SpeedMart @Taman Sri Kenari,"B1-01-02,Jalan Sri Kenari 12,Taman Sri Kenari,Sungai Chua,43000 Kajang,Selangor Darul Ehsan.",2.99282,101.76849,Taman Sri Kenari,"['Restoran Citarasa Azizah', 'TwoJ International (M) Sdn Bhd', 'Speedmart Taman Sri Kenari']"
99speedmart,convenience_store,99SpeedMart @Batu Belah,"N0: 18 & 20 (GF),Jalan Indah 1,OFF Jalan Sungai Putus,42100 Klang,Selangor Darul Ehsan.",3.07215,101.43099,Batu Belah,"['Genting Casinos', 'Lemon Cake House']"
99speedmart,convenience_store,99SpeedMart @Setia Alam 2,"No: 27 & 29 (GF),Jalan Setia Indah U13/X,Bandar Setia Alam,40170 Shah Alam,Selangor Darul Ehsan.",3.09904,101.46112,Setia Alam 2,"['Fruit Garden', 'Griddle Gourmet Grilled Cheese', 'Abang D Burger']"
99speedmart,convenience_store,99SpeedMart @Jalan Tepi Sungai,"No: 87 (GF),Jalan Tepi Sungai,41100 Klang,Selangor Darul Ehsan.",3.04771,101.43116,Jalan Tepi Sungai,"['Innovation Hair Studio', 'Misuari Seafood', 'Sri Padaivetri Mariamman Temple']"
99speedmart,convenience_store,99SpeedMart @Bandar Baru Ampang,"No: 1 (GF),Jalan Wawasan 2/2,Bandar Baru Ampang,68000 Ampang,Selangor Darul Ehsan.",3.14546,101.76919,Bandar Baru Ampang,"['Poh Hwa Hardware Trading', 'Guardian Pharmacy', 'CIMB Bank']"
99speedmart,convenience_store,99SpeedMart @Taman Kinrara Sek 6,"No: 5 & 7 (GF),Jalan BK 6F/3A,Bandar Kinrara,47180 Puchong,Selangor Darul Ehsan.",3.03523,101.67023,Taman Kinrara Sek 6,"['Playground Taman Damai Utama 2', 'MJK Coffee House', 'Inspirasi Dekorasi']"
99speedmart,convenience_store,99SpeedMart @Taman Sijangkang Permai,"No: 8 & 10 (GF),Jalan Permai,Taman Sijangkang Permai,42500 Telok Panglima Garang,Selangor Darul Ehsan.",2.94038,101.47123,Taman Sijangkang Permai,"['EDC Hair Saloon', 'Instrumatrix Technology Sdn Bhd', 'F & F Cafe']"
99speedmart,convenience_store,99SpeedMart @Denai Alam,"No: 2 (GF), Block 5,Jalan Elektron U16/100,Seksyen U16,40160 Shah Alam,Selangor Darul Ehsan.",3.15306,101.51451,Denai Alam,"['Pusat Tuisyen Dunia Bestari', 'Kedai Gunting Rambut Baba P Saras', 'Restoran Lesung Batu']"
99speedmart,convenience_store,99SpeedMart @Bandar Bukit Mahkota,"No: 67 & 69 (GF),Jalan BM 4/3,Seksyen 4,Bandar Bukit Mahkota,43000 Kajang,Selangor Darul Ehsan.",2.88227,101.80750,Bandar Bukit Mahkota,"['O. One Burger', 'Nasi Lemak Ayam Golek Joe']"
99speedmart,convenience_store,99SpeedMart @Ampang Mulia,"No: 5 (GF & Mezzanine Floor),Jalan Mulia 4/1,Taman Mulia Jaya,68000 Ampang,Selangor Darul Ehsan.",3.13324,101.79005,Ampang Mulia,"['Klinik 1Malaysia Taman Mulia Jaya', 'Char Kuey Teow Mulia']"
99speedmart,convenience_store,99SpeedMart @Taman Mas Puchong,"91-G-GF,Spring Court 2,Lingkaran Dagang Mas,Taman Mas,47100 Puchong,Selangor Darul Ehsan.",2.97532,101.58038,Taman Mas Puchong,"['Lim Car Service & Tyre', 'Imran Rezeki', 'Restoran Kelasik']"
99speedmart,convenience_store,99SpeedMart @Subang Jaya SS14,"No: 113 (GF),Jalan SS 14/1,Subang Jaya,47500 Petaling Jaya,Selangor Darul Ehsan.",3.06608,101.58642,Subang Jaya SS14,"['Tien Tien Restaurant', 'DAP Centre']"
99speedmart,convenience_store,99SpeedMart @Taman Impian Putra,"No: 1 (GF),Jalan Impian Putra 1/4,Taman Impian Putra,43000 Kajang,Selangor Darul Ehsan.",2.89345,101.77124,Taman Impian Putra,"['Pusat Tuisyen Pro Bestari', 'AquaPlus Speed Laundry']"
99speedmart,convenience_store,99SpeedMart @Taman Tun Teja,"No: 27 & 29 (GF),Jalan Tun Teja 1,Taman Tun Teja,48000 Rawang,Selangor Darul Ehsan.",3.29818,101.59150,Taman Tun Teja,"['7 Eleven - Taman Mawar', '财记海鲜饭店', 'Harmony Zone']"
99speedmart,convenience_store,99SpeedMart @Taman Desa Serdang,"No: 13 & 15 (GF),Jalan Desa Serdang 1,Taman Desa Serdang,43300 Seri Kembangan,Selangor Darul Ehsan.",3.00964,101.72324,Taman Desa Serdang,"['Restoran Makanan Laut Pertama', 'Klinik R. Daya']"
99speedmart,convenience_store,99SpeedMart @Emerald Square,"No: 11 & 13 (GF),Jalan 1/4,Rawang Integrated Industrial Park,48000 Rawang,Selangor Darul Ehsan.",3.30863,101.56181,Emerald Square,"['Restoran Warung Abg Deen', 'Restoran Abang Deen']"
99speedmart,convenience_store,99SpeedMart @Taman Salak Baiduri,"No: 1 (GF),Jalan Baiduri 1,Taman Salak Baiduri,Salak Tinggi,43900 Sepang,Selangor Darul Ehsan.",2.79012,101.74897,Taman Salak Baiduri,"['Klinik Pergigian Salak', 'Jabatan Kecemasan Klinik Kesihatan Salak.', 'Nasi Briyani Gam']"
99speedmart,convenience_store,99SpeedMart @Pekan Kerling,"No: 24 & 25 & 26 (GF),Jalan Orbit,Pekan Kerling,44100 Kerling,Selangor Darul Ehsan.",3.59149,101.60531,Pekan Kerling,"['Lau Kee Restaurant', 'Petron Kerling', 'Kedai Makanan Zainuddin']"
99speedmart,convenience_store,99SpeedMart @Kalumpang,"No: 3 & 5 (GF),Jalan Merpati 1,Desa Merpati,44100 Kalumpang,Selangor Darul Ehsan.",3.63959,101.56640,Kalumpang,"['Feros Best', 'Kalumpang Car Wash', 'Pasar Malam Kalumpang']"
99speedmart,convenience_store,99SpeedMart @Taman Melur,"No: 20 & 22 (GF),Jalan Melur 43,Taman Melur,68000 Ampang,Selangor Darul Ehsan.",3.12076,101.77090,Taman Melur,"['枼霖記海鲜饭店(Taman Melur)', 'Car Wash Taman Melur']"
99speedmart,convenience_store,99SpeedMart @Hulu Bernam,"No: 2 & 3 (GF),Jalan Changkat Asa,Taman Weng Cheong,35900 Hulu Bernam,Selangor Darul Ehsan.",3.67388,101.52130,Hulu Bernam,"['新龙泉', 'AhLek Seafood Restaurant啊叻海鲜楼', 'Aman Gado Gado']"
99speedmart,convenience_store,99SpeedMart @Hulu Yam Baru,"No: 6 & 7 (GF),Jalan Besar,Seksyen 1,Hulu Yam Baru,44300 Hulu Yam,Selangor Darul Ehsan.",3.43188,101.65839,Hulu Yam Baru,"['Restoran Aik Khoon', '益群海鲜楼']"
99speedmart,convenience_store,99SpeedMart @Kemuning Taipan,"No: 37 & 39 (GF),Jalan Sungai Keranji Q32/Q,Seksyen 32,40460 Shah Alam,Selangor Darul Ehsan.",2.97921,101.53220,Kemuning Taipan,"['Mesra Cafe', 'Klinik Cybermedik']"
99speedmart,convenience_store,99SpeedMart @Shah Alam U12,"No: 31-1 & 33-1 (GF),Jalan Selasih J U12/J,Seksyen U12,40170 Shah Alam,Selangor Darul Ehsan.",3.08575,101.48578,Shah Alam U12,"['Restoran Isa Maju', 'Enzo Fitness', 'Ariff Bistro']"
99speedmart,convenience_store,99SpeedMart @Taman Semenyih Indah,"No: 2 (GF),Jalan Semenyih Indah 8,Taman Semenyih Indah,43500 Semenyih,Selangor Darul Ehsan.",2.94592,101.83424,Taman Semenyih Indah,"['Restoran Malsea', 'Tomyam Shukri', 'Kedai Mek']"
99speedmart,convenience_store,99SpeedMart @Alam Impian,"No: 18 (GF),Jalan Tun Teja B 35/B,Alam Impian,Seksyen 35,40470 Shah Alam,Selangor Darul Ehsan.",3.01609,101.51346,Alam Impian,"['Ayam Goreng & Bubur Ayam Ahmad', 'Drop & Wash', 'Vindech Interhome Hardware']"
99speedmart,convenience_store,99SpeedMart @Taman Damai Morib,"No: 22 & 24 (GF),Jalan Damai,Taman Damai,42700 Morib,Selangor Darul Ehsan.",2.78347,101.46225,Taman Damai Morib,"['Pusat Perkhidmatan Tayar Xiang Ki', 'newplace']"
99speedmart,convenience_store,99SpeedMart @Shah Alam Sek 7 (2),"No: 10 & 12 (GF),Jalan E 7/E,Seksyen 7,40000 Shah Alam,Selangor Darul Ehsan.",3.07597,101.49694,Shah Alam Sek 7 (2),"['Khyra Bakery Boutique Cafe', 'Sahir & Co.']"
99speedmart,convenience_store,99SpeedMart @Taman Langat Utama,"No: 149 & 151 (GF),Jalan LU 2/2,Taman Langat Utama,Bukit Changgang,42700 Banting,Selangor Darul Ehsan.",2.80038,101.65650,Taman Langat Utama,"['Restoran Chik Yah Ayam Kampung Dan Catering', 'Restoren Nasi Daging', 'Restoran Al-Fidha']"
99speedmart,convenience_store,99SpeedMart @Taman Seroja,"No: 12 & 14 (GF),Jalan Seroja 7,Taman Seroja,Bandar Salak Tinggi,43900 Sepang,Selangor Darul Ehsan.",2.82851,101.73017,Taman Seroja,"['Kedai Dobi SN', 'Nur Jannah Collection']"
99speedmart,convenience_store,99SpeedMart @Pinggiran Batu Caves 2,"No: 40 (GF),Jalan Pinggiran 2/2,Pinggiran Batu Caves,68100 Batu Caves,Selangor Darul Ehsan.",3.25578,101.69411,Pinggiran Batu Caves 2,"['Football Field ( Pinggiran Batu Caves)', 'Wira Damai', '7 Eleven Pinggiran Batu Caves']"
99speedmart,convenience_store,99SpeedMart @Taman Bukit Serdang 2,"D-G-41 & D-G-43,Pusat Perdagangan BS,Jalan BS 14/1,Taman Bukit Serdang,43300 Seri Kembangan,Selangor Darul Ehsan.",3.03656,101.70098,Taman Bukit Serdang 2,"['家好运什饭专卖店', 'Klinik Bukit Serdang']"
99speedmart,convenience_store,"99SpeedMart @PJ, Sec 19","No: 3-1 & 3A-1 (GF),Jalan 19/16A,Seksyen 19,47300 Petaling Jaya,Selangor Darul Ehsan.",3.12203,101.62848,"PJ, Sec 19","['ABC Bistro', 'Lek Seng Kopitiam']"
99speedmart,convenience_store,99SpeedMart @Kajang Utama 2,"No: 11 & 13 (GF),Block N,Jalan Seksyen 3/12,Taman Kajang Utama,43000 Kajang,Selangor Darul Ehsan.",2.97497,101.80099,Kajang Utama 2,"['Restoran Hayati & Catering', 'Burger Sodap']"
99speedmart,convenience_store,99SpeedMart @Ken Rimba,"No: 40 & 42 (GF),Jalan Lengkuas D 16/D,Ken Rimba,40200 Shah Alam,Selangor Darul Ehsan.",3.05444,101.48394,Ken Rimba,"['Honey Madu Cafe', 'Ammar Kadir Artwork Studio']"
99speedmart,convenience_store,99SpeedMart @Pearl Avenue,"No: PA-S-01 (GF),Pearl Avenue,Jalan Pasir Emas,Sungai Chua,43000 Kajang,Selangor Darul Ehsan.",2.98479,101.78125,Pearl Avenue,"['Hair Porter', 'Makkah Mart']"
99speedmart,convenience_store,99SpeedMart @Taman Sea,"No: 2, Jalan SS23/11,Taman Sea,47400 Petaling Jaya,Selangor Darul Ehsan.",3.11731,101.61330,Taman Sea,"['Bubble Lab Laundry SS 23', 'Restoran Sandakan', 'Restoran Hathija Maju']"
99speedmart,convenience_store,99SpeedMart @Pusat Bandar Puchong 2,"No: 23 (GF),Jalan Bandar Satu,Pusat Bandar Puchong,47160 Puchong,Selangor Darul Ehsan.",3.03570,101.61750,Pusat Bandar Puchong 2,"['Bandar Puchong Kopitiam', 'Da Ma Cai', 'TK Light Electrical Sdn Bhd']"
99speedmart,convenience_store,99SpeedMart @Taman Subang Indah,"No: 111 & 112 (GF),Block A,Jalan PJS 11/2,Taman Subang Indah,Bandar Sunway,46150 Petaling Jaya,Selangor Darul Ehsan.",3.07237,101.60338,Taman Subang Indah,"['Selfie Coffee Sunway', 'House Of Yemen (Sunway)', 'Sun Inns Lagoon']"
99speedmart,convenience_store,"99SpeedMart @Bangi, Sek 4","No: 6 & 8 (GF),Jalan 4/12B,Fasa 4 Tambahan,43650 Bandar Baru Bangi,Selangor Darul Ehsan.",2.96419,101.77966,"Bangi, Sek 4","['Pusat Service Kereta SL Seksyen 4 Tambahan', 'Purple Print 4 Tambahan']"
99speedmart,convenience_store,99SpeedMart @Bandar Bukit Puchong,"No: 27 & 29,Jalan BP 3/12,Bandar Bukit Puchong,47120 Puchong,Selangor Darul Ehsan.",2.98999,101.63005,Bandar Bukit Puchong,"['Restoran Azmi Seafood & Tomyam', 'Klinik Mayfair (Dr. Fan)', 'Klink Mayfair']"
99speedmart,convenience_store,99SpeedMart @Taman Saga Emas,"No: 1A & 2A (GF),Jalan Saga Emas 8A,Taman Saga Emas,43000 Kajang,Selangor Darul Ehsan.",2.99799,101.79769,Taman Saga Emas,"['Stazurin Bridal Boutique', 'Jojos Rotibun & Bakeri', 'Restoran Ibrahim Maju']"
99speedmart,convenience_store,99SpeedMart @Taman Sri Cheras,"No: 3A, 3B, 3C & 3D (G), Block C, Jln 8, Rumah Pangsa, Tmn Sri Cheras, 43200 Cheras, Selangor.",3.05775,101.76589,Taman Sri Cheras,"['Sifu Temple', 'Wong Kee Restaurant']"
99speedmart,convenience_store,99SpeedMart @Taman Cheras Awana,"No: 32(G), Jalan Awana 15, Taman Cheras Awana, 43200 Cheras, Selangor DE.",3.08861,101.76309,Taman Cheras Awana,"['红桃K美食中心', ""Paul's Secret""]"
99speedmart,convenience_store,99SpeedMart @Kayu Ara 2,"No: 3 & 5 (GF),Wisma KLH, NO:968,Jalan Kenanga,Kampung Kayu Ara,47400 Petaling Jaya,Selangor Darul Ehsan.",3.13006,101.61247,Kayu Ara 2,"['Restoran Mamu Hajas', 'Razak Tomyam']"
99speedmart,convenience_store,99SpeedMart @Taman Bukit Rawang Jaya,"No: 3 & 5 (GF),Jalan 2/13,Taman Bukit Rawang Jaya,48000 Rawang,Selangor Darul Ehsan.",3.33367,101.58766,Taman Bukit Rawang Jaya,"['Pasar Malam Rawang Jaya', 'Sekolah Kebangsaan Bukit Rawang Jaya', 'Restoran Ali Maju']"
99speedmart,convenience_store,99SpeedMart @Taman Garing Permai,"No: 25 & 26 (GF),Jalan GP Utama,Taman Garing Permai,48000 Rawang,Selangor Darul Ehsan.",3.32840,101.56127,Taman Garing Permai,"['Unit Forensik Hospital Selayang', 'Nasi Lemak Komunis Rawang.', 'Satay Kajang Hj Samsuri']"
99speedmart,convenience_store,99SpeedMart @Taman Tasik Biru,"No: B-01-22 & B-01-23,Laguna Biru,Jalan Tasik Biru 17,Taman Tasik Biru,48050 Rawang,Selangor Darul Ehsan.",3.24769,101.52401,Taman Tasik Biru,"['Restoran Alfah ( Tmn Tasik Biru) Kundang', 'Restoran Al Faize']"
99speedmart,convenience_store,99SpeedMart @Shah Alam Sek 18,"No: 3 & 5 (GF),Jalan Pinang B 18/B,Seksyen 18,40000 Shah Alam,Selangor Darul Ehsan.",3.045308,101.517833,Shah Alam Sek 18,"['The Vape Cabin', ""Bob's Corner Section 18 Shah Alam""]"
99speedmart,convenience_store,99SpeedMart @Taman Puncak Saujana,"No: 1 (GF),Jalan Puncak Saujana 1/1A,Taman Puncak Saujana,43000 Kajang,Selangor Darul Ehsan.",3.01457,101.805505,Taman Puncak Saujana,"['El Husna Salon', 'newplace']"
99speedmart,convenience_store,99SpeedMart @Taman Villa Tropika,"0-2G & 0-3G (Ground Floor), Jalan Villa Tropika 1,   Taman Villa Tropika, 43000 Kajang, Selangor.",2.94127,101.79027,Taman Villa Tropika,"['7 Eleven Villa Tropika', 'AquaNano', 'Villa Seafood Restaurant']"
99speedmart,convenience_store,99SpeedMart @Batang Kali 2,"No: 67 & 69 (Ground Floor), Jalan Meranti 1, Bandar Utama, 44300 Batang Kali, Selangor Darul Ehsan",3.46273,101.65221,Batang Kali 2,"['Restoran Tawakkal', 'Petronas Batang Kali 1', 'Petronas Batang Kali 2']"
99speedmart,convenience_store,99SpeedMart @Jalan Kapar BT 13,"No: 58 (Ground Floor), Lorong Sungai Serdang Permai 1, Jalan Kapar Batu 13, Taman Sungai Serdang Permai, 42200 Kapar, Selangor Darul Ehsan",3.15549,101.33211,Jalan Kapar BT 13,"['Restoran Jamnah Nasi Lemak (Laksa Penang)', 'Warung Kg.Sg.Serdang', 'Pasar Malam Sg Serdang']"
99speedmart,convenience_store,99SpeedMart @Jalan Meru 2,"203 (Ground Floor), Jalan Kangsar, Off Jalan Meru, 41050 Klang, Selangor",3.06899,101.45017,Jalan Meru 2,"['Double Dragon Auto Accessories', 'Choon Kee Restaurant']"
99speedmart,convenience_store,99SpeedMart @Sunway Kayangan,"No: 15 & 17 (Ground Floor), Jalan Ungu B U9/B, Sunway Kayangan, 40150 Shah Alam, Selangor",3.12856,101.51926,Sunway Kayangan,"['Wash Depot', ""Domino's Pizza"", 'Smart Laundry']"
99speedmart,convenience_store,99SpeedMart @Ampang Mewah,"G11 (Ground Floor), Jalan Mewah 4, Block A,  Taman Ampang Mewah, 68000 Ampang,   Selangor",3.14461,101.76085,Ampang Mewah,"['Hoong Kee BBQ Wantan Mee', '葉霖記海鮮飯店', '雄记特制云吞面']"
99speedmart,convenience_store,99SpeedMart @Taman D'alphinia,"NO. 11 & 12 (Ground Floor), Jalan D'alpinia 10,   Taman D'alpinia, 47100 Puchong,   Selangor",2.97781,101.65597,Taman D'alphinia,"['Restoran Bismi Bistro', 'Ar Rauf Bistro']"
99speedmart,convenience_store,99SpeedMart @Bukit Jelutong 2,"No: 37 & 39, Jalan G U8/G, Bukit Jelutong, Seksyen U8, 40150 Shah Alam, Selangor Darul Ehsan.",3.10943,101.54246,Bukit Jelutong 2,"['Restoran Kopitiam Eton', 'Alpha Technic']"
99speedmart,convenience_store,99SpeedMart @Ampang Avenue,"No: 1-G, Jalan Avenue 3, Ampang Avenue, 68000 Ampang, Selangor Darul Ehsan",3.13454,101.76951,Ampang Avenue,"['Pantai Ampang Jaya', 'Dobi Ekspres Top Seven', 'PappaRich']"
99speedmart,convenience_store,99SpeedMart @Rawang Perdana,"No: 31 & 33(G), Jalan RP 4/4, Rawang Perdana, 48000 Rawang, Selangor Darul Ehsan",3.31758,101.59526,Rawang Perdana,"['Pusat Rawatan Islam Darul Syifa', 'Surau Nur Ikhwan', 'Rawang Maju Corner']"
99speedmart,convenience_store,99SpeedMart @Kampung Perdamar,"No: 202 & 204(G), Jalan Haji Zainal Abidin, Kg Perdamar, 42000 Pelabuhan Klang, Selangor Darul Ehsan",2.97916,101.43035,Kampung Perdamar,"['Warung Tok Janggut', 'Klinik Kampung Pendamar']"
99speedmart,convenience_store,99SpeedMart @Neo Cyber,"No: 101(G), Biz Avenue II, Neocyber, Lingkaran Cyber Point Barat, 63000 Cyberjaya, Selangor Darul Ehsan.",2.91556,101.64926,Neo Cyber,"['Laundrybar Cyberjaya', 'NeoCyber']"
99speedmart,convenience_store,99SpeedMart @Taman Bukit Idaman,"No: 21 & 22(G), Jalan Bukit Idaman 8/1, Taman Bukit Idaman, 68100 Batu Caves, Selangor Darul Ehsan.",3.24803,101.64322,Taman Bukit Idaman,"['Pasar Malam Bukit Idaman', 'Klinik Zain Azrai', 'Poliklinik Zain Azrai']"
99speedmart,convenience_store,99SpeedMart @Bukit Sentosa,"No: 1 & 3(G), Jalan Seroja 1A, Perniagaan Jalan Seroja, 48300 Bukit Sentosa, Selangor Darul Ehsan.",3.41761,101.57726,Bukit Sentosa,"['Western Food Uptown 1038', 'Yazid Chicken Chop UPTOWN']"
99speedmart,convenience_store,99SpeedMart @Taman Perindustrian Puchong Utama,"No: 54(G), Jalan Utama 2/1, Taman Perindustrian Puchong Utama, Sekyen 2, Batu 14, Jalan Puchong, 47100 Selangor Darul Ehsan.",2.99785,101.61247,Taman Perindustrian Puchong Utama,"['Pasaraya CTG', 'Magnipower Enterprise Sdn Bhd', ""Restoran Nasi Kandar Deen's Puchong Utama""]"
99speedmart,convenience_store,99SpeedMart @Taman Pelangi Semenyih,"No: 16 & 18(G), Jalan TPS 2/2, Taman Pelangi Semenyih 2, 43500 Semenyih, Selangor Darul Ehsan.",2.91560,101.86356,Taman Pelangi Semenyih,"['Kedai Rakyat 1 Malaysia', 'SATO Auto Accessories', 'Oren Coklat Chicken Chop']"
99speedmart,convenience_store,99SpeedMart @ Desa Pinggiran Putra,"No: 7 & 9(G), Jalan Pinggiran Putra 4A/4, Desa Pinggiran Putra, Sg Merab, 43000 Kajang, Selangor Darul Ehsan.",2.90073,101.70600, Desa Pinggiran Putra,"['Poliklinik An-Nur Desa Pinggiran Putra', 'Restoran A Hassan (Nasi Campur Ayam Kampung)']"
99speedmart,convenience_store,99SpeedMart @Shah Alam Sek 8,"No: 11 (Ground Floor), Jalan Liku D8 / D, Seksyen 8,  40000 Shah Alam, Selangor Darul Ehsan.",3.09116,101.50867,Shah Alam Sek 8,"['Speedmart Seksyen 8', 'SS Speed Clean', 'Kedai Gelap']"
99speedmart,convenience_store,99SpeedMart @Shah Alam Sek19,"No. 2 (Ground Floor), Jalan Nelayan D 19/D, Seksyen 19, 40150 Shah Alam, Selangor.",3.05069,101.53431,Shah Alam Sek19,"['Bazar Ramadhan Seksyen 19', 'Bazaar Kurma Malik Mohd', 'Restoran Nasi Vanggey Ipoh']"
99speedmart,convenience_store,99SpeedMart @Pelangi Seri Alam,"No. 19 & 21 (Ground Floor), Jalan Astana C 13/C, Pusat Niaga Astana Alam, Seksyen 13, 42300 Bandar Puncak Alam, Kuala Selangor, Selangor Darul Ehsan.",3.24416,101.42539,Pelangi Seri Alam,"['Matahari Hair & Beauty Salon', 'Studio Alam Cetak', 'Restoran BNS Maju Curry House']"
99speedmart,convenience_store,99SpeedMart @Taman Bunga Raya,"No: G-G-01, Jalan Bunga Raya 1, Apartment Dahlia, Taman Bunga Raya, 48300 Rawang, Selangor",3.43749,101.54844,Taman Bunga Raya,"['Pos Malaysia Bukit Beruntung', 'Mimi Ceria Sarapan Pagi', 'Pos Malaysia']"
99speedmart,convenience_store,99SpeedMart @Taman Damai Jaya Cheras,"13 & 15 (GF), Jalan Damai 2, Taman Damai Jaya, 43200 Cheras, Selangor.",3.06216,101.76820,Taman Damai Jaya Cheras,"['Restoran H Maidin', 'Zack Sup Gear Box Berasap', '7-eleven']"
99speedmart,convenience_store,99SpeedMart @Alam Idaman,"G-14 & G-15, Alam Idaman Services Apartment, No: 2, Jalan Budiman 22/3, Seksyen 22, 40300 Shah Alam,Selangor",3.06701,101.55482,Alam Idaman,"['Klinik Lyana', 'Alam Idaman', 'Restoran Al-Aziz']"
99speedmart,convenience_store,99SpeedMart @Kota Damansara Sek 5,"35 (Ground Floor), Jalan Sepah Puteri 5/113, Pusat Dagangan Seri Utama, PJU 5, Kota Damansara, 47810 Petaling Jaya, Selangor",3.15498,101.58291,Kota Damansara Sek 5,"['Mediveron Clinic', 'Smart Reader Kids', 'CIMB-Principal Asset Management']"
99speedmart,convenience_store,99SpeedMart @Bandar Baru Kundang,"No: 43-B & 43-C (Ground Floor), Jalan Pekan 2, Kampung Baru Kundang, 48020 Rawang, Selangor",3.27927,101.51398,Bandar Baru Kundang,"['大树头大排档', '7 Eleven Kundang', 'JenSim Seafood Restaurant 珍森海鲜馆']"
99speedmart,convenience_store,99SpeedMart @Jalan Penggawa,"No: 1 (Ground Floor), Jalan Penggawa 6/2, Seksyen 2, Bandar Mahkota Cheras, 43000 Kajang, Selangor",3.05762,101.78397,Jalan Penggawa,"['Green Garden Restaurant', 'Surau Al Hidayah Seksyen 2 BMC']"
99speedmart,convenience_store,99SpeedMart @Pulau Indah,"AG-01 Blok A, Pangsapuri Samudera Persiaran Majlis Sultan/ KS 13 Pulau Indah, 42920 Pulau Indah, Selangor",2.93163,101.31520,Pulau Indah,"['Surau Pangsapuri Samudera', 'Hana Seafood Restaurant']"
99speedmart,convenience_store,99SpeedMart @Sunway Batu Caves,"No: G-08, Jalan SM 4, Tmn Sunway Batu Caves,68100 Batu Caves, Selangor Darul Ehsan",3.23602,101.69172,Sunway Batu Caves,"['SPK GAN AUTO TRADING', 'Dewan Bersalin Muslimah', 'Roti Bakor Amirreka by Amir Raja Lawak']"
99speedmart,convenience_store,99SpeedMart @Bandar Kinrara 1,"No: 3 & 5 (Ground Floor), Jalan BK 1/8, Bandar Kinrara, 47180 Puchong, Selangor",3.055119,101.649960,Bandar Kinrara 1,"['六记烧腊', 'United Automation Sdn Bhd', 'SJK (T) Ladang Kinrara']"
99speedmart,convenience_store,99SpeedMart @Sungai Besi Indah,"11 A (Ground Floor), JAlan SB Indah 1/2A, Tmn Sg Besi Indah, 43300 Seri Kembangan, Selangor",3.02719,101.72565,Sungai Besi Indah,"['Kedai Alat-alat Elektrik Sinsoonta Electrical Sdn Bhd', 'STL Seals & O Rings (SK) Sdn Bhd', '美味饮食中心']"
99speedmart,convenience_store,99SpeedMart @Taman Pinang Raja,"No: 4 & 6 (Ground Floor), Jalan Bakti 11A/KU03, Taman Pinang Raja, 41400 Klang, Selangor",3.06474,101.42407,Taman Pinang Raja,"['Lubokx', 'Shell Freemay Enterprise', 'Warung Wan Zainab']"
99speedmart,convenience_store,99SpeedMart @Taman Sri Putra,"No: 11 (Ground Floor), Jalan SP 12 A, Taman Sri Putra, 47000 Sungai Buloh, Selangor",3.249132,101.558094,Taman Sri Putra,"['Restoran Nor Mami Tanjung', 'PASARAYA SRI PUTRA', 'Pasar Malam Taman Sri Putra']"
99speedmart,convenience_store,99SpeedMart @Taman Telok Gedung Indah,"No: 18 & 20 (Ground Floor), Lorong Sungai Sama Gagah 19A/1, Tmn Teluk Gedung Indah, 41200 Klang, Selangor",2.983686,101.405786,Taman Telok Gedung Indah,"['Barnaz Corner 24hrs Mamak', 'Poliklinik & Surgeri Semarak', 'Shell']"
99speedmart,convenience_store,99SpeedMart @Bukit Jelutong 3,"No: 18, Jalan Serambi U8/24, D'Bayu, Bukit Jelutong, 40150 Shah Alam, Selangor",3.103107,101.528542,Bukit Jelutong 3,"['Restoran Asam Pedas', ""The Food Station @D'Bayu""]"
99speedmart,convenience_store,99SpeedMart @Kampung Delek,"No: 90 & 92 (Ground Floor), Jalan Kg Delek Kanan, Dahlia Apartment, Tmn Dahlia, 41250 Klang, Selangor",3.033351,101.40633,Kampung Delek,"['Klinik 1 Malaysia Kampung Delek', 'Nasi Lemak Warisan Kita', 'Mentari Tomyam Restaurant']"
99speedmart,convenience_store,99SpeedMart @Suakasih,"No 1 (Ground Floor), Jalan Suakasih 1/2, Bandar Tun Hussein Onn, 43200 Cheras, Selangor",3.03616,101.75890,Suakasih,"['Kedai Gunting Rambut Hadi', 'Azhar Scooter', 'Balai Polis Bandar Tun Hussein Onn']"
99speedmart,convenience_store,99SpeedMart @Semenyih Parklands,"No 26&27 (Ground Floor), Jalan Parklands 1, Semenyih Parklands     1, Semenyih Parklands, 43700 Beranang, Selangor.",2.89620,101.86952,Semenyih Parklands,"['Semenyih Parklands Developer Office', 'Planet Tomyam Beranang', 'Al Jazeerah Restaurant']"
99speedmart,convenience_store,99SpeedMart @Taman Melavis,"No 7 & 9(Ground Floor), Jalan Emas, Taman Melavis, 41000 Klang, Selangor Darul Ehsan.",3.043064,101.436988,Taman Melavis,"['Taman Melawis @ Mee Hoon Kueh Restaurant 麵粉粿', 'Kedai Runcit Seong Ann']"
99speedmart,convenience_store,99SpeedMart @Aman Putri,"No 1 & 3 (Ground Floor), Dataran Putri, Jalan Aman Damai H U17/H, Sek U17, Aman Putri, 40160 Shah Alam, Selangor Darul Ehsan.",3.2165532,101.5233583,Aman Putri,"['Cabello Hombre Barbershop', 'Restoran Pishangg Emas', 'Restoran Ali Nas']"
99speedmart,convenience_store,99SpeedMart @Taman Jaya Utama,"No 54 & 56 (Ground Floor), Jalan Utama 55, Taman Jaya Utama, Telok Panglima Garang, 42500 Telok Panglima Garang, Selangor.",2.9135142,101.4758661,Taman Jaya Utama,"['Restoran Habiba Maju', '7-Eleven Taman Jaya Utama', 'Madina Maju Bistro']"
99speedmart,convenience_store,99SpeedMart @Johan Setia,"No: 21 & 23 (Ground Floor), Jalan Mulia 17/KS 8, Taman Setia, Johan Setia,  41200 Klang,Selangor Darul Ehsan.",2.979769,101.465387,Johan Setia,"['Restoran Madina Maju', 'PC-Piling (M) Sdn Bhd', 'Dewan Al Munirah']"
99speedmart,convenience_store,99SpeedMart @Taman Pertama,"No: 8 & 10 (Ground Floor), Jalan Bunga Matahari, Taman Pertama Fasa 4, 45200 Sabak Bernam, Selangor Darul Ehsan.",3.75423,100.98598,Taman Pertama,"['Taman Pertama Fasa 3', 'Surau Raudhatul Jannah']"
99speedmart,convenience_store,99SpeedMart @Putra Permai 2,"No B6-01-01 & B6-01-03 (Ground Floor), Jalan Pinggiran 1/1, Taman Pinggiran Putra Sek 1, Bandar Putra Permai, 43300 Seri Kembangan, Selangor.",2.99493,101.67837,Putra Permai 2,"['Sunway Eastwood Sales Gallery', 'Microcorp Sdn Bhd', 'Microcorp']"
99speedmart,convenience_store,99SpeedMart @Medan Batu Caves,"No 2 (Ground Floor), Jalan Medan Batu Caves 1, Medan Batu Caves,      68100 Batu Caves, Selangor.",3.23466,101.67381,Medan Batu Caves,"['Tadika Dunia Kreatif', 'Altra Gym Fitness', 'The Medan']"
99speedmart,convenience_store,99SpeedMart @Sentosa Hulubalang,"No 243 (Ground Floor), Jalan Hulubalang 28, Fasa Dinasti, Taman      Sentosa, 41200 Klang, Selangor.",2.99853,101.48368,Sentosa Hulubalang,"['Restoran Nasi Kandar Dinnar', 'Lorong Hulubalang', 'Plaza Sentosa']"
99speedmart,convenience_store,99SpeedMart @Subang Bestari 2,"No 12 & 14 (Single Storey), Jalan Nova P U5/P, Subang Bestari, 40150 Shah Alam, Selangor",3.1814566,101.5421543,Subang Bestari 2,"['Orange Bubble Dobi', 'Car Wash', 'MANISA CORNER']"
99speedmart,convenience_store,99SpeedMart @Tanjung Karang 2,"No 6 & 8 (Ground Floor), Lorong Bahagia 2, Jalan Sungai Kajang,      45500 Tanjung Karang, Selangor",3.42385,101.17192,Tanjung Karang 2,"['Restoran Me Dang', 'Klinik Pergigian Rama', '98 Cafe']"
99speedmart,convenience_store,99SpeedMart @Taman Putra Perdana 3,"No G-62 (Ground Floor), Jalan Putra Perdana 5H, Taman Putra Perdana, 47100 Puchong, Selangor.",2.941551,101.610306,Taman Putra Perdana 3,"['Kedai Telekomunikasi Manik (B)', 'Snow Car Wash', 'Kedai Gunting Rambut Suba']"
99speedmart,convenience_store,99SpeedMart @Telok Panglima Garang 3,"No: 107 & 109 (Ground Floor), Jalan Wira 2, Taman Perwira, 42500 Telok Panglima Garang, Selangor Darul Ehsan.",2.939087,101.473036,Telok Panglima Garang 3,"['Siong Seng Auto Accessories Sdn Bhd', 'Park City Auto Accessories & Custom Centre', 'Dobi Papa (Self Service) Kg Sijangkang']"
99speedmart,convenience_store,99SpeedMart @Bangi Sekyen 4 (2),"No 18 & 20 (ground floor), Jalan 4/1B, Seksyen 4, 43650 Bandar Baru Bangi, Selangor Darul Ehsan.",2.95462,101.77826,Bangi Sekyen 4 (2),"['Restoren BBB Tomyam Seksyen 4', 'RBH Pet Shop']"
99speedmart,convenience_store,99SpeedMart @Sasaran 2,"No: 237 (Ground Floor), jalan besar sasaran, sungai buloh, 45800 jeram, Selangor Darul Ehsan.",3.25649,101.30772,Sasaran 2,"['Sungai Buluh Jeram', 'Pasar Harian Ceria', 'Burger King']"
99speedmart,convenience_store,99SpeedMart @Taman Kapar Ria,"No:16 (Ground Floor), Lorong Kapar Setia 36, Taman Kapar Ria 3, 42200 Kapar, Selangor Darul Ehsan",3.135803,101.388956,Taman Kapar Ria,"['凤春海鲜', 'Restorant Fong Chum']"
99speedmart,convenience_store,99SpeedMart @Subang Jaya SS15 (2),"No: 19 & 21 (Ground Floor), Jalan SS 15/2A, 47500 Subang Jaya, Selangor Darul Ehsan.",3.08170,101.58762,Subang Jaya SS15 (2),"['Klinic Jaya', 'ADM @ 3 Alliance']"
99speedmart,convenience_store,99SpeedMart @Cyberjaya Paragon,"No: GF-11 (Ground Floor), Menara Paragon, Persiaran Bestari, Cyber 11, 63100 Cyberjaya, Selangor Darul Ehsan.",2.9242371,101.6372785,Cyberjaya Paragon,"['Cyberjaya Menara Paragon', 'Baytana Restaurant']"
99speedmart,convenience_store,99SpeedMart @Taman Warisan Putra,"No: 6 (Ground Floor), Jalan Warisan Putra 1, Taman Warisan Putra, 43800 Dengkil, Selangor Darul Ehsan.",2.88555,101.72713,Taman Warisan Putra,"['IK Easy Dobi', 'Restoran Al-Fadhiya Bistro', 'Warung Aman Shah']"
99speedmart,convenience_store,99SpeedMart @Kawasan Perusahaan Mas Jaya,"No: 4 & 5 (Ground Floor), Jalan Mas Jaya 4, Kawasan Perusahaan Mas Jaya, 43200 Cheras, Selangor Darul Ehsan.",3.07341,101.77601,Kawasan Perusahaan Mas Jaya,"['Taman Cheras Intan', 'Surau Taman Cheras Intan', 'Parking']"
99speedmart,convenience_store,99SpeedMart @Taman Bunga Kantan,"No 3 & 5 (Ground Floor), Jalan Bunga Kantan 1, Taman Bunga Kantan, 43000 Kajang, Selangor Darul Ehsan.",3.002590,101.790680,Taman Bunga Kantan,"['7-Eleven Sungai Kantan', 'Restoran Mee Kari Power (Masjid Kajang)', 'Yunos Mee Bandung Muar']"
99speedmart,convenience_store,99SpeedMart @Taman Sutera Cheras,"No: 25 & 27 (Ground Floor), Jalan Sutera 4, Taman Sutera Residences, 43200 Cheras, Selangor Darul Ehsan.",3.041391,101.750291,Taman Sutera Cheras,"['Sekolah Rendah Islam Al-Amin Cheras Selatan', 'Warung Simple', 'S.M.Mydeen']"
99speedmart,convenience_store,99SpeedMart @Taman Saujana Putra 2,"No: 24 & 26 (Ground Floor), Jalan SP 1/2, Bandar Saujana Putra, 42600 Jenjarom, Selangor Darul Ehsan.",2.952648,101.577005,Taman Saujana Putra 2,"['MK Hair Beauty Salon', 'Klinik Veterinar & Surgeri Saujana Putra', 'Restoran Al Faizul Maju']"
99speedmart,convenience_store,99SpeedMart @M Avenue Rawang,"No: 41(Ground Floor), Jalan MR �, Taman M-Residensi, 48020 Rawang, Selangor Darul Ehsan.",3.320002,101.509705,M Avenue Rawang,"['HM Ali Teh Tarik @ M-Residence', 'Nasi Kandar Ajitha Maju', 'Adan Laundry (Saujana Rawang)']"
99speedmart,convenience_store,99SpeedMart @Taman Sri Melor,"No. 2, 3 & 3A (Ground Floor), Jalan Sri Melor, Taman Sri Melor, 43000 Kajang, Selangor Darul Eshan.",2.9708629,101.7825130,Taman Sri Melor,"['Warung Korner Maut', 'CIMB Sg Chua']"
99speedmart,convenience_store,99SpeedMart @Suria Jelutong,"No: 59 (Ground Floor), Jalan Bazar P U8/P, Bukit Jelutong, Seksyen U8, 40150 Shah Alam, Selangor Darul Ehsan.",3.097178,101.538875,Suria Jelutong,"['Scrumptious Sugar', 'newplace']"
99speedmart,convenience_store,99SpeedMart @Taman Jasa,"No: 141 & 143 (Ground Floor), Jalan Jasa 3, Taman Jasa, 68100 Selayang, Selangor Darul Ehsan.",3.256390,101.675120,Taman Jasa,"['Kedai Jimat', 'Taman Jasa Sungai Tua']"
99speedmart,convenience_store,99SpeedMart @Taman Seri Dagang,"No: 17 & 19 (Ground Floor), Jalan SD 1/1, Taman Seri Dagang 1, Bukit Changgang, 42700 Banting, Selangor",2.83055,101.61610,Taman Seri Dagang,"['Klinik Fuziah', 'Safa Marawa Bistro', 'Sitrajaya Development Sdn Bhd']"
99speedmart,convenience_store,99SpeedMart @Wisma 99 Speedmart,"G102, Wisma 99 Speedmart, PT 2811, Jalan Angsa, Taman Berkeley, 41150 Klang, Selangor Darul Ehsan.",3.054991,101.463806,Wisma 99 Speedmart,"['Burger King', 'Berkeley Corner']"
99speedmart,convenience_store,99SpeedMart @BSP Skypark,"S-G-07 & S-G-08, BSP SKYPARK, Persiaran Saujana Putra Utama, Bandar Saujana Putra, 42610 Jenjarom, Selangor Darul Ehsan.",2.941430,101.587243,BSP Skypark,"['Shera Car Wash', 'Restoran Takbir Maju', 'JHR Car Wash']"
99speedmart,convenience_store,99SpeedMart @Glomac Centro,"No: 1-42 & 1-43 (Ground Floor), Glomac Centro, Jalan Teratai, PJU 6A, Mukim Pekan Kayu Ara, 47400 Petaling Jaya, Selangor Darul Ehsan.",3.136972,101.615034,Glomac Centro,"['Dana Seafood & Thai Food', 'AMS Motor Parts Sdn Bhd', 'The HairDresser Studio']"
99speedmart,convenience_store,99SpeedMart @Taman Dagang,"No: 28 & 30 (Ground Floor), Jalan Dagang 1/1A, Taman Dagang, 68000 Ampang Selangor Darul Ehsan.",3.151576,101.759389,Taman Dagang,"['King Lion Barber Studio & Digital Printing', 'Easy RHB Taman Dagang', 'AsShams Travel & Tours']"
99speedmart,convenience_store,99SpeedMart @Ivory Residence,"No: 10 & 11 (Ground Floor), Mutiara Avenue, Jalan Mutiara 1, Mutiara Heights, 43000 Kajang, Selangor Darul Ehsan.",3.011771,101.811838,Ivory Residence,"['Restoran Al Khail Sdn Bhd', 'Restoran Wardah', 'Klinik Mediviron']"
99speedmart,convenience_store,99SpeedMart @USJ 11,"No: 3 (Ground Floor), Jalan USJ 11/3, UEP Subang Jaya, 47620 Subang Jaya., Selangor Darul Ehsan.",3.04779,101.57971,USJ 11,"['Kedai Gunting Rambut Jack', 'Subang Pets Paradise Vetinar', 'Daily Fresh Market']"
99speedmart,convenience_store,99SpeedMart @Sri Pristana,"No: E-1-40 & E-1-41 (Ground Floor), Jalan SP 11/3, Pristana Business Centre, 47000 Kuala Selangor, Selangor Darul Ehsan.",3.20669,101.47356,Sri Pristana,"['Boraq Boraq Café', 'Klinik Pergigian Dr Halid', 'Chempiang Rosdi']"
99speedmart,convenience_store,99SpeedMart @Bandar Bukit Raja 4,"No: 5 & 7 (Ground Floor), Jalan Singgahsana 4A, 40150 Bandar Bukit Raja, Selangor Darul Ehsan.",3.08992,101.45546,Bandar Bukit Raja 4,"['Warung Zamri', 'Restaurant Mamu AK Bistro', 'Nasi Kandar Takbir']"
99speedmart,convenience_store,99SpeedMart @Bandar Teknologi Kajang 2,"No: 6 & 8 (Ground Floor), Jalan 5/4, Seksyen 5, Bandar Teknologi Kajang, 43500 Semenyih, Selangor Darul Ehsan.",2.95787,101.81365,Bandar Teknologi Kajang 2,"['Mamak Bistro', 'Kajang Hill Golf Club']"
99speedmart,convenience_store,99SpeedMart @Berjaya Park 2,"No: 19 & 21 (Ground Floor), Jalan Sungai Rasau F 32/F, Taman Berjaya, 40460 Shah Alam, Selangor.",2.97989,101.51312,Berjaya Park 2,"['Segi Fresh Supermarket', 'Sri Kandi Empire Restoren&Katering', 'GPCA SDN. BHD.']"
99speedmart,convenience_store,99SpeedMart @Taman Wawasan Puchong 2,"No: 49 & 51 (Ground Floor), Jalan Wawasan 4/1, Pusat Bandar Puchong , 47100 Puchong, Selangor Darul Ehsan.",3.03566,101.62513,Taman Wawasan Puchong 2,"['Bumblebee Music', 'Hotel Song Song']"
99speedmart,convenience_store,99SpeedMart @Taman Sri Sentosa Jaya 1,"No : 1 (Ground Floor), Lorong Bendahara 9/ks 7, Taman Sejati, 41200 Klang, Selangor Darul Ehsan.",3.01145,101.46848,Taman Sri Sentosa Jaya 1,"['Manjaku Baby Centre', 'newplace']"
99speedmart,convenience_store,99SpeedMart @Taman Nirwana,"No : 20 & 22 (Ground Floor), Jalan Nirwana 1, Taman Nirwana, 68000 Ampang, Selangor Darul Ehsan.",3.14576,101.75228,Taman Nirwana,"['H2C', 'Cimb Atm Petronas Taman Dagang']"
99speedmart,convenience_store,99SpeedMart @Rawang 2,"No : 97 & 98 (Ground Floor), Jalan Welman, 48000 Rawang, Selangor Darul Ehsan.",3.32205,101.57452,Rawang 2,"['Ah Meng Durian Stall', 'Restoran Peng Nam (评男酒楼)', 'Pasaraya Thai Yean Trading']"
99speedmart,convenience_store,99SpeedMart @Taman Sepakat Indah,"No: 4 & 5 (Ground Floor), Jalan Sepakat Indah 2/1, Taman Sepakat Indah 2, 43000 Kajang, Selangor Darul Ehsan.",2.97452,101.78232,Taman Sepakat Indah,"['Hello Hello Mini Market', 'Al-Andalus Restaurant', 'Double 44']"
99speedmart,convenience_store,99SpeedMart @Taman Meru Selatan,"No: 7 & 9 (Ground Floor), Jalan Muafakat 1, Taman Meru Selatan Off Jalan Meru, 41050 Klang, Selangor Darul Ehsan.",3.11837,101.43998,Taman Meru Selatan,"['Al-Awwal Bistro', 'Restoran Al-Shah Maju', ""Pasar Malam Taman Dato' Bandar""]"
99speedmart,convenience_store,99SpeedMart @Kota Warisan 2,"No :131 (Ground Floor), Jalan Warisan Sentral 2, KIP Sentral Kota Warisan, 43900 Sepang, Selangor Darul Ehsan.",2.82099,101.69476,Kota Warisan 2,"['Onetwosix Ultraclean', 'Burger King Kota Warisan', 'Al Alefstar Bistro']"
99speedmart,convenience_store,99SpeedMart @Taman Denai Puchong,"No: 11 & 13 (Ground Floor), Jalan Denai Puchong, Taman Denai Puchong, 47100, Puchong, Selangor Darul Ehsan.",3.021388,101.598224,Taman Denai Puchong,"['Laundry Cube', 'Gerai Makanan Pasar Tani']"
99speedmart,convenience_store,99SpeedMart @Shah Alam Sek 26 (2),"No: 6 & 8 (Ground Floor), Jalan 26/2A, Seksyen 26, 40000 Shah Alam, Selangor Darul Ehsan.",3.03761,101.55073,Shah Alam Sek 26 (2),"['7-Eleven', 'Poliklinik Lourdes']"
99speedmart,convenience_store,99SpeedMart @Bukit Tinggi 4,"No :10-00-01 & 12-00-01 (Ground Floor), Lorong Batu Nilam 1D, Bandar Bukit Tinggi , 41200 Klang, Selangor Darul Ehsan.",3.00953,101.43878,Bukit Tinggi 4,"['亚枝肉骨茶', 'Restoran Anwarezam', 'Mersing Restaurant']"
99speedmart,convenience_store,99SpeedMart @Sungai Besi Indah 2,"No: 8 & 10 (Ground Floor), Jalan Dagang SB 4/1, Taman Sungai Besi Indah, 43300 Seri Kembangan, Selangor Darul Ehsan.",3.02500,101.71674,Sungai Besi Indah 2,"['Pertubuhan IKRAM Malaysia (IKRAM PUSAT)', 'Significant Technologies (SIGtech) Sdn. Bhd.', 'Significant Technologies Sdn Bhd (SIGtech)']"
99speedmart,convenience_store,99SpeedMart @Lestari Perdana,"No: 8 & 9 (Ground Floor), Jalan LP 3/5, Taman Lestari Perdana, 43300 Seri Kembangan, Selangor Darul Ehsan.",2.99917,101.66580,Lestari Perdana,"['Warung Sep Kito', 'Nasi Lemak Best Equine Park']"
99speedmart,convenience_store,99SpeedMart @Shah Alam Sek 13 (2),"No: 15 (Ground Floor), Jalan Boling Padang G 13/G, Seksyen 13, 40100 Shah Alam, Selangor Darul Ehsan.",3.07641,101.55044,Shah Alam Sek 13 (2),"['Ranggo Cafe', ""Restoran DE'DON""]"
99speedmart,convenience_store,99SpeedMart @Taman Bukit Sentosa,"No: 35 & 37 (Single Storey), Jalan Telipot 2A, Taman Bukit Sentosa 3, 48300 Rawang, Selangor Darul Ehsan.",3.40894,101.59258,Taman Bukit Sentosa,"['Restoran Hijau Sup Utara', 'Western Food Chicken Chop Uptown', 'Masjid Saidina Ali']"
99speedmart,convenience_store,99SpeedMart @Bandar Kajang,"No: 9 & 10 (Ground Floor), Jalan Tun Abdul Aziz, 43000 Kajang, Selangor Darul Ehsan.",2.99165,101.79002,Bandar Kajang,"['Restoran Kajang Raya (Nasi Padang)', 'Hong Leong Bank Kajang']"
99speedmart,convenience_store,99SpeedMart @Lembah Keramat,"No : 4 & 6 (Ground Floor), Jln AU 5C/14, Lembah Keramat, Ampang Hulu Klang, 68000 Ampang, Selangor Darul Ehsan.",3.20195,101.75649,Lembah Keramat,"['Reen Kleen Laundrete', 'Kedai Gunting Rambut OREN']"
99speedmart,convenience_store,99SpeedMart @Putrajaya Precint 15,"No : 2 & 4 (Ground Floor), Jln Diplomatik P15, Precint 15, 62050 Putrajaya, Selangor Darul Ehsan.",2.94500,101.72132,Putrajaya Precint 15,"['KLINIK DR NAJWA', 'Ali 1 Bistro Presint 15 Putrajaya', 'Pustaka Rawang @Precinct Diplomatic']"
99speedmart,convenience_store,99SpeedMart @Jalan Sungai Tua,"No : 7-A-G & 7-B-G (Ground Floor), Jalan Sungai Tua, Batu 7 1/4, Mukim Gombak, 68100 Batu Caves, Selangor Darul Ehsan.",3.24575,101.67426,Jalan Sungai Tua,"['Dasuki Bodykit', 'Laundrybar']"
99speedmart,convenience_store,99SpeedMart @Selayang Heights,"No: A-G-3 & A-G-3A (Ground Floor), Jalan SH 1/1A, Selayang Heights, 68100 Batu Caves, Selangor Darul Ehsan.",3.26605,101.65203,Selayang Heights,"['Tricalibre Headquaters', 'Restoran Hijas']"
99speedmart,convenience_store,99SpeedMart @Kota Emerald,"No: 1 (Ground Floor), Jalan KE 5/2, Kota Emerald, 48000 Rawang, Selangor Darul Ehsan.",3.32086,101.55677,Kota Emerald,"['Restoran Sulaiman', 'Mafaza Seafood', 'R&R Rawang - North Bound']"
99speedmart,convenience_store,99SpeedMart @Bandar 16 Sierra,"No: 21 (Ground Floor), Jalan Sierra 10/1, Bandar 16 Sierra, 47120 Puchong, Selangor Darul Ehsan.",2.97309,101.65785,Bandar 16 Sierra,"['Klinik Mediviron (Dr. Lim)', 'Rafflesia International School']"
99speedmart,convenience_store,99SpeedMart @USJ 4,"No: 28 (Ground Floor), Jalan USJ 4/9G, UEP Subang Jaya, 47600 Subang Jaya, Selangor Darul Ehsan.",3.04538,101.57552,USJ 4,"['Victor Medical Practise', 'Pusat Tuisyen Sri Setia', 'Trendy Cut']"
99speedmart,convenience_store,99SpeedMart @USJ Heights,"No: 7 & 9 (Ground Floor), Jalan Usj Heights 1/1B, Usj Heights, 47500 Subang Jaya, Selangor Darul Ehsan.",3.06212,101.56758,USJ Heights,"['USJ Avenue', 'Philtre Coffee', '7-Eleven']"
99speedmart,convenience_store,99SpeedMart @Taman Melawati,"No: 20 & 21 (Ground Floor), Jalan H3, Taman Melawati , 53100 Gombak, Selangor Darul Ehsan.",3.22756,101.74471,Taman Melawati,"['Pasar Mini As-Sakhiya', 'Restoran Selera Nurjaya', 'Annie Tailor']"
99speedmart,convenience_store,99SpeedMart @Setia Ecohill,"No: 3 & 5 (Ground Floor), Jalan Ecohill 1/5B, Setia Ecohill, 43500 Semenyih, Selangor Darul Ehsan.",2.92544,101.85384,Setia Ecohill,"[""Rest'1 Bistro"", 'Kkx 50 Restaurant 50号辣汤']"
99speedmart,convenience_store,99SpeedMart @Desa Mentari 2,"No: 19 (Ground Floor), Jalan PJS 6/6, Desa Mentari, 46000 Petaling Jaya, Selangor Darul Ehsan.",3.08007,101.61775,Desa Mentari 2,"['Eco-Shop RM2', 'Klinik Aisyah', 'Bs Freshmart']"
99speedmart,convenience_store,99SpeedMart @Sphere Damansara,"No: A01-08 & A01-09 (Ground Floor), Sphere Damansara, Jalan PJU 10/9 ,Prima Damansara, 47830 Petaling Jaya, Selangor Darul Ehsan.",3.19774,101.59918,Sphere Damansara,"['Pangolin Car Wash', 'Mamak Prima Bistro', 'Prima Damansara Car Wash']"
99speedmart,convenience_store,99SpeedMart @Damansara Utama,"No: 7 & 9 (Ground Floor), Jalan SS 21/60, Damansara Utama, 47400 Petaling Jaya, Selangor Darul Ehsan.",3.13289,101.62369,Damansara Utama,"['OldTown White Coffee', 'Happy Feet Elite']"
99speedmart,convenience_store,99SpeedMart @Perdana Industrial Park,"No: 6 & 8 (Ground Floor), Jalan PP 16/2, Perdana Industrial Park, Taman Putra Perdana, 47130 Puchong,  Selangor Darul Ehsan.",2.94437,101.60176,Perdana Industrial Park,"['The Siblings Playcafe', 'Speedmart', 'Restoran Irfan 76']"
99speedmart,convenience_store,99SpeedMart @Shah Alam Sek 17,"No: 9 & 11 (Ground Floor), Jalan 17/24, Seksyen 17, 40200 Shah Alam, Selangor Darul Ehsan.",3.04650,101.50590,Shah Alam Sek 17,"['Ken Ken Glass & Frame Maker', 'Kedai Haiwan Peliharaan', 'Restoran Mohamed']"
99speedmart,convenience_store,99SpeedMart @Port Klang 3,"No: 52 & 54 (Ground Floor), Jalan Buah Mentega /KS 04, 42000 Pelabuhan Klang, Selangor Darul Ehsan.",3.00098,101.39990,Port Klang 3,"['Nasi Kandar Warisan', 'Sekolah Kebangsaan Pelabuhan Klang', 'BSN Pelabuhan Klang']"
99speedmart,convenience_store,99SpeedMart @Puchong Hartamas,"No: S8 & S9 & S10 (Ground Floor), Pangsapuri Seri Pulai, Jalan PH 4, Taman Puchong Hartamas, 47100 Puchong, Selangor Darul Ehsan.",3.00536,101.62300,Puchong Hartamas,"[""Dawn's Nail & Beauty Studio"", 'Ipoh Station Antique Cafe', 'Kinrara Golf Club']"
99speedmart,convenience_store,99SpeedMart @Bukit Belimbing,"No: 72 & 74, Jalan Allamanda, Taman Bukit Belimbing, 43300 Seri Kembangan, Selangor Darul Ehsan.",3.02947,101.73306,Bukit Belimbing,"['生记茶餐室', 'Sang Kee Restaurant', 'Bukit Belimbing Food Court']"
99speedmart,convenience_store,99SpeedMart @Taman Paik Siong,"No: 14444-A & 14444-B (Ground Floor), Jalan Puchong BT 7 1/2, Taman Paik Siong, 47100 Puchong, Selangor Darul Ehsan.",3.06209,101.64659,Taman Paik Siong,"['Traffic Bandar Kinrara', 'Bintang Food Court', '星星茶餐室']"
99speedmart,convenience_store,99SpeedMart @Bandar Puchong Jaya 2,"No: 8-01 & 10-01 (Ground Floor), Jalan Kenari 18A, Bandar Puchong Jaya, 47100 Puchong, Selangor Darul Ehsan.",3.04518,101.62277,Bandar Puchong Jaya 2,"['Mykori Dessert Cafe', 'Restoran Hokkien 福建人炒薯粉白果', 'Tayo Bowl']"
99speedmart,convenience_store,99SpeedMart @Taman Tasik Puchong,"No: 30 & 32 (Ground Floor), Jalan TTP 1, Taman Tasik Puchong, 47100 Puchong, Selangor Darul Ehsan.",2.96841,101.61046,Taman Tasik Puchong,"['Restoran Al Jas', 'Restoran Haikal 76', 'Taman Putra']"
99speedmart,convenience_store,99SpeedMart @BSP 21,"No: S-G-03 & S-G-04 (Ground Floor), BSP 21, Jalan SP 8/6, Bandar Saujana Putra, 42610 Jenjarom, Selangor Darul Ehsan.",2.94345,101.58828,BSP 21,"['Home Mart', 'Ard Aljannatain']"
99speedmart,convenience_store,99SpeedMart @Setia Alam 5,"No : 8 & 10 (Ground Floor), Jalan Setia Permai BQ U13/BQ, Seksyen U13, Setia Alam, 40170 Shah Alam,  Selangor Darul Ehsan.",3.13347,101.45644,Setia Alam 5,"['Mamak Green Light', 'CARFLIX Auto Detailing', 'Warung Ummi Setia Alam']"
99speedmart,convenience_store,99SpeedMart @Bandar Puchong Jaya 3,"No : 16 & 18 (Ground Floor), Jalan Helang 15, Bandar Puchong Jaya, 47100 Puchong, Selangor Darul Ehsan.",3.06008,101.62688,Bandar Puchong Jaya 3,"['Kindly Self Service Laundry', '家乐杂饭专卖店 Restoran Kar Lok']"
99speedmart,convenience_store,99SpeedMart @Bukit Gasing,"No: 23 & 25 (Ground Floor), Jalan Chantek 5/13, Bukit Gasing, 46000 Petaling Jaya, Selangor Darul Ehsan.",3.10181,101.65365,Bukit Gasing,"['Biscuit Film Production House', 'Cintamani Bridal & Beauty Parlour', ""Kedai Makanan Raju (Raju's)""]"
99speedmart,convenience_store,99SpeedMart @Bandar Seri Putra 2,"No: 9 & 10 (Ground Floor), Jalan Seri Putra 3/11, Bandar Seri Putra, 43000 Kajang, Selangor Darul Ehsan.",2.88703,101.78075,Bandar Seri Putra 2,"['Azmie Seafood', 'Restoran Juara Cahaya', 'Restoran Hamidi Ceria']"
99speedmart,convenience_store,99SpeedMart @Denai Alam 2,"No: 61 (Ground Floor), Jalan Elektron D U16/D, Seksyen U16, Denai Alam, 40160 Shah Alam, Selangor Darul Ehsan.",3.16430,101.51444,Denai Alam 2,"['Pasaraya Sbella Denai Alam', 'Klinik Siti', 'Yessir Tyres Solution Sbn Bhd']"
99speedmart,convenience_store,99SpeedMart @Taman Melawati 2,"No: 9158 & 9159 (Ground Floor), Jalan Bandar 4, Taman Melawati, 53100 Gombak, Selangor Darul Ehsan.",3.21180,101.75162,Taman Melawati 2,"['KS Tyres & Services', 'Klinik Medik']"
99speedmart,convenience_store,99SpeedMart @Perdagangan Mesra Niaga,"No: 1 (Ground Floor), Jalan Mesra Niaga, Perdagangan Mesra Niaga, Batu 13 Jalan Cheras, 43000 Kajang, Selangor Darul Ehsan.",3.01313,101.77833,Perdagangan Mesra Niaga,"['Cendol 13', 'Al-ikhsan Prima Saujana']"
99speedmart,convenience_store,99SpeedMart @Taman Seri Delima,"No: 14 (Ground Floor), Jalan Seri Delima 1, Taman Seri Delima, 43800 Dengkil, Selangor Darul Ehsan.",2.85562,101.68454,Taman Seri Delima,"['Diamanda Pet Shop', 'Pusat Khidmat Rakyat Parlimen Sepang', 'Pusat Perubatan Dialisis Dengkil']"
99speedmart,convenience_store,99SpeedMart @Bangi Sek 15,"No: 18 & 20 (Ground Floor), Jalan 15/1E, Seksyen 15, Bandar Baru Bangi , 43650 Bandar Baru Bangi, Selangor Darul Ehsan.",2.93255,101.76811,Bangi Sek 15,"['Threeight Barbershop', 'Wolfgang Vapor', 'Klinik Zubir']"
99speedmart,convenience_store,99SpeedMart @Bandar Rimbayu,"No: 37 & 39 (Ground Floor), Jalan Flora 2/2, Bandar Rimbayu (Flora), 42500 Telok Panglima Garang, Selangor Darul Ehsan.",2.93349,101.54826,Bandar Rimbayu,"['Klinik Mediviron', 'Restoran Kheng Siang']"
99speedmart,convenience_store,99SpeedMart @USJ 9,"No: 15 & 17(Ground Floor), Jalan USJ 9/3F, 47620 Subang Jaya, Selangor Darul Ehsan.",3.04339,101.58322,USJ 9,"['Klinik Pergigian Azizah', 'Star Cafe', 'Klinik Pusrawi SMC']"
99speedmart,convenience_store,99SpeedMart @Taman Setia Klang,"No: 7 & 9 (Ground Floor), Lorong Setia 1A, Taman Setia, 41200 Klang, Selangor Darul Ehsan.",2.97875,101.48256,Taman Setia Klang,"['Pasar Malam Johan Setia', 'Warung Nasi Lemak Ciksu', 'Nasi Lemak Cik Su']"
99speedmart,convenience_store,99SpeedMart @Taman Lestari Putra,"No: 31 & 32 (Ground Floor), Jalan LEP 1/1B, Taman Lestari Putra, 43300 Seri Kembangan, Selangor Darul Ehsan.",2.99411,101.65141,Taman Lestari Putra,"['Bubblelab Laundry', 'Restoran Al Ehsan', 'Mr Mamak Bistro']"
99speedmart,convenience_store,99SpeedMart @Savanna Lifestyle Retail,"No: B-G-21 & 22 (Ground Floor), Savanna Lifestyle Retail, Jalan BBLS 2, Bandar Baru Lembah Selatan, 43800 Dengkil, Selangor Darul Ehsan.",2.90279,101.76432,Savanna Lifestyle Retail,"['Restoran Sultan', 'Malaysia Thailand Halal Food Festival (Mathaf)', 'Laundry Box']"
99speedmart,convenience_store,99SpeedMart @Vista Valley,"No: 49 (Ground Floor), Jalan Vista Valley 3, Vista Valley, 43500 Semenyih, Selangor Darul Ehsan.",2.95765,101.84014,Vista Valley,"['Tealive', 'Alpro Pharmacy']"
99speedmart,convenience_store,99SpeedMart @Subang Perdana 2,"No : 25 & 27 (Ground Floor), Jalan SP 2/2, Taman Subang Perdana 2, Seksyen U3, 40150 Shah Alam, Selangor Darul Ehsan.",3.15040,101.54232,Subang Perdana 2,"['Salphy Pharmacy', 'Poliklinik Harmoni', 'Klinik Harmoni']"
99speedmart,convenience_store,99SpeedMart @Bukit Rahman Putra 2,"No: 3 & 5 (Ground Floor), Jalan BRP 1/6A, Bukit Rahman Putra, Seksyen U20, 40160 Shah Alam, Selangor Darul Ehsan.",3.21001,101.56265,Bukit Rahman Putra 2,"['Fully Shop', 'TMpoint BRP', 'Kedai Alat-alat Jahitan Mesra']"
99speedmart,convenience_store,99SpeedMart @Taman Selayang Segar,"No: 13 & 14 (Ground Floor), Jalan Selayang Segar 1, Taman Selayang Segar, 68100 Batu Caves, Selangor Darul Ehsan",3.25145,101.65881,Taman Selayang Segar,"['Unitech Home Furniture SDN.BHD.', 'Gerai Abc & Kuih Muih', 'Teck Sime Motor SDN BHD']"
99speedmart,convenience_store,99SpeedMart @Eco Majestic,"No: 23-1 (Ground Floor), Jalan Eco Majestic 3A/1, Eco Majestic, 43500 Semenyih. Selangor Darul Ehsan.",2.90943,101.85112,Eco Majestic,"['Majestic Health', 'Isa Maju']"
99speedmart,convenience_store,99SpeedMart @Taman Desa Sri Qaseh,"No: 20 & 22 (Ground Floor), Jalan Sri Qaseh Permai, Taman Desa Sri Qaseh, 43900 Sepang, Selangor Darul Ehsan.",2.80503,101.72067,Taman Desa Sri Qaseh,"['Restoran Ari Warrior Timor', 'Aish Motorsports']"
99speedmart,convenience_store,99SpeedMart @USJ 21,"No: 63 & 65 (Ground Floor), Jalan USJ 21/10, 47640, Subang Jaya, Selangor Darul Ehsan.",3.02625,101.58193,USJ 21,"['Sigma Jelas Engineering SDN BHD', 'Shiro Beauty', 'Pet Lovers Centre']"
99speedmart,convenience_store,99SpeedMart @Puchong Perdana,"No: 32 & 34 (Ground Floor), Jalan Kekwa 2, Taman Puchong Perdana, 47150 Puchong, Selangor Darul Ehsan.",3.00638,101.60557,Puchong Perdana,"['大家樂海鮮飯店', 'Be Farmasi', '7Eleven Puchong Perdana']"
99speedmart,convenience_store,99SpeedMart @PJ 21,"No: 8 & 9 (Ground Floor), PJ 21, Jalan SS 3/39, 47300 Petaling Jaya, Selangor Darul Ehsan.",3.09025,101.61471,PJ 21,"['Beautility (KL) Sdn Bhd', 'Brigent Technology Plt', 'Klinik Alam Medic']"
99speedmart,convenience_store,99SpeedMart @Bandar Botanik 5,"No  12 & 14  (Ground Floor), Jalan Resak 1 /KS7, Bandar Botanik, 41200 Klang, Selangor Darul Ehsan.",2.99635,101.46125,Bandar Botanik 5,"['Sultan Bistro 24 Hours', '行运一条龙茶室', 'Bandar Puteri Playground']"
99speedmart,convenience_store,99SpeedMart @Taman Serdang Perdana 2,"No: 28 & 30 (Ground Floor), Jalan SP 5/3, Taman Serdang Perdana Seksyen 5, 43300 Seri Kembangan, Selangor Darul Ehsan.",3.04121,101.70656,Taman Serdang Perdana 2,"['Gate Of Yemen Restaurant', 'Sri Mek Seafood', 'Jamek']"
99speedmart,convenience_store,99SpeedMart @Setia Alam 6,"No: 16 & 18 (Ground Floor), Jalan Setia Utama AS, U13/AS, Setia Alam, 40170 Shah Alam, Selangor Darul",3.12420,101.46743,Setia Alam 6,"['Alifah Steamboat & Grill', 'S Tyre', 'Project Detailing Malaysia']"
99speedmart,convenience_store,99SpeedMart @Bandar Parklands 2,"No: 20 & 22 (Ground Floor), Jalan Delima 10/KS09, Bandar Parklands, 41200 Klang, Selangor Darul Ehsan.",2.96618,101.45544,Bandar Parklands 2,"['Laundry Hub', 'Parklands Basketball Court', 'Football Field &Playground']"
99speedmart,convenience_store,99SpeedMart @USJ 14,"No: 3 & 5 (Ground Floor), Jalan USJ 14/1M, USJ 14, 47630 UEP Subang Jaya, Selangor Darul Ehsan.",3.03829,101.58948,USJ 14,"['Nasi Lemak Usj 8', 'Nasi Lemak Kukus USJ14', 'Restoran Family Hakka Yong Tau Foo']"
99speedmart,convenience_store,99SpeedMart @Taman Cempaka,"No: 5 & 6 (Ground Floor), Jalan Cempaka 14, Taman Cempaka, 68000 Ampang, Selangor Darul Ehsan.",3.13915,101.75125,Taman Cempaka,"['GBBM HQ', 'Mee Jalil (Original Penang Taste)', 'Uptownace Sdn Bhd']"
99speedmart,convenience_store,99SpeedMart @Taman Dengkil Jaya,"No: 39 & 41 (Ground Floor), Jalan Kenanga 2, Taman Dengkil Jaya, 43800 Dengkil, Selangor Darul Ehsan.",2.87213,101.66997,Taman Dengkil Jaya,"['Pasar Tani Taman Dengkil Jaya', 'Restaurant Muhibbah Dengkil', 'HOCK TAI TELESHOP']"
99speedmart,convenience_store,99SpeedMart @Taman Equine,"No: 16 & 18 (Ground Floor), Jalan Putra Permai 1B, Taman Equine, 43300 Seri Kembangan, Selangor Darul Ehsan",2.99653,101.66829,Taman Equine,"['Workout Fitness', 'Restoran Zuleha Seri Kembangan']"
99speedmart,convenience_store,99SpeedMart @Taman Bukit Serdang 3,"No: 3A (Ground Floor), Jalan BS 10/7, Taman Bukit Serdang, Seksyen 10, 43300 Seri Kembangan, Selangor Darul Ehsan.",3.03909,101.69727,Taman Bukit Serdang 3,"['Industree Kopitiam', '山頂茶餐室 Restoran M. H', 'F & P Pharmacy']"
99speedmart,convenience_store,99SpeedMart @Perniagaan Jalan Trompet,"No: 3 & 5 (Ground Floor), Jalan Trompet 2, Perniagaan Jalan Trompet, Bukit Beruntung 48300 Rawang, Selangor Darul Ehsan.",3.41910,101.57017,Perniagaan Jalan Trompet,"['Restoran Drift Corner', 'SK Bukit Beruntung 2', 'Ais Kepal Malt Chocolate Semarak']"
99speedmart,convenience_store,99SpeedMart @Taman Sri Tanjung,"No: 4 & 6 (Ground Floor), Jalan Sri Tanjung 17, Taman Sri Tanjung, 43500 Semenyih, Selangor Darul Ehsan.",2.95824,101.85040,Taman Sri Tanjung,"['Patrick Car Wash', 'Kedai Makan Azmiera', 'Taman Desa Mewah']"
99speedmart,convenience_store,99SpeedMart @Taman Bangi Permai,"No: 10 & 11 (Ground Floor), Jalan Permai 1, Taman Bangi Permai, 43000 Kajang, Selangor Darul Ehsan.",2.90099,101.78146,Taman Bangi Permai,"['Ah Kent Motor', 'Pasar Malam Bangi', 'Rimbun Corner']"
99speedmart,convenience_store,99SpeedMart @Taman Saujana KLIA,"No: 12A & 16 (Ground Floor), Jalan Saujana KLIA 1/B, Taman Saujana KLIA, 43900 Sepang, Selangor Darul Ehsan.",2.81918,101.68933,Taman Saujana KLIA,"['Kedai Gunting Rambut Linges', 'newplace']"
99speedmart,convenience_store,99SpeedMart @Taman Aman Sekinchan,"No: PT 1993 (Ground Floor), Jalan Aman 3, Taman Aman 2, 45400 Sekinchan, Selangor Darul Ehsan.",3.51615,101.09582,Taman Aman Sekinchan,"['Balai Bomba Dan Penyelamat', 'Masjid Nurul Alaniah', 'Sungai Lang Marine & Supply']"
99speedmart,convenience_store,99SpeedMart @Taman Desa Mas,"No: 36 (Ground Floor), Jalan DM 5/1, Taman Desa Mas, 48000 Rawang, Selangor Darul Ehsan.",3.33866,101.52643,Taman Desa Mas,"['Restoran Al Rasheed Maju', 'Restoran Aqim Nasi Kandar', 'Pasar Mini Moga Jaya']"
99speedmart,convenience_store,99SpeedMart @Lestari Perdana 2,"No: 2 & 4 (Ground Floor), Jalan LP 7/5, Lestari Perdana, 43300 Seri Kembangan, Selangor Darul Ehsan.",3.00723,101.66680,Lestari Perdana 2,"['Restoran Puteri Adira', 'Rj Maju Nasi Kandar', 'Restoran Rj Maju']"
99speedmart,convenience_store,99SpeedMart @D'sara Sentral,"No: R-G-28 & R-G-29 (Ground Floor), D�Sara Sentral, Jalan Welfare, Kampung Baru Sungai Buloh, Seksyen U19, 40160 Shah Alam, Selangor Darul Ehsan.",3.19906,101.57739,D'sara Sentral,"[""7-11 (D'sara Sentral - 2590)"", ""D'sara Sentral Site"", 'Lafarge Sg.buloh']"
99speedmart,convenience_store,99SpeedMart @KP Seri Kembangan 2,"No: 1 & 3 (Ground Floor), Jalan Perusahaan 3, Kawasan Perusahaan Seri Kembangan, 43300 Seri Kembangan, Selangor Darul Ehsan.",3.01697,101.70424,KP Seri Kembangan 2,"['Hoong Fong Machinery Parts Trading', ""Domino's Pizza"", 'AUTOLE CAR CARE SDN BHD']"
99speedmart,convenience_store,99SpeedMart @Taman Pelangi Semenyih 2,"No: 27 & 29 (Ground Floor), Jalan TPS 1/6, Taman Pelangi Semenyih, 43500 Semenyih, Selangor Darul Ehsan.",2.93134,101.85752,Taman Pelangi Semenyih 2,"['Red Cut Hair Salon', 'TM Point Pelangi Semenyih', 'Pasar Segar Muliana Baru']"
99speedmart,convenience_store,99SpeedMart @Taman Seri Bedena,"No: PT 6803 & 6804 (Ground Floor), Jalan Bedena 1, Taman Seri Bedena, 45300 Sungai Besar, Selangor Darul Ehsan.",3.69098,100.97127,Taman Seri Bedena,"['Worldwide Holdings Berhad Sanitary Lanfills', 'Warung Lalapan', 'Fusipim']"
99speedmart,convenience_store,99SpeedMart @Masreca 19 Cyberjaya,"No: 46 & 47 (Ground Floor), Jalan 19/1, Masreca 19, Persiaran Rimba Permai, Cyber 10, 63000 Cyberjaya, Selangor Darul Ehsan.",2.90128,101.63041,Masreca 19 Cyberjaya,"['Masjid Cyber 10', 'Brainy Bunch International Montessori Cyberjaya']"
99speedmart,convenience_store,99SpeedMart @Bandar Mahkota Cheras 3,"No: 75 (Ground Floor), Jalan Mahkota Residence 1, Mahkota Residence 1, Bandar Mahkota Cheras, 43200 Cheras, Selangor Darul Ehsan.",3.05109,101.78284,Bandar Mahkota Cheras 3,"['TROVE HAIR DRESSING', 'Kedai Makanan Yo Jian Kopitiam', '幸福煮意']"
99speedmart,convenience_store,99SpeedMart @Taman Keramat,"No: 9 (Ground Floor), Jalan AU 2A/17, Taman Keramat, Ampang Hulu Klang, 68000 Ampang, Selangor Darul Ehsan.",3.17208,101.75099,Taman Keramat,"['Sizzling & Claypot @ Jusco AU2', 'Dobi Queen', 'Clinic Dr Suren']"
99speedmart,convenience_store,99SpeedMart @Shah Alam Sek 27 (2),"No: 19 (Ground Floor), Jalan 27/60, Seksyen 27, 40400 Shah Alam, Selangor Darul Ehsan.",3.01061,101.56514,Shah Alam Sek 27 (2),"['Restoran Deen Meru', 'Achievers Bookstore', 'Pusat Latihan Memandu Shah Bandar - Alam Megah Office']"
99speedmart,convenience_store,99SpeedMart @Taman Langat Ceria,"No: 15 & 17 (Ground Floor), Jalan Langat Ceria 4, Taman Langat Ceria, 43100 Hulu Langat, Selangor Darul Ehsan.",3.08089,101.78656,Taman Langat Ceria,"['Junk King (Asrul)', 'Salcon MMC AZSB JV', 'SNUI-JV Langat Office']"
